ObjectId,ID,CASENUMBER,CASETYPEID,CASETYPE,STREETADDRESS,ZIP,CITY,STATE,STATUS,DATEOPENED
1,94799,18ABC1145,1000,ABC Case,1100 ALGONQUIN PKY,40208-0000,LOUISVILLE,KY,Closed,2018/07/16 14:24:18+00
2,94800,18ABC1146,1000,ABC Case,800 E KENTUCKY ST,40204-0000,LOUISVILLE,KY,Closed,2018/07/16 14:29:00+00
3,94801,16ABC1122,1000,ABC Case,1601 S PRESTON ST,40217-0000,LOUISVILLE,KY,Closed,2016/09/12 14:09:49+00
4,94802,16ABC1123,1000,ABC Case,1601 S PRESTON ST,40217-0000,LOUISVILLE,KY,Closed,2016/09/12 14:21:28+00
5,94803,16ABC1159,1000,ABC Case, DUTCHMANS LN,40207-0000, ,KY,Closed,2016/12/15 17:47:14+00
6,94804,17ABC1050,1000,ABC Case,1512 PORTLAND AVE,40203-0000,LOUISVILLE,KY,Closed,2017/03/20 14:43:23+00
7,94805,18ABC1188,1000,ABC Case,5014 POPLAR LEVEL RD,40219-0000,LOUISVILLE,KY,Closed,2018/08/30 19:21:50+00
8,94806,17ABC1243,1000,ABC Case,1885 PRINCETON DR,40205-0000,LOUISVILLE,KY,Closed,2017/11/13 01:09:24+00
9,94807,17ABC1248,1000,ABC Case,1134 E BRECKINRIDGE ST,40204-0000,LOUISVILLE,KY,Closed,2017/11/14 20:01:31+00
10,94808,17ABC1206,1000,ABC Case,3039 TAYLOR BLVD,40208-0000,LOUISVILLE,KY,Closed,2017/09/27 18:48:40+00
11,94809,17ABC1023,1000,ABC Case,1939 LOWER HUNTERS TRCE,40216-0000,LOUISVILLE,KY,Closed,2017/02/16 15:29:49+00
12,94810,17ABC1003,1000,ABC Case,10641 DIXIE HWY,40272-0000,LOUISVILLE,KY,Closed,2017/01/07 22:46:25+00
13,94811,17ABC1014,1000,ABC Case,2620 PORTLAND AVE,40212-0000,LOUISVILLE,KY,Closed,2017/01/25 22:18:51+00
14,94812,16ABC1140,1000,ABC Case,3947 S 5TH ST,40214-0000,LOUISVILLE,KY,Closed,2016/10/19 12:29:20+00
15,94813,16ABC1142,1000,ABC Case,3947 S 5TH ST,40214-0000,LOUISVILLE,KY,Closed,2016/10/20 18:18:22+00
16,94814,16ABC1139,1000,ABC Case,3310 W BROADWAY ,40211-0000,LOUISVILLE,KY,Closed,2016/10/18 01:11:19+00
17,94815,16ABC1137,1000,ABC Case, 4th , , , ,Closed,2016/10/17 12:47:34+00
18,94816,16ABC1141,1000,ABC Case,  , , , ,Closed,2016/10/20 15:49:26+00
19,94817,16ABC1145,1000,ABC Case,9102 CROWNE SPRINGS CIR,40241-0000,LOUISVILLE,KY,Closed,2016/10/31 18:54:07+00
20,94818,17ABC1235,1000,ABC Case,2715 ROCKFORD LN,40216-0000,LOUISVILLE,KY,Closed,2017/11/07 21:14:54+00
21,94819,17ABC1203,1000,ABC Case,2000 PLANTSIDE DR,40299-0000,JEFFERSONTOWN,KY,Closed,2017/09/26 19:18:35+00
22,94820,16ABC1146,1000,ABC Case, DUTCHMANS LN,40207-0000, ,KY,Closed,2016/11/07 21:55:40+00
23,94821,17ABC1113,1000,ABC Case,4220 SOUTH PARK RD,40219-0000,LOUISVILLE,KY,Closed,2017/06/12 14:38:46+00
24,94822,18ABC1098,1000,ABC Case,1398 S 2ND ST,40208-0000,LOUISVILLE,KY,Closed,2018/05/14 12:01:56+00
25,94823,17ABC1015,1000,ABC Case,359 N 26TH ST,40212-0000,LOUISVILLE,KY,Closed,2017/01/27 23:25:25+00
26,94824,17ABC1028,1000,ABC Case,3503 FRANKLIN AVE,40213-0000,LOUISVILLE,KY,Closed,2017/03/07 16:06:24+00
27,94825,17ABC1033,1000,ABC Case,416 S 26TH ST,40212-0000,LOUISVILLE,KY,Closed,2017/03/08 19:34:03+00
28,94826,17ABC1016,1000,ABC Case,359 N 26TH ST,40212-0000,LOUISVILLE,KY,Closed,2017/02/02 16:48:49+00
29,94827,17ABC1039,1000,ABC Case,2523 W BROADWAY ,40211-0000,LOUISVILLE,KY,Closed,2017/03/13 20:25:02+00
30,94828,16ABC1147,1000,ABC Case,133 W LIBERTY ST,40202-0000,LOUISVILLE,KY,Closed,2016/11/22 14:41:59+00
31,94829,17ABC1172,1000,ABC Case,1609 BARDSTOWN RD,40205-0000,LOUISVILLE,KY,Closed,2017/08/23 15:26:57+00
32,94830,16ABC1138,1000,ABC Case,116 E MAIN ST,40202-0000,LOUISVILLE,KY,Closed,2016/10/17 18:48:14+00
33,94831,17ABC1026,1000,ABC Case,3952 BARDSTOWN RD,40218-0000,LOUISVILLE,KY,Closed,2017/03/06 21:34:53+00
34,94832,17ABC1029,1000,ABC Case, S 5TH ST,40202-0000,LOUISVILLE,KY,Closed,2017/03/07 20:55:50+00
35,94833,17ABC1032,1000,ABC Case,7844 DIXIE HWY,40258-0000,LOUISVILLE,KY,Closed,2017/03/08 16:04:25+00
36,94834,17ABC1009,1000,ABC Case,282 EVANGELINE AVE,40214-0000,LOUISVILLE,KY,Closed,2017/01/18 19:50:41+00
37,94835,17ABC1035,1000,ABC Case,4320 SUMMIT PLAZA DR,40241-0000,LOUISVILLE,KY,Closed,2017/03/10 19:05:54+00
38,94836,17ABC1048,1000,ABC Case,2523 W BROADWAY ,40211-0000,LOUISVILLE,KY,Closed,2017/03/17 16:11:33+00
39,94838,17ABC1059,1000,ABC Case,4122 PINECROFT DR,40219-0000,LOUISVILLE,KY,Closed,2017/04/03 19:33:08+00
40,94839,17ABC1042,1000,ABC Case,4744 POPLAR LEVEL RD,40213-0000,LOUISVILLE,KY,Closed,2017/03/14 20:34:22+00
41,94840,17ABC1043,1000,ABC Case,1565 BARDSTOWN RD,40205-0000,LOUISVILLE,KY,Closed,2017/03/14 21:31:28+00
42,94841,17ABC1044,1000,ABC Case, I 264 RAMP ,40215-0000,LOUISVILLE,KY,Closed,2017/03/15 13:51:25+00
43,94842,17ABC1063,1000,ABC Case,3296 TAYLOR BLVD,40215-0000,LOUISVILLE,KY,Closed,2017/04/04 20:20:48+00
44,94843,17ABC1047,1000,ABC Case, DIXIE HWY,40272-0000,LOUISVILLE,KY,Closed,2017/03/17 15:19:03+00
45,94844,17ABC1021,1000,ABC Case,5301 VALLEY STATION RD,40272-0000,LOUISVILLE,KY,Closed,2017/02/14 18:58:14+00
46,94845,17ABC1070,1000,ABC Case,1401 LEXINGTON RD,40206-0000,LOUISVILLE,KY,Closed,2017/04/14 20:52:51+00
47,94846,17ABC1071,1000,ABC Case,1944 MEADOWCREEK DR,40218-0000,LOUISVILLE,KY,Closed,2017/04/17 14:51:06+00
48,94847,17ABC1037,1000,ABC Case, POPLAR LEVEL RD,40213-0000,LOUISVILLE,KY,Closed,2017/03/10 19:38:51+00
49,94848,17ABC1064,1000,ABC Case,3802 SHEPHERDSVILLE RD,40218-0000,WEST BUECHEL,KY,Closed,2017/04/06 12:44:04+00
50,94849,17ABC1072,1000,ABC Case,3814 FRANKFORT AVE,40207-0000,LOUISVILLE,KY,Closed,2017/04/17 15:18:02+00
51,94901,17ABC1139,1000,ABC Case,1058 BARDSTOWN RD,40204-0000,LOUISVILLE,KY,Closed,2017/07/13 16:19:45+00
52,94902,17ABC1145,1000,ABC Case,8510 NATIONAL TPKE,40118-0000,LOUISVILLE,KY,Closed,2017/07/20 01:20:09+00
53,94903,17ABC1227,1000,ABC Case,1250 BARDSTOWN RD,40204-0000,LOUISVILLE,KY,Closed,2017/11/01 22:51:59+00
54,94904,18ABC1114,1000,ABC Case,3900 SHELBYVILLE RD,40207-0000,LOUISVILLE,KY,Closed,2018/05/31 18:22:50+00
55,94905,17ABC1092,1000,ABC Case,3741 S HURSTBOURNE PKY,40299-0000,LOUISVILLE,KY,Closed,2017/05/11 17:36:14+00
56,94906,17ABC1087,1000,ABC Case,942 BAXTER AVE,40204-0000,LOUISVILLE,KY,Closed,2017/05/04 20:16:24+00
57,94907,17ABC1210,1000,ABC Case,7400 3RD STREET RD,40214-0000,LOUISVILLE,KY,Closed,2017/10/02 16:46:16+00
58,94908,17ABC1084,1000,ABC Case,101 S 5TH ST,40202-0000,LOUISVILLE,KY,Closed,2017/05/03 13:53:46+00
59,94909,17ABC1109,1000,ABC Case, S 5TH ST,40202-0000,LOUISVILLE,KY,Closed,2017/06/05 18:56:00+00
60,94910,17ABC1106,1000,ABC Case,7900 SHELBYVILLE RD,40222-0000,LOUISVILLE,KY,Closed,2017/05/31 18:50:07+00
61,94911,17ABC1122,1000,ABC Case,2235 S PRESTON ST,40217-0000,LOUISVILLE,KY,Closed,2017/06/20 20:04:17+00
62,94912,17ABC1110,1000,ABC Case,120 N CLAY ST,40202-0000,LOUISVILLE,KY,Closed,2017/06/07 15:07:49+00
63,94913,17ABC1118,1000,ABC Case,536 BAXTER AVE,40204-0000,LOUISVILLE,KY,Closed,2017/06/14 20:50:57+00
64,94914,17ABC1095,1000,ABC Case,7320 SOUTHSIDE DR,40214-0000,LOUISVILLE,KY,Closed,2017/05/16 19:33:29+00
65,94915,17ABC1116,1000,ABC Case, S 18TH ST,40203-0000,LOUISVILLE,KY,Closed,2017/06/13 19:54:21+00
66,94916,17ABC1099,1000,ABC Case,700 LANDIS RIDGE DR,40245-0000,LOUISVILLE,KY,Closed,2017/05/18 21:24:43+00
67,94917,17ABC1160,1000,ABC Case,1036 E BURNETT AVE,40217-0000,LOUISVILLE,KY,Closed,2017/08/04 19:53:23+00
68,94918,17ABC1098,1000,ABC Case,120 W BROADWAY ,40202-0000,LOUISVILLE,KY,Closed,2017/05/18 21:21:29+00
69,94919,16ABC1028,1000,ABC Case,  , , , ,Closed,2016/01/29 16:38:55+00
70,94920,17ABC1012,1000,ABC Case,3412 GRANDVIEW AVE,40207-0000,ST MATTHEWS,KY,Closed,2017/01/23 15:56:17+00
71,94921,16ABC1049,1000,ABC Case, BARDSTOWN RD,40205-0000,LOUISVILLE,KY,Closed,2016/03/09 20:34:17+00
72,94922,16ABC1056,1000,ABC Case,2800 W MARKET ST,40212-0000,LOUISVILLE,KY,Closed,2016/03/22 19:37:45+00
73,94923,16ABC1036,1000,ABC Case,2523 W BROADWAY ,40211-0000,LOUISVILLE,KY,Closed,2016/02/23 18:52:13+00
74,94924,16ABC1037,1000,ABC Case,1111 SWAN ST,40204-0000,LOUISVILLE,KY,Closed,2016/02/23 18:53:01+00
75,94925,16ABC1033,1000,ABC Case,4240 SHELBYVILLE RD,40207-0000,ST MATTHEWS,KY,Closed,2016/02/10 15:09:43+00
76,94926,16ABC1074,1000,ABC Case,2141 SYCAMORE AVE,40206-0000,LOUISVILLE,KY,Closed,2016/05/19 20:28:46+00
77,94927,16ABC1041,1000,ABC Case,  , , , ,Closed,2016/03/02 19:38:29+00
78,94928,16ABC1001,1000,ABC Case,8118 PRESTON HWY,40219-0000,LOUISVILLE,KY,Closed,2016/01/04 15:23:03+00
79,94929,16ABC1067,1000,ABC Case,2523 W BROADWAY ,40211-0000,LOUISVILLE,KY,Closed,2016/04/06 20:01:34+00
80,94930,16ABC1070,1000,ABC Case,4642 DIXIE HWY,40216-0000,SHIVELY,KY,Closed,2016/05/11 18:01:54+00
81,94931,16ABC1007,1000,ABC Case,4822 POPLAR LEVEL RD,40213-0000,LOUISVILLE,KY,Closed,2016/01/08 19:33:09+00
82,94932,16ABC1066,1000,ABC Case,600 TERMINAL DR,40209-0000,LOUISVILLE,KY,Closed,2016/04/06 19:49:15+00
83,94933,16ABC1024,1000,ABC Case,1031 S 6TH ST,40203-0000,LOUISVILLE,KY,Closed,2016/01/25 20:28:09+00
84,94934,16ABC1075,1000,ABC Case,101 E JEFFERSON ST,40202-0000,LOUISVILLE,KY,Closed,2016/05/20 22:16:06+00
85,94935,16ABC1021,1000,ABC Case,3700 BARDSTOWN RD,40218-0000,LOUISVILLE,KY,Closed,2016/01/21 21:20:18+00
86,94936,17ABC1100,1000,ABC Case,3425 TAYLOR BLVD,40215-0000,LOUISVILLE,KY,Closed,2017/05/21 06:44:39+00
87,94937,16ABC1069,1000,ABC Case,2286 BARDSTOWN RD,40205-0000,LOUISVILLE,KY,Closed,2016/05/09 18:28:38+00
88,94938,16ABC1078,1000,ABC Case,4347 S 3RD ST,40214-0000,LOUISVILLE,KY,Closed,2016/05/25 19:30:41+00
89,94939,16ABC1157,1000,ABC Case,1064 BARDSTOWN RD,40204-0000,LOUISVILLE,KY,Closed,2016/12/13 21:29:08+00
90,94940,17ABC1247,1000,ABC Case,1250 BARDSTOWN RD,40204-0000,LOUISVILLE,KY,Closed,2017/11/13 22:38:28+00
91,94941,18ABC1180,1000,ABC Case, BARDSTOWN RD,40205-0000,LOUISVILLE,KY,Closed,2018/08/24 15:09:15+00
92,94942,18ABC1248,1000,ABC Case,212 ALVINA WAY,40214-0000,LOUISVILLE,KY,Closed,2018/11/14 16:54:59+00
93,94943,16ABC1107,1000,ABC Case,2200 W MARKET ST,40212-0000,LOUISVILLE,KY,Closed,2016/08/04 21:02:23+00
94,94944,17ABC1143,1000,ABC Case,4105 TAYLOR BLVD,40215-0000,LOUISVILLE,KY,Closed,2017/07/17 20:11:11+00
95,94945,17ABC1265,1000,ABC Case,1715 BERRY BLVD,40215-0000,LOUISVILLE,KY,Closed,2017/12/11 14:23:04+00
96,94946,16ABC1111,1000,ABC Case,2200 W MARKET ST,40212-0000,LOUISVILLE,KY,Closed,2016/08/05 19:00:39+00
97,94947,18ABC1201,1000,ABC Case,4111 MURPHY LN,40241-0000,LOUISVILLE,KY,Closed,2018/09/25 15:29:44+00
98,94948,17ABC1142,1000,ABC Case,5011 POPLAR LEVEL RD,40219-0000,LOUISVILLE,KY,Closed,2017/07/17 14:08:01+00
99,94949,16ABC1081,1000,ABC Case,1138 S 7TH ST,40203-0000,LOUISVILLE,KY,Closed,2016/05/27 19:07:07+00
100,94950,17ABC1101,1000,ABC Case,4406 TAYLOR BLVD,40215-0000,LOUISVILLE,KY,Closed,2017/05/22 03:05:15+00
101,95002,17ABC1105,1000,ABC Case,700 LANDIS RIDGE DR,40245-0000,LOUISVILLE,KY,Closed,2017/05/31 16:22:29+00
102,95003,15ABC1173,1000,ABC Case,2529 W BROADWAY ,40211-0000,LOUISVILLE,KY,Closed,2015/08/11 21:31:15+00
103,95004,15ABC1167,1000,ABC Case,5001 MUD LN,40229-0000,LOUISVILLE,KY,Closed,2015/08/04 14:56:28+00
104,95005,17ABC1093,1000,ABC Case, S 3RD ST,40214-0000,LOUISVILLE,KY,Closed,2017/05/15 15:56:10+00
105,95006,15ABC1190,1000,ABC Case,4106 MURPHY LN,40241-0000,LOUISVILLE,KY,Closed,2015/08/30 23:41:17+00
106,95007,15ABC1179,1000,ABC Case,6301 APEX DR,40219-0000,LOUISVILLE,KY,Closed,2015/08/13 14:34:47+00
107,95008,15ABC1181,1000,ABC Case, BLANKENBAKER PKY,40299-0000, ,KY,Closed,2015/08/14 20:37:50+00
108,95009,15ABC1191,1000,ABC Case, S 28TH ST,40211-0000,LOUISVILLE,KY,Closed,2015/09/03 16:52:44+00
109,95010,16ABC1011,1000,ABC Case,7302 GRADE LN,40219-0000,LOUISVILLE,KY,Closed,2016/01/13 16:30:41+00
110,95011,17ABC1006,1000,ABC Case,  , , , ,Closed,2017/01/11 14:47:28+00
111,95012,17ABC1123,1000,ABC Case, W BROADWAY ,40203-0000,LOUISVILLE,KY,Closed,2017/06/22 13:44:48+00
112,95013,17ABC1007,1000,ABC Case,1164 S 3RD ST,40203-0000,LOUISVILLE,KY,Closed,2017/01/17 17:52:45+00
113,95014,15ABC1218,1000,ABC Case, CANE RUN RD,40216-0000, ,KY,Closed,2015/10/20 21:30:48+00
114,95015,15ABC1222,1000,ABC Case,9700 PRESTON CROSSING BLVD,40229-0000,LOUISVILLE,KY,Closed,2015/10/24 06:27:17+00
115,95016,15ABC1221,1000,ABC Case,5414 VALLEY STATION RD,40272-0000,LOUISVILLE,KY,Closed,2015/10/24 05:46:33+00
116,95017,15ABC1223,1000,ABC Case,9220 BLUE LICK RD,40229-0000,LOUISVILLE,KY,Closed,2015/10/24 06:34:21+00
117,95018,15ABC1224,1000,ABC Case,9110 BLUE LICK RD,40219-0000,LOUISVILLE,KY,Closed,2015/10/24 06:42:16+00
118,95019,15ABC1225,1000,ABC Case,6112 PRESTON HWY,40219-0000,LOUISVILLE,KY,Closed,2015/10/24 06:59:04+00
119,95020,17ABC1262,1000,ABC Case,4812 KINGFISHER WAY,40213-0000,LYNNVIEW,KY,Closed,2017/12/07 15:56:58+00
120,95021,15ABC1165,1000,ABC Case, N BROOK ST,40202-0000,LOUISVILLE,KY,Closed,2015/07/29 15:59:24+00
121,95022,15ABC1172,1000,ABC Case,3202 7TH STREET RD,40216-0000,SHIVELY,KY,Closed,2015/08/11 20:41:11+00
122,95023,17ABC1079,1000,ABC Case,1565 BARDSTOWN RD,40205-0000,LOUISVILLE,KY,Closed,2017/05/01 14:13:17+00
123,95024,15ABC1231,1000,ABC Case,11336 PRESTON HWY,40229-0000,LOUISVILLE,KY,Closed,2015/10/30 18:42:33+00
124,95025,16ABC1052,1000,ABC Case,1076 E WASHINGTON ST,40206-0000,LOUISVILLE,KY,Closed,2016/03/18 20:12:11+00
125,95026,16ABC1053,1000,ABC Case,1052 OAKWOOD AVE,40215-0000,LOUISVILLE,KY,Closed,2016/03/18 20:19:08+00
126,95027,16ABC1054,1000,ABC Case,4109 CANE RUN RD,40216-0000,SHIVELY,KY,Closed,2016/03/18 20:20:58+00
127,95028,17ABC1234,1000,ABC Case,1811 W MAIN ST,40203-0000,LOUISVILLE,KY,Closed,2017/11/07 21:04:38+00
128,95029,16ABC1025,1000,ABC Case,6908 SOUTHSIDE DR,40214-0000,LOUISVILLE,KY,Closed,2016/01/25 20:54:40+00
129,95030,16ABC1133,1000,ABC Case,5404 ANTLE DR,40229-0000,LOUISVILLE,KY,Closed,2016/10/11 13:28:21+00
130,95031,15ABC1253,1000,ABC Case,7300 ST ANDREWS CHURCH RD,40214-0000,LOUISVILLE,KY,Closed,2015/12/23 21:00:57+00
131,95032,15ABC1246,1000,ABC Case,3415 FERN VALLEY RD,40213-0000,LOUISVILLE,KY,Closed,2015/12/07 14:24:38+00
132,95033,16ABC1023,1000,ABC Case,5207 MOUNT WASHINGTON RD,40229-0000,LOUISVILLE,KY,Closed,2016/01/25 17:57:10+00
133,95034,16ABC1002,1000,ABC Case,1601 S PRESTON ST,40217-0000,LOUISVILLE,KY,Closed,2016/01/04 16:04:33+00
134,95035,17ABC1237,1000,ABC Case,2928 W KENTUCKY ST,40211-0000,LOUISVILLE,KY,Closed,2017/11/08 16:37:18+00
135,95036,15ABC1243,1000,ABC Case, S 4TH ST,40202-0000,LOUISVILLE,KY,Closed,2015/12/03 14:36:20+00
136,95037,16ABC1130,1000,ABC Case,1601 S PRESTON ST,40217-0000,LOUISVILLE,KY,Closed,2016/10/04 12:32:44+00
137,95038,16ABC1044,1000,ABC Case,8112 PRESTON HWY,40219-0000,LOUISVILLE,KY,Closed,2016/03/07 15:29:06+00
138,95039,15ABC1258,1000,ABC Case,11901 STANDIFORD PLAZA DR,40229-0000,LOUISVILLE,KY,Closed,2015/12/29 14:33:07+00
139,95040,16ABC1030,1000,ABC Case,  , , , ,Closed,2016/02/03 15:30:35+00
140,95041,16ABC1015,1000,ABC Case,2965 BRECKENRIDGE LN,40220-0000,LOUISVILLE,KY,Closed,2016/01/14 21:37:31+00
141,95042,17ABC1132,1000,ABC Case,2901 7TH STREET RD,40215-0000,LOUISVILLE,KY,Closed,2017/07/05 19:29:04+00
142,95043,16ABC1020,1000,ABC Case,3700 BARDSTOWN RD,40218-0000,LOUISVILLE,KY,Closed,2016/01/21 21:08:31+00
143,95044,16ABC1135,1000,ABC Case,1927 S 4TH ST,40208-0000,LOUISVILLE,KY,Closed,2016/10/13 13:57:08+00
144,95045,19ABC1046,1000,ABC Case,9200 BLUE LICK RD,40229-0000,LOUISVILLE,KY,Closed,2019/02/11 19:09:40+00
145,95046,16ABC1027,1000,ABC Case,444 S 5TH ST,40202-0000,LOUISVILLE,KY,Closed,2016/01/28 20:38:30+00
146,95047,16ABC1094,1000,ABC Case,4744 POPLAR LEVEL RD,40213-0000,LOUISVILLE,KY,Closed,2016/07/02 23:58:17+00
147,95048,17ABC1000,1000,ABC Case,2529 W BROADWAY ,40211-0000,LOUISVILLE,KY,Closed,2017/01/03 15:27:48+00
148,95049,17ABC1119,1000,ABC Case,1121 E WASHINGTON ST,40206-0000,LOUISVILLE,KY,Closed,2017/06/15 17:32:29+00
149,95050,17ABC1267,1000,ABC Case,5013 POPLAR LEVEL RD,40219-0000,LOUISVILLE,KY,Closed,2017/12/12 17:12:10+00
150,95051,15ABC1256,1000,ABC Case,8402 NATIONAL TPKE,40214-0000,LOUISVILLE,KY,Closed,2015/12/28 21:46:32+00
151,94951,16ABC1160,1000,ABC Case,2316 W MARKET ST,40212-0000,LOUISVILLE,KY,Closed,2016/12/22 18:22:36+00
152,94952,16ABC1090,1000,ABC Case,6313 RIVER RD,40059-0000,LOUISVILLE,KY,Closed,2016/06/20 14:48:11+00
153,94953,17ABC1240,1000,ABC Case,2620 PORTLAND AVE,40212-0000,LOUISVILLE,KY,Closed,2017/11/12 22:17:51+00
154,94954,16ABC1088,1000,ABC Case,  , , , ,Closed,2016/06/13 18:20:59+00
155,94955,18ABC1123,1000,ABC Case,1164 S 3RD ST,40203-0000,LOUISVILLE,KY,Closed,2018/06/19 14:06:22+00
156,94956,17ABC1205,1000,ABC Case,934 BAXTER AVE,40204-0000,LOUISVILLE,KY,Closed,2017/09/27 18:42:46+00
157,94957,16ABC1153,1000,ABC Case,400 E JEFFERSON ST,40031-0000,NOT IN JEFF CO,KY,Closed,2016/12/13 15:38:31+00
158,94958,17ABC1169,1000,ABC Case, BROWNSBORO RD,40241-0000,LOUISVILLE,KY,Closed,2017/08/17 14:25:41+00
159,94959,16ABC1127,1000,ABC Case,1601 S PRESTON ST,40217-0000,LOUISVILLE,KY,Closed,2016/09/14 14:15:28+00
160,94960,16ABC1097,1000,ABC Case,2529 W BROADWAY ,40211-0000,LOUISVILLE,KY,Closed,2016/07/14 13:57:53+00
161,94961,16ABC1099,1000,ABC Case,801 S 8TH ST,40203-0000,LOUISVILLE,KY,Closed,2016/07/19 13:47:38+00
162,94962,17ABC1078,1000,ABC Case,12451 PLANTSIDE DR,40299-0000,LOUISVILLE,KY,Closed,2017/04/27 15:49:23+00
163,94963,16ABC1105,1000,ABC Case,1512 PORTLAND AVE,40203-0000,LOUISVILLE,KY,Closed,2016/08/02 17:29:04+00
164,94964,16ABC1109,1000,ABC Case,944 E MUHAMMAD ALI BLVD,40204-0000,LOUISVILLE,KY,Closed,2016/08/05 18:33:56+00
165,94965,16ABC1112,1000,ABC Case,944 E MUHAMMAD ALI BLVD,40204-0000,LOUISVILLE,KY,Closed,2016/08/05 19:06:07+00
166,94966,17ABC1175,1000,ABC Case,4780 BARDSTOWN RD,40218-0000,LOUISVILLE,KY,Closed,2017/08/24 18:47:44+00
167,94967,16ABC1108,1000,ABC Case,944 E MUHAMMAD ALI BLVD,40204-0000,LOUISVILLE,KY,Closed,2016/08/02 14:16:50+00
168,94968,16ABC1087,1000,ABC Case,4122 PINECROFT DR,40219-0000,LOUISVILLE,KY,Closed,2016/06/10 20:24:31+00
169,94969,16ABC1080,1000,ABC Case,801 S CLAY ST,40203-0000,LOUISVILLE,KY,Closed,2016/05/27 19:03:55+00
170,94970,16ABC1103,1000,ABC Case,1601 S PRESTON ST,40217-0000,LOUISVILLE,KY,Closed,2016/08/01 20:03:03+00
171,94971,16ABC1113,1000,ABC Case,1123 S FLOYD ST,40203-0000,LOUISVILLE,KY,Closed,2016/08/14 16:36:55+00
172,94972,18ABC1109,1000,ABC Case,2440 BARDSTOWN RD,40205-0000,LOUISVILLE,KY,Closed,2018/05/24 16:47:00+00
173,94973,17ABC1125,1000,ABC Case,7314 FEGENBUSH LN,40228-0000,LOUISVILLE,KY,Closed,2017/06/26 14:56:20+00
174,94974,16ABC1098,1000,ABC Case,3004 S 4TH ST,40208-0000,LOUISVILLE,KY,Closed,2016/07/14 22:32:02+00
175,94975,16ABC1115,1000,ABC Case,2235 S PRESTON ST,40217-0000,LOUISVILLE,KY,Closed,2016/08/18 19:51:45+00
176,94976,16ABC1119,1000,ABC Case,11521 TAZWELL DR,40241-0000,LOUISVILLE,KY,Closed,2016/09/01 20:14:02+00
177,94977,16ABC1126,1000,ABC Case,1601 S PRESTON ST,40217-0000,LOUISVILLE,KY,Closed,2016/09/13 14:42:00+00
178,94978,16ABC1096,1000,ABC Case,2523 W BROADWAY ,40211-0000,LOUISVILLE,KY,Closed,2016/07/14 13:05:59+00
179,94979,16ABC1093,1000,ABC Case,4744 POPLAR LEVEL RD,40213-0000,LOUISVILLE,KY,Closed,2016/07/01 23:16:11+00
180,94980,16ABC1117,1000,ABC Case,7123 GRADE LN,40213-0000,LOUISVILLE,KY,Closed,2016/08/22 22:46:13+00
181,94982,17ABC1020,1000,ABC Case,1201 W HILL ST,40210-0000,LOUISVILLE,KY,Closed,2017/02/14 16:46:30+00
182,94983,17ABC1022,1000,ABC Case,  , , , ,Closed,2017/02/14 20:07:48+00
183,94984,16ABC1084,1000,ABC Case,2282 BARDSTOWN RD,40205-0000,LOUISVILLE,KY,Closed,2016/06/02 21:03:00+00
184,94985,16ABC1091,1000,ABC Case,7111 LOWER HUNTERS TRCE,40258-0000,LOUISVILLE,KY,Closed,2016/06/22 15:03:55+00
185,94986,16ABC1083,1000,ABC Case,7813 BEULAH CHURCH RD,40228-0000,LOUISVILLE,KY,Closed,2016/06/02 13:53:00+00
186,94987,16ABC1114,1000,ABC Case,2235 S PRESTON ST,40217-0000,LOUISVILLE,KY,Closed,2016/08/17 16:54:35+00
187,94988,16ABC1110,1000,ABC Case,2200 W MARKET ST,40212-0000,LOUISVILLE,KY,Closed,2016/08/05 18:58:40+00
188,94989,16ABC1116,1000,ABC Case,1601 S PRESTON ST,40217-0000,LOUISVILLE,KY,Closed,2016/08/18 20:19:19+00
189,94990,17ABC1171,1000,ABC Case,7123 GRADE LN,40213-0000,LOUISVILLE,KY,Closed,2017/08/22 14:45:59+00
190,94991,16ABC1106,1000,ABC Case,  , , , ,Closed,2016/08/03 02:27:36+00
191,94992,18ABC1113,1000,ABC Case,2208 STEIER LN,40218-0000,LOUISVILLE,KY,Closed,2018/05/31 13:15:43+00
192,94993,17ABC1131,1000,ABC Case,1137 CLAY AVE,40219-0000,LOUISVILLE,KY,Closed,2017/07/05 14:27:31+00
193,94994,15ABC1211,1000,ABC Case,1102 W ASHLAND AVE,40215-0000,LOUISVILLE,KY,Closed,2015/10/06 20:17:28+00
194,94995,15ABC1212,1000,ABC Case,3814 FRANKFORT AVE,40207-0000,LOUISVILLE,KY,Closed,2015/10/06 20:56:07+00
195,94996,15ABC1219,1000,ABC Case,3503 7TH STREET RD,40216-0000,LOUISVILLE,KY,Closed,2015/10/21 21:17:47+00
196,94997,15ABC1204,1000,ABC Case,1506 BERRY BLVD,40215-0000,LOUISVILLE,KY,Closed,2015/09/17 21:47:53+00
197,94998,17ABC1208,1000,ABC Case,3700 FALCON CREST DR,40219-0000,LOUISVILLE,KY,Closed,2017/09/28 16:55:28+00
198,94999,15ABC1192,1000,ABC Case,5507 VALLEY STATION RD,40272-0000,LOUISVILLE,KY,Closed,2015/09/08 01:11:33+00
199,95000,15ABC1159,1000,ABC Case,1200 S 1ST ST,40203-0000,LOUISVILLE,KY,Closed,2015/07/20 15:03:47+00
200,95001,15ABC1240,1000,ABC Case,2255 FRANKFORT AVE,40206-0000,LOUISVILLE,KY,Closed,2015/11/19 17:08:55+00
201,95103,16ABC1034,1000,ABC Case,7123 GRADE LN,40213-0000,LOUISVILLE,KY,Closed,2016/02/11 13:36:28+00
202,95104,16ABC1086,1000,ABC Case, S 28TH ST,40211-0000,LOUISVILLE,KY,Closed,2016/06/06 12:10:27+00
203,95105,15ABC1058,1000,ABC Case,12608 DIXIE HWY,40272-0000,LOUISVILLE,KY,Closed,2015/03/13 14:45:05+00
204,95106,15ABC1141,1000,ABC Case,5800 FERN VALLEY RD,40228-0000,LOUISVILLE,KY,Closed,2015/06/20 04:49:44+00
205,95107,15ABC1144,1000,ABC Case,4501 OUTER LOOP,40219-0000,LOUISVILLE,KY,Closed,2015/06/22 17:08:17+00
206,95108,15ABC1113,1000,ABC Case,7303 PRESTON HWY,40219-0000,LOUISVILLE,KY,Closed,2015/05/18 18:56:17+00
207,95109,15ABC1140,1000,ABC Case, BARDSTOWN RD,40205-0000,LOUISVILLE,KY,Closed,2015/06/19 16:29:23+00
208,95110,15ABC1157,1000,ABC Case,3503 7TH STREET RD,40216-0000,LOUISVILLE,KY,Closed,2015/07/12 02:26:48+00
209,95111,15ABC1119,1000,ABC Case,3606 GEORGETOWN CIR,40215-0000,LOUISVILLE,KY,Closed,2015/06/01 21:52:13+00
210,95112,15ABC1090,1000,ABC Case,  , , , ,Closed,2015/04/13 21:36:24+00
211,95113,15ABC1115,1000,ABC Case, PARK BOUNDARY RD,40205-0000,LOUISVILLE,KY,Closed,2015/05/27 15:32:29+00
212,95114,15ABC1105,1000,ABC Case,10608 DIXIE HWY,40272-0000,LOUISVILLE,KY,Closed,2015/05/04 21:54:12+00
213,95115,16ABC1151,1000,ABC Case,7325 ST ANDREWS CHURCH RD,40214-0000,LOUISVILLE,KY,Closed,2016/12/12 14:14:15+00
214,95116,16ABC1158,1000,ABC Case,2901 7TH STREET RD,40215-0000,LOUISVILLE,KY,Closed,2016/12/15 16:07:19+00
215,95117,15ABC1151,1000,ABC Case, EASTERN PKY,40217-0000,LOUISVILLE,KY,Closed,2015/07/01 15:57:55+00
216,95118,17ABC1080,1000,ABC Case,282 EVANGELINE AVE,40214-0000,LOUISVILLE,KY,Closed,2017/05/01 14:24:11+00
217,95119,15ABC1129,1000,ABC Case,1200 S 1ST ST,40203-0000,LOUISVILLE,KY,Closed,2015/06/10 16:27:11+00
218,95120,15ABC1087,1000,ABC Case,1601 S PRESTON ST,40217-0000,LOUISVILLE,KY,Closed,2015/04/06 20:26:12+00
219,95121,15ABC1131,1000,ABC Case, W BROADWAY ,40202-0000,LOUISVILLE,KY,Closed,2015/06/12 18:25:28+00
220,95122,17ABC1135,1000,ABC Case,7208 WHIPPLE RD,40272-0000,LOUISVILLE,KY,Closed,2017/07/11 14:55:17+00
221,95123,15ABC1152,1000,ABC Case,530 S JACKSON ST,40202-0000,LOUISVILLE,KY,Closed,2015/07/02 14:32:53+00
222,95124,15ABC1134,1000,ABC Case,1200 S 1ST ST,40203-0000,LOUISVILLE,KY,Closed,2015/06/16 15:41:08+00
223,95125,15ABC1130,1000,ABC Case,1047 BARDSTOWN RD,40204-0000,LOUISVILLE,KY,Closed,2015/06/11 23:18:59+00
224,95126,15ABC1143,1000,ABC Case,416 S 26TH ST,40212-0000,LOUISVILLE,KY,Closed,2015/06/22 16:51:40+00
225,95127,15ABC1122,1000,ABC Case, POPLAR LEVEL RD,40213-0000,LOUISVILLE,KY,Closed,2015/06/04 21:35:25+00
226,95128,18ABC1013,1000,ABC Case,7251 LOGISTICS DR,40258-0000,LOUISVILLE,KY,Closed,2018/01/08 13:20:50+00
227,95129,17ABC1184,1000,ABC Case,1201 W HILL ST,40210-0000,LOUISVILLE,KY,Closed,2017/09/05 15:42:33+00
228,95130,15ABC1205,1000,ABC Case,3801 W MARKET ST,40212-0000,LOUISVILLE,KY,Closed,2015/09/22 19:08:06+00
229,95131,15ABC1196,1000,ABC Case,3202 7TH STREET RD,40216-0000,SHIVELY,KY,Closed,2015/09/08 17:35:54+00
230,95132,18ABC1232,1000,ABC Case,7100 RAGGARD RD,40216-0000,LOUISVILLE,KY,Closed,2018/10/31 20:39:05+00
231,95133,16ABC1129,1000,ABC Case, BROWNSBORO RD,40222-0000, ,KY,Closed,2016/09/20 18:48:17+00
232,95134,17ABC1019,1000,ABC Case, S 1ST ST,40203-0000,LOUISVILLE,KY,Closed,2017/02/13 20:16:59+00
233,95135,15ABC1178,1000,ABC Case,6300 APEX DR,40219-0000,LOUISVILLE,KY,Closed,2015/08/13 14:22:22+00
234,95136,15ABC1175,1000,ABC Case,3633 PFLANZ AVE,40212-0000,LOUISVILLE,KY,Closed,2015/08/13 02:15:35+00
235,95137,16ABC1065,1000,ABC Case,7123 GRADE LN,40213-0000,LOUISVILLE,KY,Closed,2016/04/06 12:39:19+00
236,95138,15ABC1169,1000,ABC Case,1047 BARDSTOWN RD,40204-0000,LOUISVILLE,KY,Closed,2015/08/04 15:06:08+00
237,95139,15ABC1194,1000,ABC Case,2300 STANLEY GAULT PKY,40223-0000,LOUISVILLE,KY,Closed,2015/09/08 15:19:23+00
238,95140,18ABC1077,1000,ABC Case,5013 POPLAR LEVEL RD,40219-0000,LOUISVILLE,KY,Closed,2018/04/11 18:49:31+00
239,95141,16ABC1032,1000,ABC Case,5207 MOUNT WASHINGTON RD,40229-0000,LOUISVILLE,KY,Closed,2016/02/08 15:37:34+00
240,95142,17ABC1249,1000,ABC Case,4901 POPLAR LEVEL RD,40219-0000,LOUISVILLE,KY,Closed,2017/11/15 16:45:42+00
241,95143,16ABC1143,1000,ABC Case,280 W JEFFERSON ST,40202-0000,LOUISVILLE,KY,Closed,2016/10/24 14:15:01+00
242,95144,15ABC1215,1000,ABC Case,5360 DIXIE HWY,40216-0000,LOUISVILLE,KY,Closed,2015/10/13 13:15:00+00
243,95145,18ABC1063,1000,ABC Case,1202 BARDSTOWN RD,40204-0000,LOUISVILLE,KY,Closed,2018/03/25 05:02:12+00
244,95146,15ABC1207,1000,ABC Case,1047 BARDSTOWN RD,40204-0000,LOUISVILLE,KY,Closed,2015/09/28 20:28:26+00
245,95147,15ABC1186,1000,ABC Case,100 W BROADWAY ,40202-0000,LOUISVILLE,KY,Closed,2015/08/24 13:40:53+00
246,95148,15ABC1187,1000,ABC Case,6330 BARDSTOWN RD,40291-0000,LOUISVILLE,KY,Closed,2015/08/24 14:03:10+00
247,95149,15ABC1182,1000,ABC Case,1601 S PRESTON ST,40217-0000,LOUISVILLE,KY,Closed,2015/08/18 19:36:39+00
248,95150,15ABC1220,1000,ABC Case,  , , , ,Closed,2015/10/23 21:01:21+00
249,95151,15ABC1234,1000,ABC Case,6917 SOUTHSIDE DR,40214-0000,LOUISVILLE,KY,Closed,2015/11/04 19:13:23+00
250,95152,15ABC1171,1000,ABC Case,1601 S PRESTON ST,40217-0000,LOUISVILLE,KY,Closed,2015/08/10 20:28:03+00
251,95153,16ABC1062,1000,ABC Case,7338 DIXIE HWY,40258-0000,LOUISVILLE,KY,Closed,2016/03/31 13:30:13+00
252,95154,17ABC1192,1000,ABC Case,2825 KLONDIKE LN,40218-0000,LOUISVILLE,KY,Closed,2017/09/18 18:30:08+00
253,95155,17ABC1193,1000,ABC Case,4105 TAYLOR BLVD,40215-0000,LOUISVILLE,KY,Closed,2017/09/18 18:59:43+00
254,95156,15ABC1183,1000,ABC Case,609 WASHBURN AVE,40222-0000,LYNDON,KY,Closed,2015/08/19 20:33:58+00
255,95157,15ABC1198,1000,ABC Case, S 5TH ST,40202-0000,LOUISVILLE,KY,Closed,2015/09/08 21:00:16+00
256,95158,15ABC1235,1000,ABC Case,3814 FRANKFORT AVE,40207-0000,LOUISVILLE,KY,Closed,2015/11/07 05:18:19+00
257,95159,15ABC1166,1000,ABC Case,1047 BARDSTOWN RD,40204-0000,LOUISVILLE,KY,Closed,2015/08/03 18:41:10+00
258,95160,15ABC1229,1000,ABC Case,9200 PRESTON HWY,40229-0000,LOUISVILLE,KY,Closed,2015/10/29 14:40:36+00
259,95161,15ABC1230,1000,ABC Case,3110 ROCKFORD LN,40216-0000,LOUISVILLE,KY,Closed,2015/10/29 18:32:09+00
260,95162,16ABC1012,1000,ABC Case,3945 TAYLORSVILLE RD,40220-0000,LOUISVILLE,KY,Closed,2016/01/13 16:59:33+00
261,95163,18ABC1205,1000,ABC Case,1047 BARDSTOWN RD,40204-0000,LOUISVILLE,KY,Closed,2018/10/02 15:22:27+00
262,95164,15ABC1201,1000,ABC Case, LINN STATION RD,40222-0000, ,KY,Closed,2015/09/14 15:17:20+00
263,95165,15ABC1237,1000,ABC Case,5404 BARDSTOWN RD,40291-0000,LOUISVILLE,KY,Closed,2015/11/12 22:46:33+00
264,95166,15ABC1193,1000,ABC Case,3420 FERN VALLEY RD,40213-0000,LOUISVILLE,KY,Closed,2015/09/08 14:33:29+00
265,95167,15ABC1228,1000,ABC Case,1033 BARRET AVE,40204-0000,LOUISVILLE,KY,Closed,2015/10/28 14:43:18+00
266,95168,15ABC1185,1000,ABC Case,13601 DIXIE HWY,40272-0000,LOUISVILLE,KY,Closed,2015/08/21 22:45:12+00
267,95169,15ABC1174,1000,ABC Case,7207 FEGENBUSH LN,40228-0000,LOUISVILLE,KY,Closed,2015/08/12 20:54:26+00
268,95170,15ABC1200,1000,ABC Case,1506 BERRY BLVD,40215-0000,LOUISVILLE,KY,Closed,2015/09/11 22:12:21+00
269,95171,15ABC1164,1000,ABC Case, S 7TH ST,40208-0000,LOUISVILLE,KY,Closed,2015/07/27 22:38:53+00
270,95172,15ABC1161,1000,ABC Case,1397 S 2ND ST,40208-0000,LOUISVILLE,KY,Closed,2015/07/22 15:17:16+00
271,94850,16ABC1125,1000,ABC Case,5003 JEFFERSON RUN CT,40219-0000,LOUISVILLE,KY,Closed,2016/09/13 13:47:29+00
272,95173,15ABC1184,1000,ABC Case,11710 DIXIE HWY,40272-0000,LOUISVILLE,KY,Closed,2015/08/21 21:49:14+00
273,95174,15ABC1163,1000,ABC Case,3730 RIVER RD,40207-0000,LOUISVILLE,KY,Closed,2015/07/27 19:36:23+00
274,95175,15ABC1199,1000,ABC Case,1500 W OAK ST,40210-0000,LOUISVILLE,KY,Closed,2015/09/09 17:32:38+00
275,95176,15ABC1197,1000,ABC Case,3519 CAPRI DR,40218-0000,LOUISVILLE,KY,Closed,2015/09/08 19:28:37+00
276,95177,15ABC1255,1000,ABC Case,  , , , ,Closed,2015/12/28 17:12:36+00
277,95178,18ABC1216,1000,ABC Case,179 N PETERSON AVE,40206-0000,LOUISVILLE,KY,Closed,2018/10/15 14:23:37+00
278,95179,17ABC1195,1000,ABC Case,10805 BLUE LICK RD,40229-0000,LOUISVILLE,KY,Closed,2017/09/18 21:10:40+00
279,95180,15ABC1170,1000,ABC Case,100 W BROADWAY ,40202-0000,LOUISVILLE,KY,Closed,2015/08/09 00:50:56+00
280,95181,15ABC1160,1000,ABC Case,7704 YVETTE CT,40228-0000,LOUISVILLE,KY,Closed,2015/07/20 17:56:34+00
281,95182,16ABC1089,1000,ABC Case,3501 MOYERS CIR,40207-0000,LOUISVILLE,KY,Closed,2016/06/14 15:43:03+00
282,95183,15ABC1206,1000,ABC Case,2403 W BROADWAY ,40211-0000,LOUISVILLE,KY,Closed,2015/09/23 18:46:20+00
283,95184,15ABC1180,1000,ABC Case,  , , , ,Closed,2015/08/14 12:55:14+00
284,95185,15ABC1208,1000,ABC Case,1047 BARDSTOWN RD,40204-0000,LOUISVILLE,KY,Closed,2015/09/28 20:37:30+00
285,95186,15ABC1177,1000,ABC Case,4822 POPLAR LEVEL RD,40213-0000,LOUISVILLE,KY,Closed,2015/08/13 13:43:25+00
286,95187,16ABC1155,1000,ABC Case,1601 S PRESTON ST,40217-0000,LOUISVILLE,KY,Closed,2016/12/13 15:50:13+00
287,95188,15ABC1232,1000,ABC Case,5406 ANTLE DR,40229-0000,LOUISVILLE,KY,Closed,2015/10/30 23:24:50+00
288,95189,15ABC1233,1000,ABC Case,9702 OLD BARDSTOWN RD,40291-0000,LOUISVILLE,KY,Closed,2015/11/03 19:47:26+00
289,95190,15ABC1214,1000,ABC Case,3421 TAYLOR BLVD,40215-0000,LOUISVILLE,KY,Closed,2015/10/12 19:37:19+00
290,95191,18ABC1074,1000,ABC Case,1904 FRANKFORT AVE,40206-0000,LOUISVILLE,KY,Closed,2018/04/10 15:43:51+00
291,95192,17ABC1114,1000,ABC Case,1512 PORTLAND AVE,40203-0000,LOUISVILLE,KY,Closed,2017/06/12 17:46:42+00
292,95193,15ABC1241,1000,ABC Case,10626 DIXIE HWY,40272-0000,LOUISVILLE,KY,Closed,2015/11/19 18:44:04+00
293,95194,15ABC1025,1000,ABC Case,3952 BARDSTOWN RD,40218-0000,LOUISVILLE,KY,Closed,2015/01/26 14:52:04+00
294,95195,14ABC1252,1000,ABC Case,3435 PORTLAND PLZ,40212-0000,LOUISVILLE,KY,Closed,2014/12/16 17:25:49+00
295,95196,15ABC1016,1000,ABC Case,3425 TAYLOR BLVD,40215-0000,LOUISVILLE,KY,Closed,2015/01/17 06:45:55+00
296,95197,15ABC1002,1000,ABC Case,8610 DIXIE HWY,40258-0000,LOUISVILLE,KY,Closed,2015/01/08 19:17:46+00
297,95198,14ABC1174,1000,ABC Case,9304 BLUE LICK RD,40229-0000,LOUISVILLE,KY,Closed,2014/09/04 19:41:02+00
298,95199,14ABC1194,1000,ABC Case,3426 PRESTON HWY,40213-0000,LOUISVILLE,KY,Closed,2014/09/22 19:35:15+00
299,95200,14ABC1186,1000,ABC Case,1114 BARDSTOWN RD,40204-0000,LOUISVILLE,KY,Closed,2014/09/16 18:17:48+00
300,95201,14ABC1210,1000,ABC Case,701 CAMP ST,40203-0000,LOUISVILLE,KY,Closed,2014/10/22 12:38:22+00
301,95202,14ABC1212,1000,ABC Case,1133 BARDSTOWN RD,40204-0000,LOUISVILLE,KY,Closed,2014/10/25 08:13:07+00
302,94851,17ABC1060,1000,ABC Case,4122 PINECROFT DR,40219-0000,LOUISVILLE,KY,Closed,2017/04/04 12:47:34+00
303,94852,16ABC1124,1000,ABC Case,1601 S PRESTON ST,40217-0000,LOUISVILLE,KY,Closed,2016/09/13 13:32:18+00
304,94853,17ABC1018,1000,ABC Case,2106 BROWNSBORO RD,40206-0000,LOUISVILLE,KY,Closed,2017/02/10 19:37:30+00
305,94854,17ABC1073,1000,ABC Case,2601 W BROADWAY ,40211-0000,LOUISVILLE,KY,Closed,2017/04/18 16:26:20+00
306,94855,17ABC1041,1000,ABC Case,8021 PRESTON HWY,40219-0000,LOUISVILLE,KY,Closed,2017/03/14 19:25:55+00
307,94856,16ABC1156,1000,ABC Case,4137 ZOELLER AVE,40216-0000,LOUISVILLE,KY,Closed,2016/12/13 15:51:56+00
308,94857,17ABC1025,1000,ABC Case, OUTER LOOP,40219-0000,LOUISVILLE,KY,Closed,2017/03/03 18:16:46+00
309,94858,16ABC1136,1000,ABC Case,6302 APEX DR,40219-0000,LOUISVILLE,KY,Closed,2016/10/17 12:35:09+00
310,94859,17ABC1049,1000,ABC Case,3418 CLINGSTONE WAY,40220-0000,LOUISVILLE,KY,Closed,2017/03/17 16:17:38+00
311,94860,17ABC1027,1000,ABC Case,500 E MAIN ST,40202-0000,LOUISVILLE,KY,Closed,2017/03/06 22:16:42+00
312,94861,17ABC1257,1000,ABC Case,813 LYNDON LN,40222-0000,LYNDON,KY,Closed,2017/11/29 17:36:34+00
313,94862,17ABC1038,1000,ABC Case,1601 S PRESTON ST,40217-0000,LOUISVILLE,KY,Closed,2017/03/13 18:23:21+00
314,94863,17ABC1117,1000,ABC Case,1239 GILMORE LN,40213-0000,LYNNVIEW,KY,Closed,2017/06/14 13:59:06+00
315,94864,17ABC1211,1000,ABC Case,5204 ELZIE RD,40258-0000,LOUISVILLE,KY,Closed,2017/10/04 15:46:21+00
316,94865,17ABC1066,1000,ABC Case,8104 NATIONAL TPKE,40214-0000,LOUISVILLE,KY,Closed,2017/04/07 22:08:11+00
317,94866,17ABC1174,1000,ABC Case,978 BAXTER AVE,40204-0000,LOUISVILLE,KY,Closed,2017/08/23 15:39:19+00
318,94867,18ABC1117,1000,ABC Case,3825 BARDSTOWN RD,40218-0000,LOUISVILLE,KY,Closed,2018/06/12 13:59:38+00
319,94868,17ABC1069,1000,ABC Case, W MAIN ST,40202-0000,LOUISVILLE,KY,Closed,2017/04/14 17:28:02+00
320,94869,17ABC1061,1000,ABC Case,942 BAXTER AVE,40204-0000,LOUISVILLE,KY,Closed,2017/04/04 13:25:51+00
321,94870,18ABC1091,1000,ABC Case,2745 S HURSTBOURNE PKY,40220-0000,JEFFERSONTOWN,KY,Closed,2018/05/02 02:38:13+00
322,94871,17ABC1045,1000,ABC Case,1481 S SHELBY ST,40217-0000,LOUISVILLE,KY,Closed,2017/03/15 17:15:00+00
323,94872,17ABC1065,1000,ABC Case,11521 TAZWELL DR,40241-0000,LOUISVILLE,KY,Closed,2017/04/07 21:41:44+00
324,94873,17ABC1054,1000,ABC Case,1134 E BRECKINRIDGE ST,40204-0000,LOUISVILLE,KY,Closed,2017/03/24 19:53:16+00
325,94874,18ABC1043,1000,ABC Case,536 S 4TH ST,40202-0000,LOUISVILLE,KY,Closed,2018/02/20 20:12:36+00
326,94875,17ABC1034,1000,ABC Case,1398 S 2ND ST,40208-0000,LOUISVILLE,KY,Closed,2017/03/10 18:59:48+00
327,94876,18ABC1149,1000,ABC Case,4122 PINECROFT DR,40219-0000,LOUISVILLE,KY,Closed,2018/07/16 14:48:32+00
328,94877,17ABC1252,1000,ABC Case,5389 NEW CUT RD,40214-0000,LOUISVILLE,KY,Closed,2017/11/22 16:40:33+00
329,94878,16ABC1128,1000,ABC Case,611 S 4TH ST,40202-0000,LOUISVILLE,KY,Closed,2016/09/16 14:55:47+00
330,94879,18ABC1233,1000,ABC Case,7100 RAGGARD RD,40216-0000,LOUISVILLE,KY,Closed,2018/11/05 16:50:53+00
331,94881,17ABC1058,1000,ABC Case,1202 BARDSTOWN RD,40204-0000,LOUISVILLE,KY,Closed,2017/04/03 18:38:03+00
332,94882,17ABC1013,1000,ABC Case,3101 COMMERCE CENTER PL,40211-0000,LOUISVILLE,KY,Closed,2017/01/25 14:24:43+00
333,94883,17ABC1017,1000,ABC Case,359 N 26TH ST,40212-0000,LOUISVILLE,KY,Closed,2017/02/02 17:32:23+00
334,94884,18ABC1001,1000,ABC Case,4106 MURPHY LN,40241-0000,LOUISVILLE,KY,Closed,2018/01/03 13:57:02+00
335,94885,18ABC1027,1000,ABC Case,2100 W MUHAMMAD ALI BLVD,40212-0000,LOUISVILLE,KY,Closed,2018/01/23 03:33:37+00
336,94886,17ABC1056,1000,ABC Case, BERRY BLVD,40215-0000,LOUISVILLE,KY,Closed,2017/03/28 20:38:30+00
337,94887,17ABC1133,1000,ABC Case,7123 GRADE LN,40213-0000,LOUISVILLE,KY,Closed,2017/07/05 20:41:11+00
338,94888,17ABC1057,1000,ABC Case,1036 GOSS AVE,40217-0000,LOUISVILLE,KY,Closed,2017/03/31 16:32:10+00
339,94889,16ABC1148,1000,ABC Case, BRECKENRIDGE LN,40207-0000, ,KY,Closed,2016/12/02 16:42:26+00
340,94890,17ABC1156,1000,ABC Case,3801 FRANKFORT AVE,40207-0000,LOUISVILLE,KY,Closed,2017/08/02 22:47:27+00
341,94891,17ABC1157,1000,ABC Case,933 BAXTER AVE,40204-0000,LOUISVILLE,KY,Closed,2017/08/02 22:49:23+00
342,94892,17ABC1053,1000,ABC Case,1200 BARDSTOWN RD,40204-0000,LOUISVILLE,KY,Closed,2017/03/24 19:44:13+00
343,94893,17ABC1010,1000,ABC Case,6917 SOUTHSIDE DR,40214-0000,LOUISVILLE,KY,Closed,2017/01/18 19:54:05+00
344,94894,17ABC1046,1000,ABC Case,1202 BARDSTOWN RD,40204-0000,LOUISVILLE,KY,Closed,2017/03/16 17:55:45+00
345,94895,17ABC1002,1000,ABC Case,3101 COMMERCE CENTER PL,40211-0000,LOUISVILLE,KY,Closed,2017/01/05 16:31:20+00
346,94896,17ABC1112,1000,ABC Case,1047 BARDSTOWN RD,40204-0000,LOUISVILLE,KY,Closed,2017/06/09 15:39:03+00
347,94897,17ABC1068,1000,ABC Case,5404 BARDSTOWN RD,40291-0000,LOUISVILLE,KY,Closed,2017/04/11 14:02:03+00
348,94898,17ABC1036,1000,ABC Case,942 BAXTER AVE,40204-0000,LOUISVILLE,KY,Closed,2017/03/10 19:23:12+00
349,94899,17ABC1040,1000,ABC Case,2012 LANDING DR,40218-0000,LOUISVILLE,KY,Closed,2017/03/14 19:22:15+00
350,94900,17ABC1134,1000,ABC Case, S 4TH ST,40202-0000,LOUISVILLE,KY,Closed,2017/07/07 18:05:26+00
351,95052,16ABC1019,1000,ABC Case,2208 HIKES LN,40218-0000,LOUISVILLE,KY,Closed,2016/01/21 20:52:09+00
352,95054,16ABC1042,1000,ABC Case,1036 BARDSTOWN RD,40204-0000,LOUISVILLE,KY,Closed,2016/03/02 20:15:55+00
353,95055,16ABC1016,1000,ABC Case,2020 BASHFORD MANOR LN,40218-0000,WEST BUECHEL,KY,Closed,2016/01/16 05:45:56+00
354,95056,16ABC1038,1000,ABC Case,1567 S SHELBY ST,40217-0000,LOUISVILLE,KY,Closed,2016/02/23 18:53:43+00
355,95057,16ABC1022,1000,ABC Case,3700 BARDSTOWN RD,40218-0000,LOUISVILLE,KY,Closed,2016/01/21 21:22:44+00
356,95058,16ABC1118,1000,ABC Case,611 S 4TH ST,40202-0000,LOUISVILLE,KY,Closed,2016/08/30 15:31:38+00
357,95059,16ABC1144,1000,ABC Case,942 BAXTER AVE,40204-0000,LOUISVILLE,KY,Closed,2016/10/31 16:48:48+00
358,95060,15ABC1257,1000,ABC Case,507 N 27TH ST,40212-0000,LOUISVILLE,KY,Closed,2015/12/28 22:31:07+00
359,95061,15ABC1245,1000,ABC Case,1601 S PRESTON ST,40217-0000,LOUISVILLE,KY,Closed,2015/12/04 18:55:03+00
360,95062,16ABC1057,1000,ABC Case,6733 STRAWBERRY LN,40214-0000,LOUISVILLE,KY,Closed,2016/03/22 19:51:26+00
361,95063,16ABC1031,1000,ABC Case,7137 SOUTHSIDE DR,40214-0000,LOUISVILLE,KY,Closed,2016/02/04 21:52:50+00
362,95064,16ABC1039,1000,ABC Case,4911 SADDLEBROOK LN,40216-0000,LOUISVILLE,KY,Closed,2016/02/23 19:29:23+00
363,95065,16ABC1150,1000,ABC Case,801 S CLAY ST,40203-0000,LOUISVILLE,KY,Closed,2016/12/09 15:41:07+00
364,95066,15ABC1254,1000,ABC Case,2620 PORTLAND AVE,40212-0000,LOUISVILLE,KY,Closed,2015/12/23 23:20:50+00
365,95067,16ABC1035,1000,ABC Case,3619 GREEN MEADOWS DR,40218-0000,LOUISVILLE,KY,Closed,2016/02/15 12:31:39+00
366,95068,16ABC1043,1000,ABC Case,1601 S PRESTON ST,40217-0000,LOUISVILLE,KY,Closed,2016/03/03 12:34:10+00
367,95069,17ABC1067,1000,ABC Case,2235 FRANKFORT AVE,40206-0000,LOUISVILLE,KY,Closed,2017/04/11 13:53:54+00
368,95070,16ABC1046,1000,ABC Case,1601 S PRESTON ST,40217-0000,LOUISVILLE,KY,Closed,2016/03/08 13:12:18+00
369,95071,16ABC1149,1000,ABC Case,2300 LEXINGTON RD,40206-0000,LOUISVILLE,KY,Closed,2016/12/07 20:13:27+00
370,95072,16ABC1073,1000,ABC Case,7123 GRADE LN,40213-0000,LOUISVILLE,KY,Closed,2016/05/17 19:30:33+00
371,95073,16ABC1072,1000,ABC Case,4102 MURPHY LN,40241-0000,LOUISVILLE,KY,Closed,2016/05/15 22:15:32+00
372,95074,16ABC1000,1000,ABC Case,3632 7TH STREET RD,40216-0000,LOUISVILLE,KY,Closed,2016/01/04 03:18:05+00
373,95075,15ABC1252,1000,ABC Case,435 W OAK ST,40203-0000,LOUISVILLE,KY,Closed,2015/12/17 15:53:00+00
374,95076,15ABC1242,1000,ABC Case,1164 S 3RD ST,40203-0000,LOUISVILLE,KY,Closed,2015/12/02 15:42:30+00
375,95077,16ABC1063,1000,ABC Case,2928 HIKES LN,40218-0000,LOUISVILLE,KY,Closed,2016/03/31 13:37:49+00
376,95078,16ABC1050,1000,ABC Case,3105 S 3RD ST,40214-0000,LOUISVILLE,KY,Closed,2016/03/11 18:59:56+00
377,95079,16ABC1006,1000,ABC Case, GRINSTEAD DR,40204-0000,LOUISVILLE,KY,Closed,2016/01/07 16:07:39+00
378,95080,16ABC1009,1000,ABC Case,2965 BRECKENRIDGE LN,40220-0000,LOUISVILLE,KY,Closed,2016/01/12 17:19:11+00
379,95081,16ABC1101,1000,ABC Case,1164 S 3RD ST,40203-0000,LOUISVILLE,KY,Closed,2016/08/01 13:35:02+00
380,95082,15ABC1248,1000,ABC Case,501 W OAK ST,40203-0000,LOUISVILLE,KY,Closed,2015/12/14 16:54:28+00
381,95083,16ABC1005,1000,ABC Case,5410 DEL MARIA WAY,40291-0000,LOUISVILLE,KY,Closed,2016/01/06 23:33:53+00
382,95084,16ABC1017,1000,ABC Case,2207 GOLDSMITH LN,40218-0000,LOUISVILLE,KY,Closed,2016/01/16 06:06:04+00
383,95085,16ABC1071,1000,ABC Case,2728 W MARKET ST,40212-0000,LOUISVILLE,KY,Closed,2016/05/12 19:55:28+00
384,95086,16ABC1076,1000,ABC Case,14009 DIXIE HWY,40272-0000,LOUISVILLE,KY,Closed,2016/05/20 23:25:01+00
385,95087,16ABC1068,1000,ABC Case,6301 RIVER RD,40059-0000,LOUISVILLE,KY,Closed,2016/04/20 17:28:28+00
386,95088,16ABC1004,1000,ABC Case,2235 S PRESTON ST,40217-0000,LOUISVILLE,KY,Closed,2016/01/06 15:52:22+00
387,95089,16ABC1064,1000,ABC Case,2817 DEL RIO PL,40220-0000,LOUISVILLE,KY,Closed,2016/04/05 19:31:54+00
388,95090,16ABC1014,1000,ABC Case,3417 BRECKENRIDGE LN,40220-0000,LOUISVILLE,KY,Closed,2016/01/13 20:14:22+00
389,95091,16ABC1058,1000,ABC Case,8402 NATIONAL TPKE,40214-0000,LOUISVILLE,KY,Closed,2016/03/24 11:27:31+00
390,95092,18ABC1242,1000,ABC Case,10642 DIXIE HWY,40272-0000,LOUISVILLE,KY,Closed,2018/11/12 16:34:27+00
391,95093,17ABC1115,1000,ABC Case, S 18TH ST,40203-0000,LOUISVILLE,KY,Closed,2017/06/12 20:00:13+00
392,95094,16ABC1045,1000,ABC Case,3291 TAYLOR BLVD,40215-0000,LOUISVILLE,KY,Closed,2016/03/07 19:38:34+00
393,95095,16ABC1029,1000,ABC Case, CENTRAL AVE,40208-0000,LOUISVILLE,KY,Closed,2016/01/29 22:51:07+00
394,95096,16ABC1003,1000,ABC Case, TAYLORSVILLE RD,40205-0000,LOUISVILLE,KY,Closed,2016/01/05 20:32:22+00
395,95097,15ABC1244,1000,ABC Case,1601 S PRESTON ST,40217-0000,LOUISVILLE,KY,Closed,2015/12/04 18:36:30+00
396,95098,17ABC1251,1000,ABC Case,3912 BARDSTOWN RD,40218-0000,LOUISVILLE,KY,Closed,2017/11/21 13:57:58+00
397,95099,16ABC1040,1000,ABC Case,4948 DIXIE HWY,40216-0000,LOUISVILLE,KY,Closed,2016/02/26 12:21:17+00
398,95100,18ABC1264,1000,ABC Case,5404 BARDSTOWN RD,40291-0000,LOUISVILLE,KY,Closed,2018/11/26 16:33:23+00
399,95101,16ABC1055,1000,ABC Case,150 W WASHINGTON ST,40202-0000,LOUISVILLE,KY,Closed,2016/03/18 20:22:46+00
400,95102,16ABC1026,1000,ABC Case,200 W BRECKINRIDGE ST,40203-0000,LOUISVILLE,KY,Closed,2016/01/27 20:42:21+00
401,95303,15ABC1121,1000,ABC Case,291 N HUBBARDS LN,40207-0000,ST MATTHEWS,KY,Closed,2015/06/04 20:33:04+00
402,95304,15ABC1123,1000,ABC Case,1565 BARDSTOWN RD,40205-0000,LOUISVILLE,KY,Closed,2015/06/04 21:53:04+00
403,95305,15ABC1124,1000,ABC Case,1164 S 3RD ST,40203-0000,LOUISVILLE,KY,Closed,2015/06/04 21:59:24+00
404,95403,14ABC1179,1000,ABC Case,5207 ROSETTE BLVD,40218-0000,LOUISVILLE,KY,Closed,2014/09/08 15:53:01+00
405,95306,15ABC1154,1000,ABC Case,4214 OUTER LOOP,40219-0000,LOUISVILLE,KY,Closed,2015/07/06 20:15:28+00
406,95307,15ABC1111,1000,ABC Case,1601 S PRESTON ST,40217-0000,LOUISVILLE,KY,Closed,2015/05/14 20:47:00+00
407,95308,18ABC1174,1000,ABC Case,3028 BARDSTOWN RD,40205-0000,LOUISVILLE,KY,Closed,2018/08/15 23:22:29+00
408,95309,17ABC1149,1000,ABC Case,2620 PORTLAND AVE,40212-0000,LOUISVILLE,KY,Closed,2017/07/24 15:16:22+00
409,95310,17ABC1074,1000,ABC Case,4105 W MARKET ST,40212-0000,LOUISVILLE,KY,Closed,2017/04/20 11:32:32+00
410,95311,15ABC1082,1000,ABC Case,8122 PRESTON HWY,40219-0000,LOUISVILLE,KY,Closed,2015/04/05 07:55:01+00
411,95312,15ABC1227,1000,ABC Case,3110 ROCKFORD LN,40216-0000,LOUISVILLE,KY,Closed,2015/10/26 19:41:59+00
412,95313,15ABC1043,1000,ABC Case,1614 DIXIE HWY,40210-0000,LOUISVILLE,KY,Closed,2015/02/18 16:11:54+00
413,95314,18ABC1170,1000,ABC Case,1605 STORY AVE,40206-0000,LOUISVILLE,KY,Closed,2018/08/08 13:18:51+00
414,95315,15ABC1117,1000,ABC Case,4122 PINECROFT DR,40219-0000,LOUISVILLE,KY,Closed,2015/05/29 15:07:14+00
415,95316,15ABC1060,1000,ABC Case,1745 BARDSTOWN RD,40205-0000,LOUISVILLE,KY,Closed,2015/03/16 18:05:34+00
416,95317,15ABC1075,1000,ABC Case,5013 POPLAR LEVEL RD,40219-0000,LOUISVILLE,KY,Closed,2015/04/01 13:32:11+00
417,95318,15ABC1097,1000,ABC Case,280 W JEFFERSON ST,40202-0000,LOUISVILLE,KY,Closed,2015/04/16 19:44:19+00
418,95319,15ABC1110,1000,ABC Case,3700 MANSLICK RD,40215-0000,LOUISVILLE,KY,Closed,2015/05/13 18:51:30+00
419,95320,15ABC1080,1000,ABC Case,9737 3RD STREET RD,40272-0000,LOUISVILLE,KY,Closed,2015/04/02 13:37:54+00
420,95321,15ABC1095,1000,ABC Case,2100 S PRESTON ST,40217-0000,LOUISVILLE,KY,Closed,2015/04/14 21:06:47+00
421,95322,15ABC1138,1000,ABC Case, DIXIE HWY,40216-0000, ,KY,Closed,2015/06/17 21:00:06+00
422,95323,15ABC1136,1000,ABC Case,10966 DIXIE HWY,40272-0000,LOUISVILLE,KY,Closed,2015/06/16 17:24:12+00
423,95324,15ABC1142,1000,ABC Case,11901 STANDIFORD PLAZA DR,40229-0000,LOUISVILLE,KY,Closed,2015/06/22 16:49:49+00
424,95325,15ABC1158,1000,ABC Case,3632 7TH STREET RD,40216-0000,LOUISVILLE,KY,Closed,2015/07/13 15:36:29+00
425,95326,15ABC1069,1000,ABC Case,7100 LEISURE LN,40229-0000,LOUISVILLE,KY,Closed,2015/03/24 16:18:32+00
426,95327,15ABC1139,1000,ABC Case,2532 W BROADWAY ,40211-0000,LOUISVILLE,KY,Closed,2015/06/18 20:39:42+00
427,95328,15ABC1099,1000,ABC Case,3201 GREENWOOD AVE,40211-0000,LOUISVILLE,KY,Closed,2015/04/24 16:58:15+00
428,95329,16ABC1132,1000,ABC Case,1201 W HILL ST,40210-0000,LOUISVILLE,KY,Closed,2016/10/06 18:10:14+00
429,95330,15ABC1112,1000,ABC Case,3201 GREENWOOD AVE,40211-0000,LOUISVILLE,KY,Closed,2015/05/15 18:24:02+00
430,95331,15ABC1116,1000,ABC Case,4950 TERRY RD,40216-0000,LOUISVILLE,KY,Closed,2015/05/27 20:29:47+00
431,95332,15ABC1128,1000,ABC Case,  , , , ,Closed,2015/06/10 15:27:59+00
432,95333,15ABC1153,1000,ABC Case, S 4TH ST,40202-0000,LOUISVILLE,KY,Closed,2015/07/06 12:54:07+00
433,95334,16ABC1152,1000,ABC Case,3101 COMMERCE CENTER PL,40211-0000,LOUISVILLE,KY,Closed,2016/12/13 15:35:57+00
434,95335,15ABC1045,1000,ABC Case,721 GAGEL AVE,40216-0000,LOUISVILLE,KY,Closed,2015/02/19 15:31:10+00
435,95336,15ABC1042,1000,ABC Case,706 ZORN AVE,40206-0000,LOUISVILLE,KY,Closed,2015/02/17 19:59:40+00
436,95337,15ABC1073,1000,ABC Case,10645 DIXIE HWY,40272-0000,LOUISVILLE,KY,Closed,2015/03/29 19:37:19+00
437,95338,15ABC1048,1000,ABC Case,601 E BROADWAY ,40202-0000,LOUISVILLE,KY,Closed,2015/02/24 14:54:05+00
438,95339,15ABC1104,1000,ABC Case,430 W MUHAMMAD ALI BLVD,40202-0000,LOUISVILLE,KY,Closed,2015/05/04 18:18:39+00
439,95340,14ABC1139,1000,ABC Case,1808 CARL CT,40215-0000,LOUISVILLE,KY,Closed,2014/07/17 18:29:44+00
440,95341,14ABC1166,1000,ABC Case,12812 DIXIE HWY,40272-0000,LOUISVILLE,KY,Closed,2014/08/22 19:49:49+00
441,95342,14ABC1143,1000,ABC Case,5204 ELZIE RD,40258-0000,LOUISVILLE,KY,Closed,2014/07/23 14:11:39+00
442,95343,16ABC1102,1000,ABC Case, WESTPORT RD,40245-0000,LOUISVILLE,KY,Closed,2016/08/01 13:49:55+00
443,95344,14ABC1129,1000,ABC Case,444 S 5TH ST,40202-0000,LOUISVILLE,KY,Closed,2014/06/26 11:27:23+00
444,95345,18ABC1130,1000,ABC Case,1207 OLD FERN VALLEY RD,40219-0000,LOUISVILLE,KY,Closed,2018/06/27 14:47:44+00
445,95346,14ABC1122,1000,ABC Case,2645 BANK ST,40212-0000,LOUISVILLE,KY,Closed,2014/06/16 17:12:41+00
446,95347,14ABC1138,1000,ABC Case,4200 SOUTH PARK RD,40219-0000,LOUISVILLE,KY,Closed,2014/07/16 19:15:00+00
447,95348,14ABC1108,1000,ABC Case,501 W EVELYN AVE,40215-0000,LOUISVILLE,KY,Closed,2014/05/22 15:58:33+00
448,95349,14ABC1105,1000,ABC Case, S 4TH ST,40202-0000,LOUISVILLE,KY,Closed,2014/05/15 19:50:54+00
449,95350,14ABC1130,1000,ABC Case,3503 7TH STREET RD,40216-0000,LOUISVILLE,KY,Closed,2014/06/26 15:13:46+00
450,95203,14ABC1202,1000,ABC Case, BARDSTOWN RD,40291-0000,LOUISVILLE,KY,Closed,2014/10/02 21:20:18+00
451,95351,14ABC1136,1000,ABC Case,2622 S 4TH ST,40208-0000,LOUISVILLE,KY,Closed,2014/07/13 06:21:04+00
452,95352,14ABC1172,1000,ABC Case,4220 SOUTH PARK RD,40219-0000,LOUISVILLE,KY,Closed,2014/08/31 01:47:38+00
453,95505,18ABC1219,1000,ABC Case,5016 MUD LN,40229-0000,LOUISVILLE,KY,Closed,2018/10/22 14:14:58+00
454,95404,14ABC1175,1000,ABC Case,907 ULRICH AVE,40219-0000,LOUISVILLE,KY,Closed,2014/09/05 16:56:41+00
455,95405,14ABC1234,1000,ABC Case,813 LYNDON LN,40222-0000,LYNDON,KY,Closed,2014/11/30 07:36:14+00
456,95406,14ABC1226,1000,ABC Case,2801 S FLOYD ST,40209-0000,LOUISVILLE,KY,Closed,2014/11/16 03:39:25+00
457,95407,15ABC1057,1000,ABC Case,2829 W MARKET ST,40212-0000,LOUISVILLE,KY,Closed,2015/03/09 17:16:07+00
458,95408,14ABC1216,1000,ABC Case,501 W EVELYN AVE,40215-0000,LOUISVILLE,KY,Closed,2014/10/31 16:56:49+00
459,95409,14ABC1196,1000,ABC Case,225 S SPRING ST,40206-0000,LOUISVILLE,KY,Closed,2014/09/23 17:52:56+00
460,95410,14ABC1198,1000,ABC Case,1445 LILLIAN AVE,40208-0000,LOUISVILLE,KY,Closed,2014/09/26 16:30:09+00
461,95411,16ABC1008,1000,ABC Case,924 E BROADWAY ,40204-0000,LOUISVILLE,KY,Closed,2016/01/11 16:39:01+00
462,95412,17ABC1213,1000,ABC Case, S PRESTON ST,40202-0000,LOUISVILLE,KY,Closed,2017/10/05 14:14:11+00
463,95413,15ABC1202,1000,ABC Case,12205 WESTPORT RD,40245-0000,LOUISVILLE,KY,Closed,2015/09/14 23:08:36+00
464,95414,17ABC1185,1000,ABC Case,10231 BLUE LICK RD,40229-0000,LOUISVILLE,KY,Closed,2017/09/05 21:56:27+00
465,95415,17ABC1055,1000,ABC Case,2235 FRANKFORT AVE,40206-0000,LOUISVILLE,KY,Closed,2017/03/28 13:09:32+00
466,95416,16ABC1079,1000,ABC Case,4026 S 3RD ST,40214-0000,LOUISVILLE,KY,Closed,2016/05/25 23:52:32+00
467,95417,14ABC1221,1000,ABC Case,1133 BARDSTOWN RD,40204-0000,LOUISVILLE,KY,Closed,2014/11/07 14:54:03+00
468,95418,15ABC1226,1000,ABC Case,1164 S 3RD ST,40203-0000,LOUISVILLE,KY,Closed,2015/10/25 22:27:09+00
469,95420,14ABC1243,1000,ABC Case,835 BRENTWOOD AVE,40215-0000,LOUISVILLE,KY,Closed,2014/12/09 16:44:11+00
470,95421,14ABC1235,1000,ABC Case,1601 S PRESTON ST,40217-0000,LOUISVILLE,KY,Closed,2014/12/04 14:22:18+00
471,95422,17ABC1124,1000,ABC Case, I 65 RAMP ,40213-0000,LOUISVILLE,KY,Closed,2017/06/26 13:15:32+00
472,95423,14ABC1200,1000,ABC Case, OXMOOR LN,40222-0000, ,KY,Closed,2014/09/29 20:48:23+00
473,95424,14ABC1244,1000,ABC Case, W MAGNOLIA AVE,40208-0000,LOUISVILLE,KY,Closed,2014/12/10 20:55:20+00
474,95426,15ABC1015,1000,ABC Case,4843 DIXIE HWY,40216-0000,LOUISVILLE,KY,Closed,2015/01/17 03:56:43+00
475,95427,17ABC1274,1000,ABC Case,5101 BARDSTOWN RD,40291-0000,LOUISVILLE,KY,Closed,2017/12/22 20:24:38+00
476,95428,14ABC1176,1000,ABC Case, S 20TH ST,40203-0000,LOUISVILLE,KY,Closed,2014/09/07 02:08:20+00
477,95429,14ABC1177,1000,ABC Case, S 17TH ST,40203-0000,LOUISVILLE,KY,Closed,2014/09/07 02:16:29+00
478,95430,14ABC1230,1000,ABC Case, DUTCHMANS LN,40207-0000, ,KY,Closed,2014/11/21 19:20:09+00
479,95431,14ABC1181,1000,ABC Case,1047 BARDSTOWN RD,40204-0000,LOUISVILLE,KY,Closed,2014/09/10 09:03:05+00
480,95432,14ABC1219,1000,ABC Case,3814 FRANKFORT AVE,40207-0000,LOUISVILLE,KY,Closed,2014/11/05 15:20:11+00
481,95433,14ABC1225,1000,ABC Case,309 E ST CATHERINE ST,40203-0000,LOUISVILLE,KY,Closed,2014/11/13 22:41:40+00
482,95434,14ABC1241,1000,ABC Case,5000 PRESTON HWY,40213-0000,LOUISVILLE,KY,Closed,2014/12/09 15:55:25+00
483,95435,14ABC1183,1000,ABC Case,8820 FAIRGROUND RD,40291-0000,LOUISVILLE,KY,Closed,2014/09/15 16:15:07+00
484,95436,14ABC1207,1000,ABC Case,1325 BARDSTOWN RD,40204-0000,LOUISVILLE,KY,Closed,2014/10/17 22:53:05+00
485,95437,15ABC1195,1000,ABC Case,4301 TOWNE CENTER DR,40241-0000,LOUISVILLE,KY,Closed,2015/09/08 16:44:48+00
486,95438,14ABC1190,1000,ABC Case,311 S 4TH ST,40202-0000,LOUISVILLE,KY,Closed,2014/09/19 11:25:10+00
487,95439,14ABC1214,1000,ABC Case,429 E ORMSBY AVE,40203-0000,LOUISVILLE,KY,Closed,2014/10/27 17:48:14+00
488,95440,14ABC1239,1000,ABC Case,3640 TAYLOR BLVD,40215-0000,LOUISVILLE,KY,Closed,2014/12/08 21:15:07+00
489,95441,15ABC1029,1000,ABC Case,2715 FERN VALLEY RD,40213-0000,LOUISVILLE,KY,Closed,2015/02/02 02:09:37+00
490,95442,15ABC1030,1000,ABC Case,7800 3RD STREET RD,40214-0000,LOUISVILLE,KY,Closed,2015/02/02 02:19:08+00
491,95443,14ABC1215,1000,ABC Case, S 36TH ST,40211-0000,LOUISVILLE,KY,Closed,2014/10/30 15:32:13+00
492,95444,15ABC1000,1000,ABC Case,7803 3RD STREET RD,40214-0000,LOUISVILLE,KY,Closed,2015/01/03 04:54:43+00
493,95445,14ABC1254,1000,ABC Case,901 W MAGNOLIA AVE,40208-0000,LOUISVILLE,KY,Closed,2014/12/17 14:06:49+00
494,95446,14ABC1251,1000,ABC Case,15901 DIXIE HWY,40177-0000,LOUISVILLE,KY,Closed,2014/12/16 15:54:09+00
495,95447,14ABC1257,1000,ABC Case,800 W WOODLAWN AVE,40215-0000,LOUISVILLE,KY,Closed,2014/12/22 20:41:46+00
496,95204,14ABC1192,1000,ABC Case,3425 TAYLOR BLVD,40215-0000,LOUISVILLE,KY,Closed,2014/09/22 15:28:04+00
497,95448,16ABC1051,1000,ABC Case, S 4TH ST,40202-0000,LOUISVILLE,KY,Closed,2016/03/15 17:10:02+00
498,95449,15ABC1011,1000,ABC Case,4132 W BROADWAY ,40211-0000,LOUISVILLE,KY,Closed,2015/01/15 16:10:04+00
499,95450,15ABC1023,1000,ABC Case,7064 WILDWOOD CIR,40291-0000,LOUISVILLE,KY,Closed,2015/01/22 16:12:19+00
500,95451,15ABC1046,1000,ABC Case,7305 PRESTON HWY,40219-0000,LOUISVILLE,KY,Closed,2015/02/24 12:46:59+00
501,95452,15ABC1034,1000,ABC Case,1224 S SHELBY ST,40203-0000,LOUISVILLE,KY,Closed,2015/02/04 18:42:33+00
502,95453,15ABC1017,1000,ABC Case, S 28TH ST,40211-0000,LOUISVILLE,KY,Closed,2015/01/20 17:32:51+00
503,95454,14ABC1211,1000,ABC Case,1811 W MAIN ST,40203-0000,LOUISVILLE,KY,Closed,2014/10/25 04:48:48+00
504,95205,14ABC1253,1000,ABC Case,10615 NATIONAL TPKE,40118-0000,LOUISVILLE,KY,Closed,2014/12/16 21:40:41+00
505,95506,13ABC1138,1000,ABC Case,2038 NORTHWESTERN PKY,40203-0000,LOUISVILLE,KY,Closed,2013/12/24 13:37:11+00
506,95507,13ABC1131,1000,ABC Case,9307 NEW LA GRANGE RD,40242-0000,LYNDON,KY,Closed,2013/12/18 13:31:54+00
507,95508,14ABC1085,1000,ABC Case,1165 S 4TH ST,40203-0000,LOUISVILLE,KY,Closed,2014/04/29 16:59:24+00
508,95509,14ABC1098,1000,ABC Case,500 W MAIN ST,40202-0000,LOUISVILLE,KY,Closed,2014/05/09 13:06:37+00
509,95510,14ABC1099,1000,ABC Case,4160 HAZELWOOD AVE,40215-0000,LOUISVILLE,KY,Closed,2014/05/09 20:16:11+00
510,95511,13ABC1142,1000,ABC Case,444 S 5TH ST,40202-0000,LOUISVILLE,KY,Closed,2013/12/26 13:54:24+00
511,95512,13ABC1146,1000,ABC Case,1506 BERRY BLVD,40215-0000,LOUISVILLE,KY,Closed,2013/12/30 19:26:31+00
512,95513,13ABC1145,1000,ABC Case,505 QUAILS RUN,40207-0000,ST MATTHEWS,KY,Closed,2013/12/30 17:50:58+00
513,95514,14ABC1042,1000,ABC Case, ROCKFORD LN,40216-0000,SHIVELY,KY,Closed,2014/02/19 19:42:06+00
514,95515,14ABC1075,1000,ABC Case,1101 E WASHINGTON ST,40206-0000,LOUISVILLE,KY,Closed,2014/04/10 05:24:47+00
515,95516,14ABC1090,1000,ABC Case,3616 KLONDIKE LN,40218-0000,LOUISVILLE,KY,Closed,2014/05/06 18:55:36+00
516,95517,14ABC1097,1000,ABC Case,6710 OUTER LOOP,40228-0000,LOUISVILLE,KY,Closed,2014/05/08 20:51:33+00
517,95518,14ABC1019,1000,ABC Case,1834 CARL CT,40215-0000,LOUISVILLE,KY,Closed,2014/01/27 16:39:46+00
518,95519,16ABC1134,1000,ABC Case,1164 S 3RD ST,40203-0000,LOUISVILLE,KY,Closed,2016/10/12 21:54:15+00
519,95520,14ABC1033,1000,ABC Case,4501 OUTER LOOP,40219-0000,LOUISVILLE,KY,Closed,2014/02/12 15:13:40+00
520,95521,14ABC1052,1000,ABC Case,431 E LIBERTY ST,40202-0000,LOUISVILLE,KY,Closed,2014/03/09 05:32:00+00
521,95522,14ABC1053,1000,ABC Case,528 E LIBERTY ST,40202-0000,LOUISVILLE,KY,Closed,2014/03/09 05:39:55+00
522,95523,13ABC1118,1000,ABC Case, OUTER LOOP,40219-0000,LOUISVILLE,KY,Closed,2013/11/20 19:16:53+00
523,95524,15ABC1239,1000,ABC Case,630 BARRET AVE,40204-0000,LOUISVILLE,KY,Closed,2015/11/18 16:22:50+00
524,95525,14ABC1041,1000,ABC Case,3730 MANSLICK RD,40215-0000,LOUISVILLE,KY,Closed,2014/02/18 17:54:16+00
525,95526,13ABC1114,1000,ABC Case,3514 PARTHENIA AVE,40215-0000,LOUISVILLE,KY,Closed,2013/11/15 14:06:16+00
526,95527,13ABC1116,1000,ABC Case,720 W MUHAMMAD ALI BLVD,40203-0000,LOUISVILLE,KY,Closed,2013/11/18 20:24:50+00
527,95528,14ABC1059,1000,ABC Case,5330 S 3RD ST,40214-0000,LOUISVILLE,KY,Closed,2014/03/17 15:19:06+00
528,95529,17ABC1011,1000,ABC Case, S 3RD ST,40214-0000,LOUISVILLE,KY,Closed,2017/01/19 22:04:59+00
529,95530,13ABC1105,1000,ABC Case, S HURSTBOURNE PKY,40220-0000,JEFFERSONTOWN,KY,Closed,2013/11/01 20:45:11+00
530,95531,13ABC1125,1000,ABC Case,1715 MELLWOOD AVE,40206-0000,LOUISVILLE,KY,Closed,2013/12/06 14:43:17+00
531,95532,13ABC1113,1000,ABC Case, S PRESTON ST,40217-0000,LOUISVILLE,KY,Closed,2013/11/11 19:44:05+00
532,95533,15ABC1083,1000,ABC Case,4739 DIXIE HWY,40216-0000,LOUISVILLE,KY,Closed,2015/04/05 08:29:28+00
533,95534,15ABC1084,1000,ABC Case,2631 S 3RD ST,40208-0000,LOUISVILLE,KY,Closed,2015/04/05 08:36:59+00
534,95535,14ABC1089,1000,ABC Case,429 E ORMSBY AVE,40203-0000,LOUISVILLE,KY,Closed,2014/05/06 13:47:11+00
535,95536,13ABC1122,1000,ABC Case,1614 DIXIE HWY,40210-0000,LOUISVILLE,KY,Closed,2013/11/30 01:57:32+00
536,95537,14ABC1058,1000,ABC Case,1522 W BROADWAY ,40203-0000,LOUISVILLE,KY,Closed,2014/03/13 15:55:30+00
537,95538,14ABC1141,1000,ABC Case,501 N 33RD ST,40212-0000,LOUISVILLE,KY,Closed,2014/07/23 13:43:46+00
538,95539,14ABC1083,1000,ABC Case,611 S 4TH ST,40202-0000,LOUISVILLE,KY,Closed,2014/04/24 14:43:44+00
539,95540,14ABC1081,1000,ABC Case, BAXTER AVE,40204-0000,LOUISVILLE,KY,Closed,2014/04/16 22:27:41+00
540,95541,13ABC1133,1000,ABC Case,220 W MAIN ST,40202-0000,LOUISVILLE,KY,Closed,2013/12/18 15:06:50+00
541,95542,14ABC1017,1000,ABC Case,1100 E MARKET ST,40206-0000,LOUISVILLE,KY,Closed,2014/01/22 17:26:31+00
542,95543,14ABC1023,1000,ABC Case,1100 ASH ST,40217-0000,LOUISVILLE,KY,Closed,2014/01/29 20:47:00+00
543,95544,13ABC1129,1000,ABC Case,  , , , ,Closed,2013/12/11 14:44:20+00
544,95545,14ABC1065,1000,ABC Case,1318 DIXIE HWY,40210-0000,LOUISVILLE,KY,Closed,2014/03/24 17:19:59+00
545,95546,14ABC1009,1000,ABC Case,1205 LILLIAN AVE,40208-0000,LOUISVILLE,KY,Closed,2014/01/08 15:36:49+00
546,95547,14ABC1027,1000,ABC Case,600 TERMINAL DR,40209-0000,LOUISVILLE,KY,Closed,2014/02/04 17:54:40+00
547,95548,14ABC1061,1000,ABC Case,907 ULRICH AVE,40219-0000,LOUISVILLE,KY,Closed,2014/03/18 19:45:39+00
548,95549,14ABC1095,1000,ABC Case,5330 S 3RD ST,40214-0000,LOUISVILLE,KY,Closed,2014/05/08 15:04:34+00
549,95550,16ABC1013,1000,ABC Case,4049 TAYLORSVILLE RD,40220-0000,LOUISVILLE,KY,Closed,2016/01/13 19:31:13+00
550,95551,14ABC1149,1000,ABC Case,1503 S 25TH ST,40210-0000,LOUISVILLE,KY,Closed,2014/08/01 17:47:44+00
551,95552,14ABC1151,1000,ABC Case,509 LOUIS COLEMAN JR DR,40211-0000,LOUISVILLE,KY,Closed,2014/08/07 13:01:20+00
552,95553,14ABC1217,1000,ABC Case,1601 S PRESTON ST,40217-0000,LOUISVILLE,KY,Closed,2014/11/03 16:03:15+00
553,95554,17ABC1201,1000,ABC Case,3814 FRANKFORT AVE,40207-0000,LOUISVILLE,KY,Closed,2017/09/25 15:37:53+00
554,95206,15ABC1156,1000,ABC Case,1601 S PRESTON ST,40217-0000,LOUISVILLE,KY,Closed,2015/07/07 17:29:45+00
555,95207,14ABC1232,1000,ABC Case,8115 3RD STREET RD,40214-0000,LOUISVILLE,KY,Closed,2014/11/24 18:20:10+00
556,95208,14ABC1188,1000,ABC Case,301 LOUIS COLEMAN JR DR,40212-0000,LOUISVILLE,KY,Closed,2014/09/16 19:06:34+00
557,95209,15ABC1247,1000,ABC Case,5921 NEW CUT RD,40214-0000,LOUISVILLE,KY,Closed,2015/12/08 19:44:19+00
558,95210,15ABC1027,1000,ABC Case,3606 CANE RUN RD,40211-0000,LOUISVILLE,KY,Closed,2015/01/29 04:19:34+00
559,95211,ABC861980,1000,ABC Case,129 RIVER RD,40202-0000,LOUISVILLE,KY,Closed,2014/09/18 02:44:24+00
560,95212,ABC861983,1000,ABC Case,129 RIVER RD,40202-0000,LOUISVILLE,KY,Closed,2014/09/18 02:46:02+00
561,95213,14ABC1229,1000,ABC Case, SHELBYVILLE RD,40222-0000, ,KY,Closed,2014/11/21 15:04:38+00
562,95214,15ABC1008,1000,ABC Case,3825 BARDSTOWN RD,40218-0000,LOUISVILLE,KY,Closed,2015/01/14 20:34:01+00
563,95215,15ABC1010,1000,ABC Case,2350 FRANKFORT AVE,40206-0000,LOUISVILLE,KY,Closed,2015/01/15 16:06:47+00
564,95216,14ABC1189,1000,ABC Case,1032 RUNELL RD,40214-0000,LOUISVILLE,KY,Closed,2014/09/16 19:41:37+00
565,95217,15ABC1028,1000,ABC Case,7895 DIXIE HWY,40258-0000,LOUISVILLE,KY,Closed,2015/01/29 18:32:13+00
566,95218,17ABC1004,1000,ABC Case,10608 DIXIE HWY,40272-0000,LOUISVILLE,KY,Closed,2017/01/07 23:06:49+00
567,95219,14ABC1224,1000,ABC Case,1601 S PRESTON ST,40217-0000,LOUISVILLE,KY,Closed,2014/11/11 15:01:43+00
568,95220,17ABC1150,1000,ABC Case, S 3RD ST,40214-0000,LOUISVILLE,KY,Closed,2017/07/25 12:06:41+00
569,95221,15ABC1014,1000,ABC Case,1670 S 17TH ST,40210-0000,LOUISVILLE,KY,Closed,2015/01/16 20:52:48+00
570,95222,15ABC1036,1000,ABC Case,1670 S 17TH ST,40210-0000,LOUISVILLE,KY,Closed,2015/02/05 20:53:23+00
571,95223,14ABC1258,1000,ABC Case,6511 GREENWOOD RD,40258-0000,LOUISVILLE,KY,Closed,2014/12/23 21:22:42+00
572,95224,15ABC1035,1000,ABC Case,1670 S 17TH ST,40210-0000,LOUISVILLE,KY,Closed,2015/02/04 19:42:55+00
573,95225,15ABC1039,1000,ABC Case,5101 BARDSTOWN RD,40291-0000,LOUISVILLE,KY,Closed,2015/02/12 15:47:26+00
574,95226,14ABC1206,1000,ABC Case,1811 W MAIN ST,40203-0000,LOUISVILLE,KY,Closed,2014/10/17 15:21:02+00
575,95227,15ABC1006,1000,ABC Case,120 S FLOYD ST,40202-0000,LOUISVILLE,KY,Closed,2015/01/12 20:46:39+00
576,95228,18ABC1234,1000,ABC Case,140 N 4TH ST,40202-0000,LOUISVILLE,KY,Closed,2018/11/05 16:56:05+00
577,95229,14ABC1228,1000,ABC Case,1117 BARDSTOWN RD,40204-0000,LOUISVILLE,KY,Closed,2014/11/19 19:46:36+00
578,95230,14ABC1237,1000,ABC Case,3904 BARDSTOWN RD,40218-0000,LOUISVILLE,KY,Closed,2014/12/06 07:48:50+00
579,95231,14ABC1255,1000,ABC Case,220 W BROADWAY ,40202-0000,LOUISVILLE,KY,Closed,2014/12/22 18:13:57+00
580,95232,14ABC1256,1000,ABC Case,2515 7TH STREET RD,40208-0000,LOUISVILLE,KY,Closed,2014/12/22 19:49:44+00
581,95233,15ABC1033,1000,ABC Case,720 W MUHAMMAD ALI BLVD,40203-0000,LOUISVILLE,KY,Closed,2015/02/03 20:26:35+00
582,95234,14ABC1197,1000,ABC Case,1318 BERRY BLVD,40215-0000,LOUISVILLE,KY,Closed,2014/09/25 14:06:57+00
583,95235,14ABC1203,1000,ABC Case,11521 TAZWELL DR,40241-0000,LOUISVILLE,KY,Closed,2014/10/13 16:28:05+00
584,95236,14ABC1260,1000,ABC Case,5214 GREENWOOD RD,40258-0000,LOUISVILLE,KY,Closed,2014/12/29 15:17:54+00
585,95237,16ABC1010,1000,ABC Case,7302 GRADE LN,40219-0000,LOUISVILLE,KY,Closed,2016/01/13 16:25:32+00
586,95238,14ABC1218,1000,ABC Case,359 N 26TH ST,40212-0000,LOUISVILLE,KY,Closed,2014/11/03 16:30:32+00
587,95239,15ABC1001,1000,ABC Case,5452 W PAGES LN,40258-0000,LOUISVILLE,KY,Closed,2015/01/08 16:02:08+00
588,95240,14ABC1247,1000,ABC Case,1164 S 3RD ST,40203-0000,LOUISVILLE,KY,Closed,2014/12/15 15:46:08+00
589,95241,15ABC1146,1000,ABC Case,335 W BROADWAY ,40202-0000,LOUISVILLE,KY,Closed,2015/06/25 11:54:27+00
590,95242,14ABC1187,1000,ABC Case,732 LYNDON LN,40222-0000,LYNDON,KY,Closed,2014/09/16 18:50:42+00
591,95243,15ABC1007,1000,ABC Case,7800 3RD STREET RD,40214-0000,LOUISVILLE,KY,Closed,2015/01/13 22:42:17+00
592,95244,15ABC1018,1000,ABC Case,331 E MARKET ST,40202-0000,LOUISVILLE,KY,Closed,2015/01/20 19:23:39+00
593,95245,14ABC1246,1000,ABC Case,1601 S PRESTON ST,40217-0000,LOUISVILLE,KY,Closed,2014/12/15 14:57:38+00
594,95246,14ABC1213,1000,ABC Case,841 S 6TH ST,40203-0000,LOUISVILLE,KY,Closed,2014/10/27 13:12:45+00
595,95247,14ABC1223,1000,ABC Case,501 W EVELYN AVE,40215-0000,LOUISVILLE,KY,Closed,2014/11/11 13:48:01+00
596,95248,15ABC1155,1000,ABC Case,9500 PRESTON HWY,40229-0000,LOUISVILLE,KY,Closed,2015/07/07 13:04:23+00
597,95249,15ABC1020,1000,ABC Case,1201 LILLIAN AVE,40208-0000,LOUISVILLE,KY,Closed,2015/01/21 19:32:13+00
598,95250,15ABC1021,1000,ABC Case,1164 S 3RD ST,40203-0000,LOUISVILLE,KY,Closed,2015/01/21 19:52:08+00
599,95251,14ABC1245,1000,ABC Case,2610 CHAMBERLAIN LN,40245-0000,LOUISVILLE,KY,Closed,2014/12/12 20:28:30+00
600,95252,14ABC1248,1000,ABC Case,1811 W MAIN ST,40203-0000,LOUISVILLE,KY,Closed,2014/12/15 18:41:03+00
601,95455,16ABC1082,1000,ABC Case,649 S 38TH ST,40211-0000,LOUISVILLE,KY,Closed,2016/05/31 14:18:36+00
602,95456,15ABC1019,1000,ABC Case,8501 ALS WAY,40214-0000,LOUISVILLE,KY,Closed,2015/01/21 15:35:49+00
603,95457,14ABC1209,1000,ABC Case,4060 CYPRESS COVE DR,40218-0000,LOUISVILLE,KY,Closed,2014/10/20 20:54:16+00
604,95458,14ABC1231,1000,ABC Case,3711 COLLINS LN,40245-0000,LOUISVILLE,KY,Closed,2014/11/24 18:09:31+00
605,95459,14ABC1043,1000,ABC Case,3661 NICHOLS MEADOW CIR,40215-0000,LOUISVILLE,KY,Closed,2014/02/19 20:57:27+00
606,95460,14ABC1191,1000,ABC Case,601 E BROADWAY ,40202-0000,LOUISVILLE,KY,Closed,2014/09/22 14:45:13+00
607,95461,14ABC1001,1000,ABC Case,6302 APEX DR,40219-0000,LOUISVILLE,KY,Closed,2014/01/02 17:17:15+00
608,95462,14ABC1016,1000,ABC Case,4950 TERRY RD,40216-0000,LOUISVILLE,KY,Closed,2014/01/16 20:46:26+00
609,95463,14ABC1077,1000,ABC Case,3801 W MARKET ST,40212-0000,LOUISVILLE,KY,Closed,2014/04/11 17:10:56+00
610,95464,14ABC1026,1000,ABC Case,825 S 6TH ST,40203-0000,LOUISVILLE,KY,Closed,2014/01/31 19:22:58+00
611,95465,14ABC1094,1000,ABC Case,115 S 4TH ST,40202-0000,LOUISVILLE,KY,Closed,2014/05/08 14:16:27+00
612,95466,14ABC1069,1000,ABC Case,14009 DIXIE HWY,40272-0000,LOUISVILLE,KY,Closed,2014/03/27 15:30:56+00
613,95467,13ABC1126,1000,ABC Case,4300 FEGENBUSH LN,40228-0000,LOUISVILLE,KY,Closed,2013/12/06 20:14:46+00
614,95468,14ABC1082,1000,ABC Case, BARDSTOWN RD,40204-0000,LOUISVILLE,KY,Closed,2014/04/17 11:36:25+00
615,95469,14ABC1070,1000,ABC Case,13401 DIXIE HWY,40272-0000,LOUISVILLE,KY,Closed,2014/03/27 16:01:17+00
616,95470,14ABC1208,1000,ABC Case,4014 DUTCHMANS LN,40207-0000,ST MATTHEWS,KY,Closed,2014/10/20 19:20:35+00
617,95471,14ABC1100,1000,ABC Case,118 DOUGLAS PARK,40214-0000,LOUISVILLE,KY,Closed,2014/05/10 06:37:58+00
618,95472,15ABC1251,1000,ABC Case,1565 BARDSTOWN RD,40205-0000,LOUISVILLE,KY,Closed,2015/12/15 17:25:48+00
619,95473,14ABC1003,1000,ABC Case,446 S 4TH ST,40202-0000,LOUISVILLE,KY,Closed,2014/01/06 21:21:18+00
620,95474,14ABC1018,1000,ABC Case,1127 LOGAN ST,40204-0000,LOUISVILLE,KY,Closed,2014/01/26 05:13:08+00
621,95475,13ABC1110,1000,ABC Case,5401 INDIAN OAKS CIR,40213-0000,LOUISVILLE,KY,Closed,2013/11/06 19:59:28+00
622,95476,14ABC1025,1000,ABC Case,4632 HENDRIK DR,40299-0000,LOUISVILLE,KY,Closed,2014/01/31 15:42:27+00
623,95477,14ABC1002,1000,ABC Case,7803 3RD STREET RD,40214-0000,LOUISVILLE,KY,Closed,2014/01/03 01:44:38+00
624,95478,14ABC1008,1000,ABC Case,500 E MAIN ST,40202-0000,LOUISVILLE,KY,Closed,2014/01/07 22:05:45+00
625,95479,13ABC1127,1000,ABC Case,3730 MANSLICK RD,40215-0000,LOUISVILLE,KY,Closed,2013/12/09 13:38:44+00
626,95480,14ABC1067,1000,ABC Case,640 LAMPTON ST,40203-0000,LOUISVILLE,KY,Closed,2014/03/26 18:17:47+00
627,95481,13ABC1101,1000,ABC Case,501 E MARKET ST,40202-0000,LOUISVILLE,KY,Closed,2013/10/30 21:15:58+00
628,95482,13ABC1135,1000,ABC Case,6401 PRESTON HWY,40219-0000,LOUISVILLE,KY,Closed,2013/12/19 21:56:40+00
629,95483,14ABC1062,1000,ABC Case,944 E MUHAMMAD ALI BLVD,40204-0000,LOUISVILLE,KY,Closed,2014/03/19 16:23:58+00
630,95484,15ABC1071,1000,ABC Case,1733 SONNE AVE,40216-0000,SHIVELY,KY,Closed,2015/03/26 13:49:16+00
631,95485,14ABC1032,1000,ABC Case,9304 BLUE LICK RD,40229-0000,LOUISVILLE,KY,Closed,2014/02/11 16:22:04+00
632,95486,14ABC1076,1000,ABC Case,1509 CRUMS LN,40216-0000,LOUISVILLE,KY,Closed,2014/04/11 13:53:06+00
633,95487,14ABC1086,1000,ABC Case,444 S 5TH ST,40202-0000,LOUISVILLE,KY,Closed,2014/05/02 16:36:15+00
634,95488,14ABC1087,1000,ABC Case,1039 SEELBACH AVE,40215-0000,LOUISVILLE,KY,Closed,2014/05/02 19:34:16+00
635,95489,14ABC1074,1000,ABC Case,335 W BROADWAY ,40202-0000,LOUISVILLE,KY,Closed,2014/04/04 14:52:07+00
636,95490,13ABC1115,1000,ABC Case,1133 BARDSTOWN RD,40204-0000,LOUISVILLE,KY,Closed,2013/11/16 09:06:36+00
637,95491,14ABC1036,1000,ABC Case,4950 TERRY RD,40216-0000,LOUISVILLE,KY,Closed,2014/02/14 16:45:36+00
638,95492,13ABC1109,1000,ABC Case,500 S 4TH ST,40202-0000,LOUISVILLE,KY,Closed,2013/11/06 15:02:50+00
639,95493,14ABC1006,1000,ABC Case,1808 CARL CT,40215-0000,LOUISVILLE,KY,Closed,2014/01/07 16:40:14+00
640,95494,14ABC1007,1000,ABC Case,6703 STRAWBERRY LN,40214-0000,LOUISVILLE,KY,Closed,2014/01/07 16:50:38+00
641,95495,14ABC1011,1000,ABC Case,2005 PEABODY CT,40218-0000,LOUISVILLE,KY,Closed,2014/01/12 09:01:38+00
642,95496,14ABC1012,1000,ABC Case,7803 3RD STREET RD,40214-0000,LOUISVILLE,KY,Closed,2014/01/12 09:11:16+00
643,95497,16ABC1120,1000,ABC Case,5046 POPLAR LEVEL RD,40219-0000,LOUISVILLE,KY,Closed,2016/09/07 23:21:47+00
644,95498,14ABC1091,1000,ABC Case, SOUTHERN PKY,40214-0000,LOUISVILLE,KY,Closed,2014/05/06 19:13:52+00
645,95499,14ABC1024,1000,ABC Case,7429 TERRY RD,40258-0000,LOUISVILLE,KY,Closed,2014/01/31 00:21:58+00
646,95500,14ABC1093,1000,ABC Case,140 N 4TH ST,40202-0000,LOUISVILLE,KY,Closed,2014/05/07 20:43:44+00
647,95501,14ABC1021,1000,ABC Case,1670 S 17TH ST,40210-0000,LOUISVILLE,KY,Closed,2014/01/29 16:10:47+00
648,95502,14ABC1022,1000,ABC Case,1601 S PRESTON ST,40217-0000,LOUISVILLE,KY,Closed,2014/01/29 16:56:00+00
649,95503,13ABC1130,1000,ABC Case,201 OUTER LOOP,40214-0000,LOUISVILLE,KY,Closed,2013/12/17 20:18:19+00
650,95504,14ABC1028,1000,ABC Case,431 E LIBERTY ST,40202-0000,LOUISVILLE,KY,Closed,2014/02/04 20:43:46+00
651,95353,14ABC1144,1000,ABC Case,3503 7TH STREET RD,40216-0000,LOUISVILLE,KY,Closed,2014/07/25 13:27:03+00
652,95354,14ABC1156,1000,ABC Case,5005 HUNTERS POINT CIR,40216-0000,LOUISVILLE,KY,Closed,2014/08/18 13:05:53+00
653,95355,14ABC1173,1000,ABC Case,473 ROBERTS AVE,40214-0000,LOUISVILLE,KY,Closed,2014/08/31 02:12:36+00
654,95356,15ABC1003,1000,ABC Case,4780 BARDSTOWN RD,40218-0000,LOUISVILLE,KY,Closed,2015/01/11 00:10:03+00
655,95357,15ABC1004,1000,ABC Case,4780 BARDSTOWN RD,40218-0000,LOUISVILLE,KY,Closed,2015/01/11 00:20:47+00
656,95358,14ABC1126,1000,ABC Case,1601 S PRESTON ST,40217-0000,LOUISVILLE,KY,Closed,2014/06/19 12:27:55+00
657,95359,14ABC1127,1000,ABC Case,500 W MAIN ST,40202-0000,LOUISVILLE,KY,Closed,2014/06/19 14:59:18+00
658,95360,16ABC1121,1000,ABC Case,9110 BLUE LICK RD,40219-0000,LOUISVILLE,KY,Closed,2016/09/08 00:26:25+00
659,95361,17ABC1179,1000,ABC Case,3320 FRANKFORT AVE,40206-0000,LOUISVILLE,KY,Closed,2017/08/28 15:18:31+00
660,95362,15ABC1068,1000,ABC Case,5013 POPLAR LEVEL RD,40219-0000,LOUISVILLE,KY,Closed,2015/03/24 13:12:51+00
661,95363,19ABC1094,1000,ABC Case,1567 S SHELBY ST,40217-0000,LOUISVILLE,KY,Closed,2019/04/02 13:22:56+00
662,95364,14ABC1135,1000,ABC Case,4811 S 3RD ST,40214-0000,LOUISVILLE,KY,Closed,2014/07/07 17:30:39+00
663,95365,14ABC1123,1000,ABC Case, STONESTREET RD,40272-0000,LOUISVILLE,KY,Closed,2014/06/16 17:41:02+00
664,95366,14ABC1150,1000,ABC Case, E INDIAN TRL,40213-0000,LOUISVILLE,KY,Closed,2014/08/04 21:44:15+00
665,95367,14ABC1125,1000,ABC Case,5620 GREEN ACRES DR,40258-0000,LOUISVILLE,KY,Closed,2014/06/19 12:18:36+00
666,95368,17ABC1052,1000,ABC Case,2101 FRANKFORT AVE,40206-0000,LOUISVILLE,KY,Closed,2017/03/23 15:33:24+00
667,95369,15ABC1210,1000,ABC Case,15101 DIXIE HWY,40272-0000,LOUISVILLE,KY,Closed,2015/10/01 12:32:52+00
668,95370,14ABC1113,1000,ABC Case,3606 CANE RUN RD,40211-0000,LOUISVILLE,KY,Closed,2014/06/02 13:20:23+00
669,95371,14ABC1128,1000,ABC Case,4739 DIXIE HWY,40216-0000,LOUISVILLE,KY,Closed,2014/06/23 17:44:32+00
670,95372,14ABC1147,1000,ABC Case,3331 BRECKENRIDGE LN,40220-0000,LOUISVILLE,KY,Closed,2014/07/30 20:20:42+00
671,95373,14ABC1148,1000,ABC Case,4744 POPLAR LEVEL RD,40213-0000,LOUISVILLE,KY,Closed,2014/08/01 15:22:42+00
672,95374,18ABC1156,1000,ABC Case,414 W OAK ST,40203-0000,LOUISVILLE,KY,Closed,2018/07/23 12:37:51+00
673,95375,16ABC1059,1000,ABC Case,6733 STRAWBERRY LN,40214-0000,LOUISVILLE,KY,Closed,2016/03/27 03:06:22+00
674,95376,16ABC1060,1000,ABC Case,5011 POPLAR LEVEL RD,40219-0000,LOUISVILLE,KY,Closed,2016/03/28 12:13:52+00
675,95377,14ABC1114,1000,ABC Case,5215 PRESTON HWY,40213-0000,LOUISVILLE,KY,Closed,2014/06/02 15:20:16+00
676,95378,15ABC1076,1000,ABC Case,5014 POPLAR LEVEL RD,40219-0000,LOUISVILLE,KY,Closed,2015/04/01 13:50:43+00
677,95379,14ABC1133,1000,ABC Case, E MUHAMMAD ALI BLVD,40202-0000,LOUISVILLE,KY,Closed,2014/07/02 19:40:41+00
678,95380,14ABC1134,1000,ABC Case,971 BAXTER AVE,40204-0000,LOUISVILLE,KY,Closed,2014/07/03 14:07:56+00
679,95381,14ABC1169,1000,ABC Case,3116 SPRINGFIELD DR,40214-0000,LOUISVILLE,KY,Closed,2014/08/27 14:36:25+00
680,95382,14ABC1110,1000,ABC Case,501 W EVELYN AVE,40215-0000,LOUISVILLE,KY,Closed,2014/05/27 20:30:45+00
681,95383,14ABC1158,1000,ABC Case,120 W BROADWAY ,40202-0000,LOUISVILLE,KY,Closed,2014/08/20 11:36:26+00
682,95384,14ABC1145,1000,ABC Case,335 W BROADWAY ,40202-0000,LOUISVILLE,KY,Closed,2014/07/25 19:12:21+00
683,95385,14ABC1154,1000,ABC Case,9302 BLUE LICK RD,40229-0000,LOUISVILLE,KY,Closed,2014/08/13 19:03:28+00
684,95386,14ABC1160,1000,ABC Case,11001 BLUEGRASS PKY,40299-0000,JEFFERSONTOWN,KY,Closed,2014/08/20 12:30:27+00
685,95387,16ABC1131,1000,ABC Case,7895 DIXIE HWY,40258-0000,LOUISVILLE,KY,Closed,2016/10/05 14:30:04+00
686,95388,14ABC1115,1000,ABC Case,5215 PRESTON HWY,40213-0000,LOUISVILLE,KY,Closed,2014/06/03 12:23:16+00
687,95389,14ABC1162,1000,ABC Case,2441 GRIFFITHS AVE,40212-0000,LOUISVILLE,KY,Closed,2014/08/20 19:26:42+00
688,95390,14ABC1165,1000,ABC Case,4111 MURPHY LN,40241-0000,LOUISVILLE,KY,Closed,2014/08/22 14:09:29+00
689,95391,14ABC1119,1000,ABC Case, S 3RD ST,40214-0000,LOUISVILLE,KY,Closed,2014/06/09 14:12:44+00
690,95392,14ABC1146,1000,ABC Case,318 WALLACE AVE,40207-0000,ST MATTHEWS,KY,Closed,2014/07/30 15:51:12+00
691,95393,15ABC1054,1000,ABC Case,4535 OUTER LOOP,40219-0000,LOUISVILLE,KY,Closed,2015/03/06 19:29:22+00
692,95394,14ABC1131,1000,ABC Case,1133 BARDSTOWN RD,40204-0000,LOUISVILLE,KY,Closed,2014/06/30 18:04:24+00
693,95395,15ABC1078,1000,ABC Case,10608 DIXIE HWY,40272-0000,LOUISVILLE,KY,Closed,2015/04/01 14:18:46+00
694,95396,14ABC1220,1000,ABC Case,5600 NATIONAL TPKE,40214-0000,LOUISVILLE,KY,Closed,2014/11/06 14:27:36+00
695,95397,15ABC1032,1000,ABC Case,444 S 5TH ST,40202-0000,LOUISVILLE,KY,Closed,2015/02/02 17:37:06+00
696,95398,14ABC1240,1000,ABC Case,7220 EARL DR,40258-0000,LOUISVILLE,KY,Closed,2014/12/09 14:43:20+00
697,95399,14ABC1199,1000,ABC Case,225 S SPRING ST,40206-0000,LOUISVILLE,KY,Closed,2014/09/27 23:29:13+00
698,95400,14ABC1195,1000,ABC Case,723 S 4TH ST,40202-0000,LOUISVILLE,KY,Closed,2014/09/23 17:45:42+00
699,95401,14ABC1182,1000,ABC Case, BARDSTOWN RD,40205-0000,LOUISVILLE,KY,Closed,2014/09/11 15:42:41+00
700,95402,15ABC1150,1000,ABC Case,2820 FLORA AVE,40220-0000,LOUISVILLE,KY,Closed,2015/06/30 20:13:24+00
701,95253,14ABC1249,1000,ABC Case,1811 W MAIN ST,40203-0000,LOUISVILLE,KY,Closed,2014/12/15 19:26:47+00
702,95254,14ABC1250,1000,ABC Case,911 VINE ST,40204-0000,LOUISVILLE,KY,Closed,2014/12/15 19:42:44+00
703,95255,15ABC1022,1000,ABC Case, I 264 RAMP ,40205-0000,LOUISVILLE,KY,Closed,2015/01/22 15:12:42+00
704,95256,15ABC1024,1000,ABC Case,630 BARRET AVE,40204-0000,LOUISVILLE,KY,Closed,2015/01/25 00:53:02+00
705,95257,14ABC1201,1000,ABC Case,9070 DIXIE HWY,40258-0000,LOUISVILLE,KY,Closed,2014/09/30 20:21:14+00
706,95258,15ABC1236,1000,ABC Case,8808 NATIONAL TPKE,40118-0000,LOUISVILLE,KY,Closed,2015/11/11 17:15:41+00
707,95259,15ABC1038,1000,ABC Case,3706 DIANN MARIE RD,40241-0000,LOUISVILLE,KY,Closed,2015/02/10 20:58:56+00
708,95260,14ABC1184,1000,ABC Case, SHELBYVILLE RD,40222-0000,LOUISVILLE,KY,Closed,2014/09/15 20:46:15+00
709,95261,15ABC1005,1000,ABC Case,1601 S PRESTON ST,40217-0000,LOUISVILLE,KY,Closed,2015/01/12 16:18:59+00
710,95262,16ABC1047,1000,ABC Case,1601 S PRESTON ST,40217-0000,LOUISVILLE,KY,Closed,2016/03/08 15:30:20+00
711,95263,15ABC1026,1000,ABC Case,630 BARRET AVE,40204-0000,LOUISVILLE,KY,Closed,2015/01/26 17:22:46+00
712,95264,14ABC1185,1000,ABC Case, PRESTON HWY,40219-0000,LOUISVILLE,KY,Closed,2014/09/16 18:09:36+00
713,95265,15ABC1037,1000,ABC Case,1003 E BROADWAY ,40204-0000,LOUISVILLE,KY,Closed,2015/02/09 15:45:47+00
714,95266,14ABC1233,1000,ABC Case,2787 S FLOYD ST,40209-0000,LOUISVILLE,KY,Closed,2014/11/30 06:10:49+00
715,95267,14ABC1236,1000,ABC Case,1102 CENTRAL AVE,40208-0000,LOUISVILLE,KY,Closed,2014/12/04 22:10:28+00
716,95268,14ABC1259,1000,ABC Case,956 BAXTER AVE,40204-0000,LOUISVILLE,KY,Closed,2014/12/29 14:45:44+00
717,95269,15ABC1009,1000,ABC Case,2345 FRANKFORT AVE,40206-0000,LOUISVILLE,KY,Closed,2015/01/15 15:18:55+00
718,95270,15ABC1013,1000,ABC Case, I 264 RAMP ,40213-0000,LOUISVILLE,KY,Closed,2015/01/15 17:52:26+00
719,95271,15ABC1031,1000,ABC Case,2715 FERN VALLEY RD,40213-0000,LOUISVILLE,KY,Closed,2015/02/02 17:17:42+00
720,95272,14ABC1193,1000,ABC Case,1163 S 4TH ST,40203-0000,LOUISVILLE,KY,Closed,2014/09/22 16:57:45+00
721,95273,15ABC1132,1000,ABC Case,5013 POPLAR LEVEL RD,40219-0000,LOUISVILLE,KY,Closed,2015/06/13 02:21:30+00
722,95274,15ABC1063,1000,ABC Case,301 LOUIS COLEMAN JR DR,40212-0000,LOUISVILLE,KY,Closed,2015/03/20 18:59:05+00
723,95275,15ABC1040,1000,ABC Case,5101 BARDSTOWN RD,40291-0000,LOUISVILLE,KY,Closed,2015/02/14 08:09:24+00
724,95276,15ABC1126,1000,ABC Case,9003 GALENE DR,40299-0000,JEFFERSONTOWN,KY,Closed,2015/06/09 17:20:56+00
725,95277,15ABC1049,1000,ABC Case,6309 RED SPRUCE DR,40229-0000,LOUISVILLE,KY,Closed,2015/02/24 18:29:20+00
726,95278,15ABC1067,1000,ABC Case,1250 S 3RD ST,40203-0000,LOUISVILLE,KY,Closed,2015/03/23 20:37:17+00
727,95279,15ABC1072,1000,ABC Case,5013 POPLAR LEVEL RD,40219-0000,LOUISVILLE,KY,Closed,2015/03/27 16:31:48+00
728,95280,15ABC1125,1000,ABC Case,9410 TAYLORSVILLE RD,40299-0000,JEFFERSONTOWN,KY,Closed,2015/06/09 17:19:54+00
729,95281,15ABC1127,1000,ABC Case,1330 S HURSTBOURNE PKY,40222-0000,HURSTBOURNE,KY,Closed,2015/06/09 17:21:38+00
730,95282,15ABC1044,1000,ABC Case,2224 DUNDEE RD,40205-0000,LOUISVILLE,KY,Closed,2015/02/18 20:02:47+00
731,95283,15ABC1081,1000,ABC Case,7303 PRESTON HWY,40219-0000,LOUISVILLE,KY,Closed,2015/04/03 17:59:33+00
732,95284,15ABC1089,1000,ABC Case,5015 POPLAR LEVEL RD,40219-0000,LOUISVILLE,KY,Closed,2015/04/10 12:19:17+00
733,95285,15ABC1059,1000,ABC Case,1745 BARDSTOWN RD,40205-0000,LOUISVILLE,KY,Closed,2015/03/16 17:57:08+00
734,95286,15ABC1061,1000,ABC Case,646 BAXTER AVE,40204-0000,LOUISVILLE,KY,Closed,2015/03/16 19:19:21+00
735,95287,15ABC1162,1000,ABC Case, S 23RD ST,40210-0000,LOUISVILLE,KY,Closed,2015/07/22 18:15:22+00
736,95288,17ABC1024,1000,ABC Case, NEW CUT RD,40214-0000,LOUISVILLE,KY,Closed,2017/02/20 18:56:48+00
737,95289,15ABC1109,1000,ABC Case,8003 SHEPHERDSVILLE RD,40219-0000,LOUISVILLE,KY,Closed,2015/05/11 13:24:52+00
738,95290,15ABC1118,1000,ABC Case, CECIL AVE,40211-0000,LOUISVILLE,KY,Closed,2015/05/29 18:32:14+00
739,95291,15ABC1066,1000,ABC Case,3801 FRANKFORT AVE,40207-0000,LOUISVILLE,KY,Closed,2015/03/23 14:49:28+00
740,95292,16ABC1092,1000,ABC Case,1601 S PRESTON ST,40217-0000,LOUISVILLE,KY,Closed,2016/06/29 18:46:48+00
741,95293,15ABC1091,1000,ABC Case,401 WINKLER AVE,40208-0000,LOUISVILLE,KY,Closed,2015/04/14 12:29:49+00
742,95294,15ABC1135,1000,ABC Case,1164 S 3RD ST,40203-0000,LOUISVILLE,KY,Closed,2015/06/16 15:51:33+00
743,95295,15ABC1137,1000,ABC Case,301 LOUIS COLEMAN JR DR,40212-0000,LOUISVILLE,KY,Closed,2015/06/16 18:15:12+00
744,95296,17ABC1030,1000,ABC Case,1145 S 4TH ST,40203-0000,LOUISVILLE,KY,Closed,2017/03/08 15:49:18+00
745,95297,17ABC1031,1000,ABC Case,3600 FERN VALLEY RD,40219-0000,LOUISVILLE,KY,Closed,2017/03/08 15:54:23+00
746,95298,17ABC1254,1000,ABC Case,1904 FRANKFORT AVE,40206-0000,LOUISVILLE,KY,Closed,2017/11/27 17:53:17+00
747,95299,18ABC1072,1000,ABC Case,5046 POPLAR LEVEL RD,40219-0000,LOUISVILLE,KY,Closed,2018/04/09 19:45:42+00
748,95300,15ABC1102,1000,ABC Case, I 264 WEST ,40205-0000,LOUISVILLE,KY,Closed,2015/05/01 16:14:30+00
749,95301,15ABC1114,1000,ABC Case,2470 BARDSTOWN RD,40205-0000,LOUISVILLE,KY,Closed,2015/05/19 13:05:56+00
750,95302,17ABC1005,1000,ABC Case,10645 DIXIE HWY,40272-0000,LOUISVILLE,KY,Closed,2017/01/09 18:51:38+00
751,95555,14ABC1102,1000,ABC Case,8122 PRESTON HWY,40219-0000,LOUISVILLE,KY,Closed,2014/05/13 13:45:38+00
752,95556,15ABC1065,1000,ABC Case,509 LOUIS COLEMAN JR DR,40211-0000,LOUISVILLE,KY,Closed,2015/03/23 13:58:10+00
753,95557,14ABC1117,1000,ABC Case,6112 PRESTON HWY,40219-0000,LOUISVILLE,KY,Closed,2014/06/04 20:02:40+00
754,95558,15ABC1088,1000,ABC Case,6313 RIVER RD,40059-0000,LOUISVILLE,KY,Closed,2015/04/09 21:40:48+00
755,95559,18ABC1085,1000,ABC Case,6102 BARDSTOWN RD,40291-0000,LOUISVILLE,KY,Closed,2018/04/23 15:33:16+00
756,95560,14ABC1107,1000,ABC Case,2100 W MUHAMMAD ALI BLVD,40212-0000,LOUISVILLE,KY,Closed,2014/05/22 13:01:06+00
757,95561,14ABC1101,1000,ABC Case,1509 CRUMS LN,40216-0000,LOUISVILLE,KY,Closed,2014/05/13 12:45:41+00
758,95562,14ABC1104,1000,ABC Case,7800 3RD STREET RD,40214-0000,LOUISVILLE,KY,Closed,2014/05/15 15:05:04+00
759,95563,17ABC1271,1000,ABC Case,1047 BARDSTOWN RD,40204-0000,LOUISVILLE,KY,Closed,2017/12/20 13:29:50+00
760,95564,18ABC1168,1000,ABC Case,1529 BARDSTOWN RD,40205-0000,LOUISVILLE,KY,Closed,2018/08/06 14:30:22+00
761,95565,14ABC1112,1000,ABC Case,3606 CANE RUN RD,40211-0000,LOUISVILLE,KY,Closed,2014/05/29 16:48:40+00
762,95566,14ABC1124,1000,ABC Case,1169 EASTERN PKY,40217-0000,LOUISVILLE,KY,Closed,2014/06/16 21:32:52+00
763,95567,19ABC1016,1000,ABC Case,1100 ALGONQUIN PKY,40208-0000,LOUISVILLE,KY,Closed,2019/01/22 14:42:12+00
764,95568,18ABC1243,1000,ABC Case,10966 DIXIE HWY,40272-0000,LOUISVILLE,KY,Closed,2018/11/12 16:55:50+00
765,95569,14ABC1120,1000,ABC Case, SOUTHERN PKY,40214-0000,LOUISVILLE,KY,Closed,2014/06/11 18:14:10+00
766,95570,15ABC1216,1000,ABC Case,1047 BARDSTOWN RD,40204-0000,LOUISVILLE,KY,Closed,2015/10/13 19:23:31+00
767,95571,14ABC1227,1000,ABC Case,5000 PRESTON HWY,40213-0000,LOUISVILLE,KY,Closed,2014/11/19 19:17:49+00
768,95572,15ABC1133,1000,ABC Case,100 W BROADWAY ,40202-0000,LOUISVILLE,KY,Closed,2015/06/15 02:43:42+00
769,95573,15ABC1217,1000,ABC Case,3727 W BROADWAY ,40211-0000,LOUISVILLE,KY,Closed,2015/10/15 17:09:30+00
770,95574,16ABC1061,1000,ABC Case,3039 BRECKENRIDGE LN,40220-0000,LOUISVILLE,KY,Closed,2016/03/31 11:17:34+00
771,95575,14ABC1205,1000,ABC Case, POPLAR LEVEL RD,40213-0000,LOUISVILLE,KY,Closed,2014/10/17 14:06:02+00
772,95576,14ABC1167,1000,ABC Case, DIXIE HWY,40272-0000,LOUISVILLE,KY,Closed,2014/08/22 21:08:12+00
773,95577,18ABC1144,1000,ABC Case,1133 BARDSTOWN RD,40204-0000,LOUISVILLE,KY,Closed,2018/07/12 16:54:32+00
774,95578,14ABC1142,1000,ABC Case,10501 DIXIE HWY,40272-0000,LOUISVILLE,KY,Closed,2014/07/23 13:51:26+00
775,95579,16ABC1048,1000,ABC Case,1102 W ASHLAND AVE,40215-0000,LOUISVILLE,KY,Closed,2016/03/08 18:57:15+00
776,95580,14ABC1171,1000,ABC Case,2119 UPPER HUNTERS TRCE,40216-0000,LOUISVILLE,KY,Closed,2014/08/29 15:51:58+00
777,95581,17ABC1051,1000,ABC Case,2927 7TH STREET RD,40216-0000,LOUISVILLE,KY,Closed,2017/03/22 15:48:12+00
778,95582,15ABC1148,1000,ABC Case,1927 S 4TH ST,40208-0000,LOUISVILLE,KY,Closed,2015/06/29 12:46:42+00
779,95583,15ABC1209,1000,ABC Case,5414 VALLEY STATION RD,40272-0000,LOUISVILLE,KY,Closed,2015/10/01 03:51:54+00
780,95584,14ABC1111,1000,ABC Case,500 W MAIN ST,40202-0000,LOUISVILLE,KY,Closed,2014/05/27 20:33:26+00
781,95585,14ABC1153,1000,ABC Case,2715 FERN VALLEY RD,40213-0000,LOUISVILLE,KY,Closed,2014/08/11 14:55:00+00
782,95586,14ABC1109,1000,ABC Case,3905 E PAGES LN,40272-0000,LOUISVILLE,KY,Closed,2014/05/22 16:10:07+00
783,95587,14ABC1155,1000,ABC Case,444 S 5TH ST,40202-0000,LOUISVILLE,KY,Closed,2014/08/13 20:48:59+00
784,95588,14ABC1116,1000,ABC Case,3200 LEXINGTON RD,40206-0000,LOUISVILLE,KY,Closed,2014/06/03 15:49:53+00
785,95589,14ABC1137,1000,ABC Case,4111 MURPHY LN,40241-0000,LOUISVILLE,KY,Closed,2014/07/16 15:12:47+00
786,95590,14ABC1159,1000,ABC Case, BAXTER AVE,40204-0000,LOUISVILLE,KY,Closed,2014/08/20 12:20:59+00
787,95591,14ABC1157,1000,ABC Case,1487 FRANKFORT AVE,40206-0000,LOUISVILLE,KY,Closed,2014/08/18 16:02:08+00
788,95592,14ABC1161,1000,ABC Case,801 S CLAY ST,40203-0000,LOUISVILLE,KY,Closed,2014/08/20 12:49:31+00
789,95593,14ABC1170,1000,ABC Case,3309 CAMP GROUND RD,40211-0000,LOUISVILLE,KY,Closed,2014/08/27 18:57:12+00
790,95594,14ABC1163,1000,ABC Case,4801 BARDSTOWN RD,40291-0000,LOUISVILLE,KY,Closed,2014/08/20 21:10:03+00
791,95595,13ABC1097,1000,ABC Case,3903 BARDSTOWN RD,40218-0000,LOUISVILLE,KY,Closed,2013/10/15 12:56:00+00
792,95596,ABC824679,1000,ABC Case, GRINSTEAD DR,40206-0000,LOUISVILLE,KY,Closed,2013/09/05 12:53:20+00
793,95597,13ABC1047,1000,ABC Case,942 BAXTER AVE,40204-0000,LOUISVILLE,KY,Closed,2013/07/20 18:30:53+00
794,95598,15ABC1168,1000,ABC Case,9409 SMYRNA PKY,40229-0000,LOUISVILLE,KY,Closed,2015/08/04 15:00:22+00
795,95599,13ABC1056,1000,ABC Case,720 W MUHAMMAD ALI BLVD,40203-0000,LOUISVILLE,KY,Closed,2013/07/23 18:23:53+00
796,95600,13ABC1095,1000,ABC Case,7429 TERRY RD,40258-0000,LOUISVILLE,KY,Closed,2013/10/14 20:00:27+00
797,95601,13ABC1062,1000,ABC Case, DIXIE HWY,40210-0000,LOUISVILLE,KY,Closed,2013/07/25 17:33:10+00
798,95602,ABC829126,1000,ABC Case,1102 W ASHLAND AVE,40215-0000,LOUISVILLE,KY,Closed,2013/10/12 05:04:39+00
799,95603,ABC827909,1000,ABC Case,444 S 5TH ST,40202-0000,LOUISVILLE,KY,Closed,2013/10/01 14:08:50+00
800,95604,14ABC1057,1000,ABC Case,3464 TAYLOR BLVD,40215-0000,LOUISVILLE,KY,Closed,2014/03/12 13:44:21+00
801,95805,13ABC1008,1000,ABC Case,1715 MELLWOOD AVE,40206-0000,LOUISVILLE,KY,Closed,2013/06/11 19:20:17+00
802,95806,13ABC1004,1000,ABC Case,1154 S 3RD ST,40203-0000,LOUISVILLE,KY,Closed,2013/06/03 16:14:29+00
803,95807,13ABC1010,1000,ABC Case,3516 CHAUNCEY AVE,40211-0000,LOUISVILLE,KY,Closed,2013/06/13 21:20:16+00
804,95808,13ABC1017,1000,ABC Case,1900 BASHFORD MANOR LN,40218-0000,WEST BUECHEL,KY,Closed,2013/06/14 14:52:32+00
805,95809,13ABC1020,1000,ABC Case,3814 FRANKFORT AVE,40207-0000,LOUISVILLE,KY,Closed,2013/06/14 19:31:05+00
806,95810,13ABC1005,1000,ABC Case,5404 BARDSTOWN RD,40291-0000,LOUISVILLE,KY,Closed,2013/06/04 19:48:12+00
807,95811,13ABC1021,1000,ABC Case,1800 BERRY BLVD,40215-0000,LOUISVILLE,KY,Closed,2013/06/17 14:19:30+00
808,95812,13ABC1022,1000,ABC Case,1800 BERRY BLVD,40215-0000,LOUISVILLE,KY,Closed,2013/06/17 14:31:03+00
809,95813,13ABC1024,1000,ABC Case,3706 KLONDIKE LN,40218-0000,LOUISVILLE,KY,Closed,2013/06/19 12:55:11+00
810,95814,13ABC1025,1000,ABC Case,217 BERMUDA LN,40213-0000,LOUISVILLE,KY,Closed,2013/06/19 14:12:29+00
811,95815,13ABC1026,1000,ABC Case,3331 BRECKENRIDGE LN,40220-0000,LOUISVILLE,KY,Closed,2013/06/19 14:21:12+00
812,95816,13ABC1027,1000,ABC Case,3731 ETHEL AVE,40218-0000,WEST BUECHEL,KY,Closed,2013/06/19 14:27:39+00
813,95817,19ABC1123,1000,ABC Case,2232 BARDSTOWN RD,40205-0000,LOUISVILLE,KY,Closed,2019/04/29 16:09:21+00
814,95818,13ABC1030,1000,ABC Case, DIXIE HWY,40216-0000, ,KY,Closed,2013/06/20 16:18:24+00
815,95819,19ABC1037,1000,ABC Case,7325 ST ANDREWS CHURCH RD,40214-0000,LOUISVILLE,KY,Closed,2019/01/31 21:06:28+00
816,95820,19ABC1038,1000,ABC Case,7800 3RD STREET RD,40214-0000,LOUISVILLE,KY,Closed,2019/01/31 21:22:55+00
817,95822,15ABC1062,1000,ABC Case,200 ABRAHAM FLEXNER WAY,40202-0000,LOUISVILLE,KY,Closed,2015/03/20 17:09:19+00
818,95823,15ABC1108,1000,ABC Case,116 E MAIN ST,40202-0000,LOUISVILLE,KY,Closed,2015/05/07 14:23:26+00
819,95824,15ABC1103,1000,ABC Case,311 E GAULBERT AVE,40208-0000,LOUISVILLE,KY,Closed,2015/05/01 16:30:56+00
820,95825,15ABC1106,1000,ABC Case,919 BAXTER AVE,40204-0000,LOUISVILLE,KY,Closed,2015/05/05 20:40:04+00
821,95826,15ABC1101,1000,ABC Case,4301 W MARKET ST,40212-0000,LOUISVILLE,KY,Closed,2015/04/29 17:23:02+00
822,95827,15ABC1098,1000,ABC Case,333 E MARKET ST,40202-0000,LOUISVILLE,KY,Closed,2015/04/23 13:19:56+00
823,95828,15ABC1092,1000,ABC Case,444 S 5TH ST,40202-0000,LOUISVILLE,KY,Closed,2015/04/14 16:59:25+00
824,95829,15ABC1100,1000,ABC Case, TAYLOR BLVD,40208-0000,LOUISVILLE,KY,Closed,2015/04/29 15:46:42+00
825,95830,15ABC1145,1000,ABC Case, S 1ST ST,40202-0000,LOUISVILLE,KY,Closed,2015/06/24 12:09:39+00
826,95831,14ABC1121,1000,ABC Case, S 4TH ST,40208-0000,LOUISVILLE,KY,Closed,2014/06/13 13:37:08+00
827,95832,15ABC1085,1000,ABC Case,5013 POPLAR LEVEL RD,40219-0000,LOUISVILLE,KY,Closed,2015/04/06 03:54:15+00
828,95833,17ABC1001,1000,ABC Case,2110 PAYNE ST,40206-0000,LOUISVILLE,KY,Closed,2017/01/03 20:19:59+00
829,95834,16ABC1154,1000,ABC Case,1532 S 4TH ST,40208-0000,LOUISVILLE,KY,Closed,2016/12/13 15:41:20+00
830,95835,15ABC1094,1000,ABC Case,2911 BROWNSBORO RD,40206-0000,LOUISVILLE,KY,Closed,2015/04/14 20:47:44+00
831,95836,16ABC1077,1000,ABC Case,331 E OAK ST,40203-0000,LOUISVILLE,KY,Closed,2016/05/23 00:44:26+00
832,95837,16ABC1085,1000,ABC Case,8021 PRESTON HWY,40219-0000,LOUISVILLE,KY,Closed,2016/06/05 22:50:11+00
833,95838,15ABC1093,1000,ABC Case,113 W LIBERTY ST,40202-0000,LOUISVILLE,KY,Closed,2015/04/14 17:47:08+00
834,95839,15ABC1096,1000,ABC Case,2221 BUECHEL AVE,40218-0000,LOUISVILLE,KY,Closed,2015/04/16 15:40:08+00
835,95840,15ABC1077,1000,ABC Case,5404 ANTLE DR,40229-0000,LOUISVILLE,KY,Closed,2015/04/01 14:15:08+00
836,95841,15ABC1086,1000,ABC Case,7303 PRESTON HWY,40219-0000,LOUISVILLE,KY,Closed,2015/04/06 16:34:57+00
837,95842,15ABC1074,1000,ABC Case,1521 DIXIE HWY,40210-0000,LOUISVILLE,KY,Closed,2015/03/30 14:07:37+00
838,95843,19ABC1000,1000,ABC Case,1636 W OAK ST,40210-0000,LOUISVILLE,KY,Closed,2019/01/07 15:41:25+00
839,95844,15ABC1070,1000,ABC Case,12418 LA GRANGE RD,40245-0000,LOUISVILLE,KY,Closed,2015/03/25 20:07:42+00
840,95845,15ABC1064,1000,ABC Case,4621 W MARKET ST,40212-0000,LOUISVILLE,KY,Closed,2015/03/23 13:42:25+00
841,95846,15ABC1079,1000,ABC Case,9905 DIXIE HWY,40272-0000,LOUISVILLE,KY,Closed,2015/04/02 13:33:11+00
842,95847,15ABC1053,1000,ABC Case,280 W JEFFERSON ST,40202-0000,LOUISVILLE,KY,Closed,2015/03/04 18:41:57+00
843,95848,15ABC1050,1000,ABC Case,3421 TAYLOR BLVD,40215-0000,LOUISVILLE,KY,Closed,2015/02/24 20:48:43+00
844,95849,15ABC1052,1000,ABC Case,1320 BERRY BLVD,40215-0000,LOUISVILLE,KY,Closed,2015/02/26 19:03:05+00
845,95850,15ABC1051,1000,ABC Case,3825 BARDSTOWN RD,40218-0000,LOUISVILLE,KY,Closed,2015/02/24 20:57:19+00
846,95851,15ABC1055,1000,ABC Case,6706 TERRY RD,40258-0000,LOUISVILLE,KY,Closed,2015/03/06 20:23:52+00
847,95852,18ABC1275,1000,ABC Case,4100 W MUHAMMAD ALI BLVD,40212-0000,LOUISVILLE,KY,Closed,2018/12/18 14:44:27+00
848,95853,14ABC1010,1000,ABC Case,1638 BERRY BLVD,40215-0000,LOUISVILLE,KY,Closed,2014/01/12 03:53:36+00
849,95854,14ABC1118,1000,ABC Case,8615 NATIONAL TPKE,40118-0000,LOUISVILLE,KY,Closed,2014/06/05 16:05:32+00
850,95856,19ABC1128,1000,ABC Case,2601 VIRGINIA AVE,40211-0000,LOUISVILLE,KY,Closed,2019/05/08 14:37:01+00
851,95924,18ABC1215,1000,ABC Case, NEW CUT RD,40214-0000,LOUISVILLE,KY,Closed,2018/10/12 17:39:45+00
852,95705,13ABC1147,1000,ABC Case,5013 POPLAR LEVEL RD,40219-0000,LOUISVILLE,KY,Closed,2013/12/31 14:58:44+00
853,95706,13ABC1111,1000,ABC Case, DUTCHMANS LN,40207-0000, ,KY,Closed,2013/11/07 15:34:29+00
854,95707,13ABC1140,1000,ABC Case,8118 PRESTON HWY,40219-0000,LOUISVILLE,KY,Closed,2013/12/26 12:56:04+00
855,95708,13ABC1141,1000,ABC Case,129 W MAIN ST,40202-0000,LOUISVILLE,KY,Closed,2013/12/26 13:27:51+00
856,95709,14ABC1132,1000,ABC Case,7844 DIXIE HWY,40258-0000,LOUISVILLE,KY,Closed,2014/07/02 14:14:49+00
857,95710,14ABC1063,1000,ABC Case,335 W BROADWAY ,40202-0000,LOUISVILLE,KY,Closed,2014/03/21 19:48:25+00
858,95711,14ABC1064,1000,ABC Case,446 S 4TH ST,40202-0000,LOUISVILLE,KY,Closed,2014/03/23 02:27:28+00
859,95712,15ABC1120,1000,ABC Case,5207 MOUNT WASHINGTON RD,40229-0000,LOUISVILLE,KY,Closed,2015/06/03 12:02:05+00
860,95713,14ABC1038,1000,ABC Case,5207 MOUNT WASHINGTON RD,40229-0000,LOUISVILLE,KY,Closed,2014/02/16 06:54:23+00
861,95925,18ABC1245,1000,ABC Case, BARDSTOWN RD,40204-0000,LOUISVILLE,KY,Closed,2018/11/12 18:58:36+00
862,95926,18ABC1269,1000,ABC Case,3517 CANE RUN RD,40211-0000,LOUISVILLE,KY,Closed,2018/11/30 16:10:32+00
863,95927,18ABC1186,1000,ABC Case,4744 POPLAR LEVEL RD,40213-0000,LOUISVILLE,KY,Closed,2018/08/30 16:22:28+00
864,95928,18ABC1181,1000,ABC Case,3952 BARDSTOWN RD,40218-0000,LOUISVILLE,KY,Closed,2018/08/28 17:13:17+00
865,95929,18ABC1252,1000,ABC Case,1335 STORY AVE,40206-0000,LOUISVILLE,KY,Closed,2018/11/14 21:17:51+00
866,95930,18ABC1195,1000,ABC Case,1058 BARDSTOWN RD,40204-0000,LOUISVILLE,KY,Closed,2018/09/13 15:29:00+00
867,95931,18ABC1263,1000,ABC Case,5338 BARDSTOWN RD,40291-0000,LOUISVILLE,KY,Closed,2018/11/26 16:31:07+00
868,95714,14ABC1039,1000,ABC Case,3730 MANSLICK RD,40215-0000,LOUISVILLE,KY,Closed,2014/02/17 13:27:46+00
869,95932,18ABC1178,1000,ABC Case,1004 E OAK ST,40204-0000,LOUISVILLE,KY,Closed,2018/08/21 19:13:31+00
870,95715,14ABC1071,1000,ABC Case,801 S CLAY ST,40203-0000,LOUISVILLE,KY,Closed,2014/03/28 01:44:29+00
871,95933,18ABC1244,1000,ABC Case,8715 3RD STREET RD,40272-0000,LOUISVILLE,KY,Closed,2018/11/12 17:07:47+00
872,95716,14ABC1180,1000,ABC Case,444 S 5TH ST,40202-0000,LOUISVILLE,KY,Closed,2014/09/10 02:58:20+00
873,95934,18ABC1238,1000,ABC Case,1108 LYNDON LN,40222-0000,ST MATTHEWS,KY,Closed,2018/11/09 16:32:53+00
874,95935,18ABC1258,1000,ABC Case,4744 POPLAR LEVEL RD,40213-0000,LOUISVILLE,KY,Closed,2018/11/15 19:22:34+00
875,95936,18ABC1200,1000,ABC Case,7803 3RD STREET RD,40214-0000,LOUISVILLE,KY,Closed,2018/09/21 14:26:55+00
876,95937,18ABC1212,1000,ABC Case, SHELBYVILLE RD,40222-0000,LOUISVILLE,KY,Closed,2018/10/05 19:10:47+00
877,95938,18ABC1227,1000,ABC Case,942 BAXTER AVE,40204-0000,LOUISVILLE,KY,Closed,2018/10/29 17:07:48+00
878,95940,18ABC1257,1000,ABC Case,3202 FRANKFORT AVE,40206-0000,LOUISVILLE,KY,Closed,2018/11/15 19:17:39+00
879,95941,18ABC1239,1000,ABC Case,4502 CANE RUN RD,40216-0000,LOUISVILLE,KY,Closed,2018/11/09 17:30:12+00
880,95942,18ABC1193,1000,ABC Case,1761 FRANKFORT AVE,40206-0000,LOUISVILLE,KY,Closed,2018/09/12 15:22:30+00
881,95943,18ABC1194,1000,ABC Case,1133 BARDSTOWN RD,40204-0000,LOUISVILLE,KY,Closed,2018/09/12 15:23:51+00
882,95944,18ABC1231,1000,ABC Case,140 N 4TH ST,40202-0000,LOUISVILLE,KY,Closed,2018/10/31 17:15:32+00
883,95945,18ABC1184,1000,ABC Case,6909 SHEPHERDSVILLE RD,40219-0000,LOUISVILLE,KY,Closed,2018/08/29 15:09:20+00
884,95946,18ABC1209,1000,ABC Case,4308 FEGENBUSH LN,40228-0000,LOUISVILLE,KY,Closed,2018/10/04 14:23:18+00
885,95947,18ABC1203,1000,ABC Case,8219 MINOR LN,40219-0000,LOUISVILLE,KY,Closed,2018/09/26 19:53:45+00
886,95949,18ABC1211,1000,ABC Case,401 WINKLER AVE,40208-0000,LOUISVILLE,KY,Closed,2018/10/05 16:43:05+00
887,95951,18ABC1251,1000,ABC Case,4154 BARDSTOWN RD,40218-0000,LOUISVILLE,KY,Closed,2018/11/14 20:00:05+00
888,95952,18ABC1249,1000,ABC Case,1811 W MAIN ST,40203-0000,LOUISVILLE,KY,Closed,2018/11/14 17:39:24+00
889,95953,18ABC1268,1000,ABC Case,2902 7TH STREET RD,40216-0000,SHIVELY,KY,Closed,2018/11/29 19:04:44+00
890,95954,18ABC1228,1000,ABC Case,2531 W BROADWAY ,40211-0000,LOUISVILLE,KY,Closed,2018/10/30 19:12:21+00
891,95955,18ABC1222,1000,ABC Case,7314 FEGENBUSH LN,40228-0000,LOUISVILLE,KY,Closed,2018/10/26 14:58:40+00
892,95956,18ABC1237,1000,ABC Case,4300 FEGENBUSH LN,40228-0000,LOUISVILLE,KY,Closed,2018/11/07 19:12:23+00
893,95957,18ABC1247,1000,ABC Case,1636 W OAK ST,40210-0000,LOUISVILLE,KY,Closed,2018/11/13 20:38:41+00
894,95958,18ABC1271,1000,ABC Case,6112 PRESTON HWY,40219-0000,LOUISVILLE,KY,Closed,2018/12/04 21:25:52+00
895,95959,18ABC1235,1000,ABC Case,1904 FRANKFORT AVE,40206-0000,LOUISVILLE,KY,Closed,2018/11/05 21:50:47+00
896,95960,18ABC1236,1000,ABC Case,1133 BARDSTOWN RD,40204-0000,LOUISVILLE,KY,Closed,2018/11/05 22:02:43+00
897,95961,18ABC1218,1000,ABC Case,2728 W MARKET ST,40212-0000,LOUISVILLE,KY,Closed,2018/10/19 21:09:30+00
898,95963,18ABC1179,1000,ABC Case,301 S 12TH ST,40203-0000,LOUISVILLE,KY,Closed,2018/08/21 20:10:17+00
899,95964,18ABC1177,1000,ABC Case,2613 W BROADWAY ,40211-0000,LOUISVILLE,KY,Closed,2018/08/21 19:10:44+00
900,95965,18ABC1256,1000,ABC Case,4154 BARDSTOWN RD,40218-0000,LOUISVILLE,KY,Closed,2018/11/15 17:53:46+00
901,95966,18ABC1240,1000,ABC Case,4300 FEGENBUSH LN,40228-0000,LOUISVILLE,KY,Closed,2018/11/09 21:59:56+00
902,95968,18ABC1265,1000,ABC Case,1058 BARDSTOWN RD,40204-0000,LOUISVILLE,KY,Closed,2018/11/26 21:48:47+00
903,95969,18ABC1270,1000,ABC Case,2901 BANK ST,40212-0000,LOUISVILLE,KY,Closed,2018/11/30 16:15:50+00
904,95970,18ABC1273,1000,ABC Case,1006 INDUSTRIAL BLVD,40219-0000,LOUISVILLE,KY,Closed,2018/12/11 22:13:15+00
905,95971,18ABC1274,1000,ABC Case,3449 TAYLOR BLVD,40215-0000,LOUISVILLE,KY,Closed,2018/12/12 17:33:53+00
906,95972,18ABC1276,1000,ABC Case,2710 ROCKFORD LN,40216-0000,SHIVELY,KY,Closed,2018/12/18 19:17:33+00
907,95974,18ABC1278,1000,ABC Case,4946 POPLAR LEVEL RD,40219-0000,LOUISVILLE,KY,Closed,2018/12/26 16:52:03+00
908,95975,18ABC1280,1000,ABC Case,607 LYNDON LN,40222-0000,LYNDON,KY,Closed,2018/12/26 21:01:48+00
909,95976,18ABC1279,1000,ABC Case,1102 W ASHLAND AVE,40215-0000,LOUISVILLE,KY,Closed,2018/12/26 17:26:29+00
910,95977,19ABC1061,1000,ABC Case, EASTERN PKY,40217-0000,LOUISVILLE,KY,Closed,2019/02/28 21:38:17+00
911,95979,19ABC1053,1000,ABC Case,6330 BARDSTOWN RD,40291-0000,LOUISVILLE,KY,Closed,2019/02/20 22:21:13+00
912,95980,19ABC1062,1000,ABC Case,5015 POPLAR LEVEL RD,40219-0000,LOUISVILLE,KY,Closed,2019/03/05 14:28:14+00
913,95755,13ABC1029,1000,ABC Case,620 DOUGLAS PARK,40214-0000,LOUISVILLE,KY,Closed,2013/06/19 14:40:26+00
914,95605,13ABC1049,1000,ABC Case,9302 BLUE LICK RD,40229-0000,LOUISVILLE,KY,Closed,2013/07/22 15:36:59+00
915,95981,19ABC1059,1000,ABC Case,1567 S SHELBY ST,40217-0000,LOUISVILLE,KY,Closed,2019/02/25 19:12:50+00
916,95717,14ABC1015,1000,ABC Case,1114 S 4TH ST,40203-0000,LOUISVILLE,KY,Closed,2014/01/16 17:30:31+00
917,95718,14ABC1045,1000,ABC Case,442 S 3RD ST,40202-0000,LOUISVILLE,KY,Closed,2014/02/24 15:53:39+00
918,95719,14ABC1096,1000,ABC Case, PARK AVE,40208-0000,LOUISVILLE,KY,Closed,2014/05/08 17:34:41+00
919,95720,14ABC1073,1000,ABC Case,1 AUDUBON PLAZA DR,40217-0000,LOUISVILLE,KY,Closed,2014/04/04 14:43:57+00
920,95721,14ABC1066,1000,ABC Case,3309 CAMP GROUND RD,40211-0000,LOUISVILLE,KY,Closed,2014/03/24 20:44:17+00
921,95722,14ABC1031,1000,ABC Case,12201 DIXIE HWY,40272-0000,LOUISVILLE,KY,Closed,2014/02/11 14:35:00+00
922,95723,14ABC1068,1000,ABC Case,5207 MOUNT WASHINGTON RD,40229-0000,LOUISVILLE,KY,Closed,2014/03/27 15:00:11+00
923,95724,14ABC1029,1000,ABC Case,5800 FERN VALLEY RD,40228-0000,LOUISVILLE,KY,Closed,2014/02/04 20:47:17+00
924,95725,13ABC1104,1000,ABC Case,5608 PRESTON HWY,40219-0000,LOUISVILLE,KY,Closed,2013/11/01 12:13:01+00
925,95726,14ABC1222,1000,ABC Case, SHELBYVILLE RD,40222-0000, ,KY,Closed,2014/11/10 14:05:41+00
926,95727,13ABC1117,1000,ABC Case,7319 PRESTON HWY,40219-0000,LOUISVILLE,KY,Closed,2013/11/18 21:19:47+00
927,95728,14ABC1106,1000,ABC Case,4739 DIXIE HWY,40216-0000,LOUISVILLE,KY,Closed,2014/05/18 05:53:05+00
928,95729,13ABC1102,1000,ABC Case,2020 BASHFORD MANOR LN,40218-0000,WEST BUECHEL,KY,Closed,2013/10/31 14:08:47+00
929,95730,14ABC1072,1000,ABC Case, I 264 RAMP ,40213-0000,LOUISVILLE,KY,Closed,2014/04/03 12:56:15+00
930,95731,13ABC1103,1000,ABC Case,1102 W ASHLAND AVE,40215-0000,LOUISVILLE,KY,Closed,2013/11/01 11:39:15+00
931,95732,14ABC1040,1000,ABC Case, E BROADWAY ,40202-0000,LOUISVILLE,KY,Closed,2014/02/17 23:10:52+00
932,95733,15ABC1203,1000,ABC Case,9220 BLUE LICK RD,40229-0000,LOUISVILLE,KY,Closed,2015/09/15 16:04:00+00
933,95734,13ABC1108,1000,ABC Case,8021 PRESTON HWY,40219-0000,LOUISVILLE,KY,Closed,2013/11/04 20:17:26+00
934,95735,13ABC1112,1000,ABC Case, PRESTON HWY,40219-0000,LOUISVILLE,KY,Closed,2013/11/08 21:30:40+00
935,95736,13ABC1119,1000,ABC Case, S 5TH ST,40202-0000,LOUISVILLE,KY,Closed,2013/11/21 14:06:08+00
936,95737,14ABC1080,1000,ABC Case, S 5TH ST,40203-0000,LOUISVILLE,KY,Closed,2014/04/16 20:28:06+00
937,95738,14ABC1013,1000,ABC Case,2728 W MARKET ST,40212-0000,LOUISVILLE,KY,Closed,2014/01/14 15:31:50+00
938,95739,14ABC1103,1000,ABC Case,7800 3RD STREET RD,40214-0000,LOUISVILLE,KY,Closed,2014/05/15 12:29:46+00
939,95740,14ABC1051,1000,ABC Case,1575 STORY AVE,40206-0000,LOUISVILLE,KY,Closed,2014/03/08 03:56:37+00
940,95741,18ABC1065,1000,ABC Case,1047 BARDSTOWN RD,40204-0000,LOUISVILLE,KY,Closed,2018/03/27 15:26:29+00
941,95742,13ABC1132,1000,ABC Case,7319 PRESTON HWY,40219-0000,LOUISVILLE,KY,Closed,2013/12/18 14:42:37+00
942,95743,14ABC1088,1000,ABC Case,444 S 5TH ST,40202-0000,LOUISVILLE,KY,Closed,2014/05/06 13:37:23+00
943,95744,ABC869376,1000,ABC Case,1601 S PRESTON ST,40217-0000,LOUISVILLE,KY,Closed,2014/12/04 14:18:02+00
944,95745,14ABC1014,1000,ABC Case,3294 TAYLOR BLVD,40215-0000,LOUISVILLE,KY,Closed,2014/01/16 02:20:34+00
945,95746,14ABC1004,1000,ABC Case,9307 NEW LA GRANGE RD,40242-0000,LYNDON,KY,Closed,2014/01/06 21:41:42+00
946,95747,14ABC1047,1000,ABC Case,8231 AFTERGLOW DR,40214-0000,LOUISVILLE,KY,Closed,2014/02/24 18:03:09+00
947,95748,14ABC1048,1000,ABC Case,1811 W MAIN ST,40203-0000,LOUISVILLE,KY,Closed,2014/02/24 18:42:38+00
948,95749,14ABC1079,1000,ABC Case,3606 CANE RUN RD,40211-0000,LOUISVILLE,KY,Closed,2014/04/15 20:09:11+00
949,95750,14ABC1084,1000,ABC Case,6720 OUTER LOOP,40228-0000,LOUISVILLE,KY,Closed,2014/04/24 20:00:35+00
950,95751,13ABC1144,1000,ABC Case,1850 TAYLOR AVE,40213-0000,LOUISVILLE,KY,Closed,2013/12/30 17:32:48+00
951,95752,13ABC1124,1000,ABC Case,3825 TAYLOR BLVD,40215-0000,LOUISVILLE,KY,Closed,2013/12/02 21:54:26+00
952,95753,13ABC1009,1000,ABC Case,1123 BARDSTOWN RD,40204-0000,LOUISVILLE,KY,Closed,2013/06/13 15:06:09+00
953,95754,13ABC1028,1000,ABC Case,1620 SUTHERLAND DR,40205-0000,LOUISVILLE,KY,Closed,2013/06/19 14:34:23+00
954,95655,13ABC1084,1000,ABC Case,444 S 5TH ST,40202-0000,LOUISVILLE,KY,Closed,2013/08/23 14:19:51+00
955,95982,19ABC1054,1000,ABC Case,2232 BARDSTOWN RD,40205-0000,LOUISVILLE,KY,Closed,2019/02/21 21:16:56+00
956,95756,13ABC1011,1000,ABC Case,3001 FIR TRL,40299-0000,JEFFERSONTOWN,KY,Closed,2013/06/14 12:46:07+00
957,95606,13ABC1091,1000,ABC Case,7319 PRESTON HWY,40219-0000,LOUISVILLE,KY,Closed,2013/08/30 20:05:03+00
958,95757,13ABC1012,1000,ABC Case,4947 QUAIL HOLLOW RD,40213-0000,LOUISVILLE,KY,Closed,2013/06/14 13:07:04+00
959,95758,13ABC1013,1000,ABC Case,706 ZORN AVE,40206-0000,LOUISVILLE,KY,Closed,2013/06/14 13:18:43+00
960,95759,13ABC1023,1000,ABC Case,2235 S PRESTON ST,40217-0000,LOUISVILLE,KY,Closed,2013/06/18 14:54:57+00
961,95760,13ABC1006,1000,ABC Case,3900 SHELBYVILLE RD,40207-0000,LOUISVILLE,KY,Closed,2013/06/07 13:40:46+00
962,95761,13ABC1014,1000,ABC Case,2019 PEABODY LN,40218-0000,LOUISVILLE,KY,Closed,2013/06/14 13:52:44+00
963,95762,13ABC1015,1000,ABC Case,444 S 5TH ST,40202-0000,LOUISVILLE,KY,Closed,2013/06/14 14:15:01+00
964,95763,13ABC1001,1000,ABC Case,7403 FEGENBUSH LN,40228-0000,LOUISVILLE,KY,Closed,2013/05/31 17:04:23+00
965,95764,13ABC1002,1000,ABC Case, CLIFF AVE,40215-0000,LOUISVILLE,KY,Closed,2013/06/01 23:22:34+00
966,95765,13ABC1003,1000,ABC Case,4009 POPLAR LEVEL RD,40213-0000,LOUISVILLE,KY,Closed,2013/06/03 12:56:19+00
967,95766,15ABC1047,1000,ABC Case,1601 S PRESTON ST,40217-0000,LOUISVILLE,KY,Closed,2015/02/24 13:19:21+00
968,95767,13ABC1053,1000,ABC Case, W MUHAMMAD ALI BLVD,40203-0000,LOUISVILLE,KY,Closed,2013/07/23 02:36:15+00
969,95768,13ABC1032,1000,ABC Case,4900 NORTON HEALTHCARE BLVD,40241-0000,LOUISVILLE,KY,Closed,2013/06/24 16:42:23+00
970,95769,13ABC1037,1000,ABC Case,280 W JEFFERSON ST,40202-0000,LOUISVILLE,KY,Closed,2013/07/08 19:02:05+00
971,95770,13ABC1076,1000,ABC Case,1574 BARDSTOWN RD,40205-0000,LOUISVILLE,KY,Closed,2013/08/08 13:19:01+00
972,95771,13ABC1045,1000,ABC Case,2420 S 4TH ST,40208-0000,LOUISVILLE,KY,Closed,2013/07/18 13:03:23+00
973,95772,13ABC1066,1000,ABC Case,444 S 5TH ST,40202-0000,LOUISVILLE,KY,Closed,2013/07/29 13:45:42+00
974,95773,13ABC1082,1000,ABC Case,444 S 5TH ST,40202-0000,LOUISVILLE,KY,Closed,2013/08/21 15:29:33+00
975,95774,13ABC1083,1000,ABC Case,720 W MUHAMMAD ALI BLVD,40203-0000,LOUISVILLE,KY,Closed,2013/08/21 15:56:10+00
976,95775,13ABC1086,1000,ABC Case,10231 BLUE LICK RD,40229-0000,LOUISVILLE,KY,Closed,2013/08/30 13:25:17+00
977,95776,13ABC1061,1000,ABC Case,3503 7TH STREET RD,40216-0000,LOUISVILLE,KY,Closed,2013/07/25 14:17:33+00
978,95777,13ABC1087,1000,ABC Case,9220 BLUE LICK RD,40229-0000,LOUISVILLE,KY,Closed,2013/08/30 13:58:39+00
979,95778,13ABC1051,1000,ABC Case,444 S 5TH ST,40202-0000,LOUISVILLE,KY,Closed,2013/07/22 16:08:45+00
980,95779,13ABC1067,1000,ABC Case,444 S 5TH ST,40202-0000,LOUISVILLE,KY,Closed,2013/07/29 16:44:17+00
981,95780,14ABC1140,1000,ABC Case,108 BRECKINRIDGE SQ,40220-0000,LOUISVILLE,KY,Closed,2014/07/21 13:27:22+00
982,95781,ABC827996,1000,ABC Case,614 BAXTER AVE,40204-0000,LOUISVILLE,KY,Closed,2013/10/01 20:18:27+00
983,95782,13ABC1096,1000,ABC Case,7429 TERRY RD,40258-0000,LOUISVILLE,KY,Closed,2013/10/15 12:32:16+00
984,95783,ABC826900,1000,ABC Case,208 E BURNETT AVE,40208-0000,LOUISVILLE,KY,Closed,2013/09/21 06:42:05+00
985,95784,13ABC1065,1000,ABC Case, S 4TH ST,40202-0000,LOUISVILLE,KY,Closed,2013/07/29 10:39:26+00
986,95785,13ABC1074,1000,ABC Case,444 S 5TH ST,40202-0000,LOUISVILLE,KY,Closed,2013/08/06 15:10:35+00
987,95786,13ABC1069,1000,ABC Case,444 S 5TH ST,40202-0000,LOUISVILLE,KY,Closed,2013/07/30 12:56:16+00
988,95787,ABC825743,1000,ABC Case,112 W JEFFERSON ST,40202-0000,LOUISVILLE,KY,Closed,2013/09/12 14:55:29+00
989,95788,13ABC1039,1000,ABC Case,315 E BROADWAY ,40202-0000,LOUISVILLE,KY,Closed,2013/07/10 20:37:11+00
990,95789,13ABC1033,1000,ABC Case,772 LOGAN ST,40204-0000,LOUISVILLE,KY,Closed,2013/06/25 16:54:13+00
991,95790,ABC827930,1000,ABC Case,7895 DIXIE HWY,40258-0000,LOUISVILLE,KY,Closed,2013/10/01 15:31:13+00
992,95791,ABC826429,1000,ABC Case, DIXIE HWY,40216-0000, ,KY,Closed,2013/09/18 14:38:50+00
993,95792,13ABC1072,1000,ABC Case,7123 GRADE LN,40213-0000,LOUISVILLE,KY,Closed,2013/08/06 13:00:14+00
994,95793,13ABC1031,1000,ABC Case,4900 NORTON HEALTHCARE BLVD,40241-0000,LOUISVILLE,KY,Closed,2013/06/24 16:42:23+00
995,95794,13ABC1077,1000,ABC Case,4206 POPLAR LEVEL RD,40213-0000,LOUISVILLE,KY,Closed,2013/08/08 15:32:33+00
996,95795,14ABC1152,1000,ABC Case,8118 PRESTON HWY,40219-0000,LOUISVILLE,KY,Closed,2014/08/11 13:34:14+00
997,95796,13ABC1036,1000,ABC Case, BRECKENRIDGE LN,40207-0000, ,KY,Closed,2013/06/28 12:08:34+00
998,95797,13ABC1092,1000,ABC Case,1078 E WASHINGTON ST,40206-0000,LOUISVILLE,KY,Closed,2013/10/14 14:44:13+00
999,95798,13ABC1093,1000,ABC Case,1871 BERRY BLVD,40215-0000,LOUISVILLE,KY,Closed,2013/10/14 16:44:39+00
1000,95799,13ABC1000,1000,ABC Case,106 COLONIAL DR,40207-0000,ST MATTHEWS,KY,Closed,2013/05/26 18:34:53+00
1001,95800,13ABC1016,1000,ABC Case,9407 DORAL CT,40220-0000,LOUISVILLE,KY,Closed,2013/06/14 14:40:44+00
1002,95801,13ABC1018,1000,ABC Case,3304 BENT CREEK CT,40218-0000,LOUISVILLE,KY,Closed,2013/06/14 15:04:00+00
1003,95860,19ABC1118,1000,ABC Case,7303 PRESTON HWY,40219-0000,LOUISVILLE,KY,Closed,2019/04/26 16:46:09+00
1004,95656,13ABC1034,1000,ABC Case,3001 CHAMBERLAIN LN,40241-0000,LOUISVILLE,KY,Closed,2013/06/25 17:34:33+00
1005,95983,19ABC1063,1000,ABC Case,1035 S 3RD ST,40203-0000,LOUISVILLE,KY,Closed,2019/03/05 15:38:44+00
1006,95607,13ABC1085,1000,ABC Case,1022 CLARKS LN,40217-0000,LOUISVILLE,KY,Closed,2013/08/29 16:40:33+00
1007,95802,13ABC1019,1000,ABC Case,5114 CRAFTY DR,40213-0000,LOUISVILLE,KY,Closed,2013/06/14 15:29:32+00
1008,95803,15ABC1238,1000,ABC Case,  , , , ,Closed,2015/11/16 16:39:09+00
1009,95804,13ABC1007,1000,ABC Case,630 BARRET AVE,40204-0000,LOUISVILLE,KY,Closed,2013/06/07 13:56:14+00
1010,95657,13ABC1073,1000,ABC Case,444 S 5TH ST,40202-0000,LOUISVILLE,KY,Closed,2013/08/06 14:37:01+00
1011,95861,19ABC1110,1000,ABC Case, S 3RD ST,40214-0000,LOUISVILLE,KY,Closed,2019/04/22 21:48:20+00
1012,95658,13ABC1071,1000,ABC Case,444 S 5TH ST,40202-0000,LOUISVILLE,KY,Closed,2013/08/02 19:49:41+00
1013,95862,19ABC1119,1000,ABC Case,7845 PRESTON HWY,40219-0000,LOUISVILLE,KY,Closed,2019/04/26 16:48:50+00
1014,95659,ABC825348,1000,ABC Case,444 S 5TH ST,40202-0000,LOUISVILLE,KY,Closed,2013/09/10 17:14:15+00
1015,95660,ABC827707,1000,ABC Case,3606 CANE RUN RD,40211-0000,LOUISVILLE,KY,Closed,2013/09/29 04:10:50+00
1016,95661,15ABC1147,1000,ABC Case,601 WINKLER AVE,40208-0000,LOUISVILLE,KY,Closed,2015/06/29 12:35:36+00
1017,95662,13ABC1090,1000,ABC Case,9304 BLUE LICK RD,40229-0000,LOUISVILLE,KY,Closed,2013/08/30 17:22:46+00
1018,95663,ABC826760,1000,ABC Case,901 FRANKLIN ST,40206-0000,LOUISVILLE,KY,Closed,2013/09/20 13:05:00+00
1019,95664,ABC826751,1000,ABC Case,1601 S PRESTON ST,40217-0000,LOUISVILLE,KY,Closed,2013/09/20 12:42:44+00
1020,95665,13ABC1080,1000,ABC Case,721 W MUHAMMAD ALI BLVD,40203-0000,LOUISVILLE,KY,Closed,2013/08/13 07:07:30+00
1021,95666,ABC825162,1000,ABC Case,2622 S 4TH ST,40208-0000,LOUISVILLE,KY,Closed,2013/09/09 13:09:16+00
1022,95667,18ABC1148,1000,ABC Case,1715 BERRY BLVD,40215-0000,LOUISVILLE,KY,Closed,2018/07/16 14:38:32+00
1023,95668,ABC825319,1000,ABC Case,614 BAXTER AVE,40204-0000,LOUISVILLE,KY,Closed,2013/09/10 14:53:19+00
1024,95669,ABC828291,1000,ABC Case,937 PHILLIPS LN,40209-0000,LOUISVILLE,KY,Closed,2013/10/03 17:48:20+00
1025,95670,ABC825856,1000,ABC Case,444 S 5TH ST,40202-0000,LOUISVILLE,KY,Closed,2013/09/13 12:15:45+00
1026,95671,18ABC1014,1000,ABC Case,3900 SUMMIT PLAZA DR,40241-0000,LOUISVILLE,KY,Closed,2018/01/08 13:28:51+00
1027,95672,13ABC1120,1000,ABC Case,8808 NATIONAL TPKE,40118-0000,LOUISVILLE,KY,Closed,2013/11/27 15:46:47+00
1028,95673,14ABC1164,1000,ABC Case,1200 PAYNE ST,40204-0000,LOUISVILLE,KY,Closed,2014/08/21 13:02:21+00
1029,95674,14ABC1060,1000,ABC Case, W BROADWAY ,40202-0000,LOUISVILLE,KY,Closed,2014/03/17 15:23:22+00
1030,95675,13ABC1123,1000,ABC Case,4739 DIXIE HWY,40216-0000,LOUISVILLE,KY,Closed,2013/12/02 21:27:32+00
1031,95676,18ABC1107,1000,ABC Case,2440 BARDSTOWN RD,40205-0000,LOUISVILLE,KY,Closed,2018/05/24 16:40:33+00
1032,95677,14ABC1092,1000,ABC Case,914 E MUHAMMAD ALI BLVD,40204-0000,LOUISVILLE,KY,Closed,2014/05/07 18:31:11+00
1033,95678,13ABC1100,1000,ABC Case,3039 TAYLOR BLVD,40208-0000,LOUISVILLE,KY,Closed,2013/10/30 20:34:55+00
1034,95679,14ABC1242,1000,ABC Case,8122 PRESTON HWY,40219-0000,LOUISVILLE,KY,Closed,2014/12/09 16:36:52+00
1035,95680,13ABC1106,1000,ABC Case,8008 BLUE LICK RD,40219-0000,LOUISVILLE,KY,Closed,2013/11/04 14:20:29+00
1036,95681,13ABC1107,1000,ABC Case,4501 OUTER LOOP,40219-0000,LOUISVILLE,KY,Closed,2013/11/04 14:53:55+00
1037,95682,14ABC1034,1000,ABC Case,2927 7TH STREET RD,40216-0000,LOUISVILLE,KY,Closed,2014/02/12 19:08:32+00
1038,95683,13ABC1121,1000,ABC Case,1204 GILMORE LN,40213-0000,LOUISVILLE,KY,Closed,2013/11/27 17:14:15+00
1039,95684,13ABC1137,1000,ABC Case,8238 DIXIE HWY,40258-0000,LOUISVILLE,KY,Closed,2013/12/24 13:30:11+00
1040,95685,13ABC1139,1000,ABC Case,1614 DIXIE HWY,40210-0000,LOUISVILLE,KY,Closed,2013/12/24 20:24:04+00
1041,95686,15ABC1041,1000,ABC Case,1758 FRANKFORT AVE,40206-0000,LOUISVILLE,KY,Closed,2015/02/17 19:27:00+00
1042,95687,13ABC1134,1000,ABC Case, I 264 RAMP ,40222-0000,LOUISVILLE,KY,Closed,2013/12/19 19:44:08+00
1043,95688,14ABC1005,1000,ABC Case,227 E MARKET ST,40202-0000,LOUISVILLE,KY,Closed,2014/01/07 16:13:26+00
1044,95689,14ABC1204,1000,ABC Case,1601 S PRESTON ST,40217-0000,LOUISVILLE,KY,Closed,2014/10/14 15:21:05+00
1045,95690,14ABC1049,1000,ABC Case,418 S 12TH ST,40203-0000,LOUISVILLE,KY,Closed,2014/02/26 14:50:12+00
1046,95691,14ABC1030,1000,ABC Case,1919 S PRESTON ST,40217-0000,LOUISVILLE,KY,Closed,2014/02/05 22:31:24+00
1047,95692,17ABC1008,1000,ABC Case,1164 S 3RD ST,40203-0000,LOUISVILLE,KY,Closed,2017/01/17 18:19:57+00
1048,95693,16ABC1018,1000,ABC Case,1601 S 3RD ST,40208-0000,LOUISVILLE,KY,Closed,2016/01/19 15:05:39+00
1049,95694,14ABC1035,1000,ABC Case,937 PHILLIPS LN,40209-0000,LOUISVILLE,KY,Closed,2014/02/13 18:04:38+00
1050,95695,14ABC1046,1000,ABC Case,3814 FRANKFORT AVE,40207-0000,LOUISVILLE,KY,Closed,2014/02/24 16:32:41+00
1051,95696,14ABC1037,1000,ABC Case,5013 POPLAR LEVEL RD,40219-0000,LOUISVILLE,KY,Closed,2014/02/15 01:13:31+00
1052,95697,14ABC1054,1000,ABC Case,  , , , ,Closed,2014/03/10 19:30:02+00
1053,95698,14ABC1055,1000,ABC Case,1567 BARDSTOWN RD,40205-0000,LOUISVILLE,KY,Closed,2014/03/10 19:43:02+00
1054,95699,14ABC1056,1000,ABC Case,5507 VALLEY STATION RD,40272-0000,LOUISVILLE,KY,Closed,2014/03/10 20:41:32+00
1055,95700,13ABC1136,1000,ABC Case,2038 NORTHWESTERN PKY,40203-0000,LOUISVILLE,KY,Closed,2013/12/23 14:37:43+00
1056,95701,14ABC1020,1000,ABC Case,907 ULRICH AVE,40219-0000,LOUISVILLE,KY,Closed,2014/01/28 15:33:59+00
1057,95702,14ABC1178,1000,ABC Case,942 BAXTER AVE,40204-0000,LOUISVILLE,KY,Closed,2014/09/07 05:38:17+00
1058,95703,14ABC1044,1000,ABC Case, S 4TH ST,40202-0000,LOUISVILLE,KY,Closed,2014/02/20 14:26:00+00
1059,95704,14ABC1238,1000,ABC Case,1601 S PRESTON ST,40217-0000,LOUISVILLE,KY,Closed,2014/12/08 15:57:04+00
1060,95608,13ABC1052,1000,ABC Case,3294 TAYLOR BLVD,40215-0000,LOUISVILLE,KY,Closed,2013/07/22 16:48:22+00
1061,95985,19ABC1055,1000,ABC Case, SHELBYVILLE RD,40207-0000, ,KY,Closed,2019/02/22 21:08:56+00
1062,95609,13ABC1055,1000,ABC Case,444 S 5TH ST,40202-0000,LOUISVILLE,KY,Closed,2013/07/23 15:51:09+00
1063,95610,ABC825334,1000,ABC Case,907 ULRICH AVE,40219-0000,LOUISVILLE,KY,Closed,2013/09/10 16:11:19+00
1064,95611,13ABC1060,1000,ABC Case,444 S 5TH ST,40202-0000,LOUISVILLE,KY,Closed,2013/07/25 12:17:40+00
1065,95612,13ABC1050,1000,ABC Case,2420 S 4TH ST,40208-0000,LOUISVILLE,KY,Closed,2013/07/22 15:44:50+00
1066,95613,13ABC1059,1000,ABC Case,  , , , ,Closed,2013/07/25 01:24:45+00
1067,95614,14ABC1078,1000,ABC Case, W MUHAMMAD ALI BLVD,40202-0000,LOUISVILLE,KY,Closed,2014/04/14 12:30:02+00
1068,95615,13ABC1035,1000,ABC Case,140 N 4TH ST,40202-0000,LOUISVILLE,KY,Closed,2013/06/27 16:05:35+00
1069,95616,ABC825923,1000,ABC Case,6306 JOHNSONTOWN RD,40272-0000,LOUISVILLE,KY,Closed,2013/09/13 16:39:47+00
1070,95617,13ABC1128,1000,ABC Case,3730 MANSLICK RD,40215-0000,LOUISVILLE,KY,Closed,2013/12/09 13:47:32+00
1071,95618,14ABC1168,1000,ABC Case, DIXIE HWY,40272-0000,LOUISVILLE,KY,Closed,2014/08/24 01:24:00+00
1072,95619,ABC828147,1000,ABC Case,444 S 5TH ST,40202-0000,LOUISVILLE,KY,Closed,2013/10/02 17:08:11+00
1073,95620,ABC826086,1000,ABC Case,444 S 5TH ST,40202-0000,LOUISVILLE,KY,Closed,2013/09/16 16:00:49+00
1074,95621,13ABC1070,1000,ABC Case, TAYLORSVILLE LAKE RD,40023-0000,LOUISVILLE,KY,Closed,2013/07/30 16:24:52+00
1075,95622,13ABC1088,1000,ABC Case,9308 BLUE LICK RD,40229-0000,LOUISVILLE,KY,Closed,2013/08/30 16:52:12+00
1076,95623,13ABC1089,1000,ABC Case,10645 DIXIE HWY,40272-0000,LOUISVILLE,KY,Closed,2013/08/30 17:09:38+00
1077,95624,ABC825321,1000,ABC Case,630 BARRET AVE,40204-0000,LOUISVILLE,KY,Closed,2013/09/10 15:04:26+00
1078,95625,13ABC1075,1000,ABC Case,444 S 5TH ST,40202-0000,LOUISVILLE,KY,Closed,2013/08/06 19:04:27+00
1079,95626,ABC827701,1000,ABC Case,  , , , ,Closed,2013/09/28 04:51:41+00
1080,95627,ABC825331,1000,ABC Case,907 ULRICH AVE,40219-0000,LOUISVILLE,KY,Closed,2013/09/10 15:59:42+00
1081,95628,ABC825335,1000,ABC Case,8021 DIXIE HWY,40258-0000,LOUISVILLE,KY,Closed,2013/09/10 16:14:11+00
1082,95629,13ABC1081,1000,ABC Case,400 S 4TH ST,40202-0000,LOUISVILLE,KY,Closed,2013/08/14 17:58:18+00
1083,95630,13ABC1043,1000,ABC Case,444 S 5TH ST,40202-0000,LOUISVILLE,KY,Closed,2013/07/17 15:26:54+00
1084,95631,13ABC1046,1000,ABC Case, CANE RUN RD,40216-0000,LOUISVILLE,KY,Closed,2013/07/18 14:46:50+00
1085,95632,15ABC1188,1000,ABC Case,500 S 4TH ST,40202-0000,LOUISVILLE,KY,Closed,2015/08/26 12:24:28+00
1086,95633,15ABC1189,1000,ABC Case,9070 DIXIE HWY,40258-0000,LOUISVILLE,KY,Closed,2015/08/26 12:30:15+00
1087,95634,13ABC1078,1000,ABC Case,841 S 6TH ST,40203-0000,LOUISVILLE,KY,Closed,2013/08/12 16:45:15+00
1088,95635,13ABC1079,1000,ABC Case,1239 GILMORE LN,40213-0000,LYNNVIEW,KY,Closed,2013/08/12 17:34:44+00
1089,95636,13ABC1098,1000,ABC Case, S 4TH ST,40203-0000,LOUISVILLE,KY,Closed,2013/10/18 17:34:20+00
1090,95637,13ABC1099,1000,ABC Case,2200 BROWNSBORO RD,40206-0000,LOUISVILLE,KY,Closed,2013/10/21 21:41:20+00
1091,95638,ABC824712,1000,ABC Case,444 S 5TH ST,40202-0000,LOUISVILLE,KY,Closed,2013/09/05 15:05:58+00
1092,95639,13ABC1094,1000,ABC Case,9220 BLUE LICK RD,40229-0000,LOUISVILLE,KY,Closed,2013/10/14 19:43:20+00
1093,95863,19ABC1113,1000,ABC Case, W BROADWAY ,40211-0000,LOUISVILLE,KY,Closed,2019/04/23 15:14:02+00
1094,95864,19ABC1120,1000,ABC Case,7212 PRESTON HWY,40219-0000,LOUISVILLE,KY,Closed,2019/04/26 19:09:02+00
1095,95866,19ABC1114,1000,ABC Case,521 N 22ND ST,40203-0000,LOUISVILLE,KY,Closed,2019/04/23 19:53:46+00
1096,95867,19ABC1130,1000,ABC Case,3727 W BROADWAY ,40211-0000,LOUISVILLE,KY,Closed,2019/05/08 15:16:39+00
1097,95869,19ABC1133,1000,ABC Case,2812 PATTI LN,40299-0000,JEFFERSONTOWN,KY,Closed,2019/05/08 18:58:25+00
1098,95873,19ABC1138,1000,ABC Case,4406 TAYLOR BLVD,40215-0000,LOUISVILLE,KY,Closed,2019/05/22 16:16:07+00
1099,95874,19ABC1125,1000,ABC Case,4122 PINECROFT DR,40219-0000,LOUISVILLE,KY,Closed,2019/05/01 17:01:06+00
1100,95875,19ABC1115,1000,ABC Case,200 S HANCOCK ST,40202-0000,LOUISVILLE,KY,Closed,2019/04/24 16:18:22+00
1101,95876,19ABC1145,1000,ABC Case,2200 W MADISON ST,40211-0000,LOUISVILLE,KY,Closed,2019/06/05 15:19:08+00
1102,95877,19ABC1135,1000,ABC Case,8122 PRESTON HWY,40219-0000,LOUISVILLE,KY,Closed,2019/05/11 05:20:31+00
1103,95879,19ABC1117,1000,ABC Case,9220 BLUE LICK RD,40229-0000,LOUISVILLE,KY,Closed,2019/04/26 16:38:10+00
1104,95881,19ABC1131,1000,ABC Case,2531 W BROADWAY ,40211-0000,LOUISVILLE,KY,Closed,2019/05/08 15:18:22+00
1105,95882,19ABC1121,1000,ABC Case,3333 ROGER E SCHUPP ST,40205-0000,LOUISVILLE,KY,Closed,2019/04/29 13:09:59+00
1106,95883,19ABC1129,1000,ABC Case,519 S 3RD ST,40202-0000,LOUISVILLE,KY,Closed,2019/05/08 15:15:14+00
1107,95885,19ABC1109,1000,ABC Case, S 3RD ST,40214-0000,LOUISVILLE,KY,Closed,2019/04/22 18:53:00+00
1108,95887,19ABC1116,1000,ABC Case,3300 FERN VALLEY RD,40213-0000,LOUISVILLE,KY,Closed,2019/04/26 16:09:24+00
1109,95888,19ABC1137,1000,ABC Case,1300 DIXIE HWY,40210-0000,LOUISVILLE,KY,Closed,2019/05/14 20:39:51+00
1110,95891,19ABC1127,1000,ABC Case, STONE LAKES DR,40299-0000,LOUISVILLE,KY,Closed,2019/05/03 18:43:46+00
1111,95892,19ABC1126,1000,ABC Case,2533 W BROADWAY ,40211-0000,LOUISVILLE,KY,Closed,2019/05/01 19:20:16+00
1112,95894,18ABC1154,1000,ABC Case,1625 WATHEN LN,40216-0000,SHIVELY,KY,Closed,2018/07/20 20:06:41+00
1113,95895,18ABC1097,1000,ABC Case, TAYLORSVILLE RD,40220-0000,LOUISVILLE,KY,Closed,2018/05/11 18:52:23+00
1114,95896,18ABC1161,1000,ABC Case, W MAIN ST,40202-0000,LOUISVILLE,KY,Closed,2018/07/26 17:08:22+00
1115,95897,18ABC1223,1000,ABC Case,3415 BRECKENRIDGE LN,40220-0000,LOUISVILLE,KY,Closed,2018/10/29 15:52:16+00
1116,95899,18ABC1213,1000,ABC Case,2633 S 4TH ST,40208-0000,LOUISVILLE,KY,Closed,2018/10/09 15:49:49+00
1117,95900,18ABC1246,1000,ABC Case,4822 POPLAR LEVEL RD,40213-0000,LOUISVILLE,KY,Closed,2018/11/12 21:57:12+00
1118,95901,18ABC1192,1000,ABC Case,4308 FEGENBUSH LN,40228-0000,LOUISVILLE,KY,Closed,2018/09/11 12:37:23+00
1119,95902,18ABC1191,1000,ABC Case,1164 S 3RD ST,40203-0000,LOUISVILLE,KY,Closed,2018/09/08 05:58:02+00
1120,95903,18ABC1262,1000,ABC Case,1904 FRANKFORT AVE,40206-0000,LOUISVILLE,KY,Closed,2018/11/21 22:00:31+00
1121,95904,18ABC1198,1000,ABC Case,808 LYNDON LN,40222-0000,LYNDON,KY,Closed,2018/09/19 17:55:13+00
1122,95905,18ABC1241,1000,ABC Case,1108 LYNDON LN,40222-0000,ST MATTHEWS,KY,Closed,2018/11/09 22:12:05+00
1123,95906,18ABC1253,1000,ABC Case, BARDSTOWN RD,40204-0000,LOUISVILLE,KY,Closed,2018/11/15 17:43:15+00
1124,95907,18ABC1229,1000,ABC Case,7800 3RD STREET RD,40214-0000,LOUISVILLE,KY,Closed,2018/10/30 19:15:05+00
1125,95908,18ABC1230,1000,ABC Case,1047 BARDSTOWN RD,40204-0000,LOUISVILLE,KY,Closed,2018/10/30 19:22:47+00
1126,95909,18ABC1259,1000,ABC Case,4122 PINECROFT DR,40219-0000,LOUISVILLE,KY,Closed,2018/11/16 19:17:46+00
1127,95910,18ABC1187,1000,ABC Case,5014 POPLAR LEVEL RD,40219-0000,LOUISVILLE,KY,Closed,2018/08/30 17:26:48+00
1128,95911,18ABC1183,1000,ABC Case,1279 BARDSTOWN RD,40204-0000,LOUISVILLE,KY,Closed,2018/08/29 14:49:13+00
1129,95912,18ABC1254,1000,ABC Case,4822 POPLAR LEVEL RD,40213-0000,LOUISVILLE,KY,Closed,2018/11/15 17:45:07+00
1130,95913,18ABC1255,1000,ABC Case,1636 W OAK ST,40210-0000,LOUISVILLE,KY,Closed,2018/11/15 17:49:52+00
1131,95914,18ABC1266,1000,ABC Case,2800 TAYLORSVILLE RD,40205-0000,LOUISVILLE,KY,Closed,2018/11/27 20:40:20+00
1132,95916,18ABC1190,1000,ABC Case, RUDY LN,40207-0000, ,KY,Closed,2018/08/31 19:16:18+00
1133,95917,18ABC1226,1000,ABC Case,1133 BARDSTOWN RD,40204-0000,LOUISVILLE,KY,Closed,2018/10/29 17:04:21+00
1134,95918,18ABC1250,1000,ABC Case,1811 W MAIN ST,40203-0000,LOUISVILLE,KY,Closed,2018/11/14 19:53:37+00
1135,95919,18ABC1221,1000,ABC Case,118 S 26TH ST,40212-0000,LOUISVILLE,KY,Closed,2018/10/25 15:44:42+00
1136,95920,18ABC1199,1000,ABC Case, S 9TH ST,40203-0000,LOUISVILLE,KY,Closed,2018/09/20 21:22:08+00
1137,95921,18ABC1185,1000,ABC Case,411 W CHESTNUT ST,40202-0000,LOUISVILLE,KY,Closed,2018/08/30 15:46:05+00
1138,95922,18ABC1204,1000,ABC Case,770 EASTERN PKY,40217-0000,LOUISVILLE,KY,Closed,2018/10/01 16:24:17+00
1139,95923,18ABC1214,1000,ABC Case, TAYLORSVILLE RD,40220-0000,LOUISVILLE,KY,Closed,2018/10/12 17:38:57+00
1140,95986,19ABC1060,1000,ABC Case,1567 S SHELBY ST,40217-0000,LOUISVILLE,KY,Closed,2019/02/25 21:57:11+00
1141,95640,13ABC1041,1000,ABC Case, BARDSTOWN RD,40204-0000,LOUISVILLE,KY,Closed,2013/07/15 16:33:00+00
1142,95987,19ABC1004,1000,ABC Case,901 DENMARK ST,40215-0000,LOUISVILLE,KY,Closed,2019/01/11 18:08:47+00
1143,95989,19ABC1015,1000,ABC Case, PRESTON HWY,40219-0000,LOUISVILLE,KY,Closed,2019/01/18 20:53:04+00
1144,95990,19ABC1052,1000,ABC Case,6752 BARDSTOWN RD,40291-0000,LOUISVILLE,KY,Closed,2019/02/20 20:54:45+00
1145,95991,19ABC1009,1000,ABC Case,1811 W MAIN ST,40203-0000,LOUISVILLE,KY,Closed,2019/01/17 19:57:54+00
1146,95992,19ABC1032,1000,ABC Case,122 W MAIN ST,40202-0000,LOUISVILLE,KY,Closed,2019/01/29 17:48:32+00
1147,95993,19ABC1034,1000,ABC Case,416 W MUHAMMAD ALI BLVD,40202-0000,LOUISVILLE,KY,Closed,2019/01/29 17:56:02+00
1148,95994,19ABC1025,1000,ABC Case,600 N 27TH ST,40212-0000,LOUISVILLE,KY,Closed,2019/01/28 17:25:41+00
1149,95996,19ABC1005,1000,ABC Case,3451 TAYLOR BLVD,40215-0000,LOUISVILLE,KY,Closed,2019/01/11 21:18:45+00
1150,95997,19ABC1010,1000,ABC Case,116 E MAIN ST,40202-0000,LOUISVILLE,KY,Closed,2019/01/17 20:03:34+00
1151,95998,19ABC1024,1000,ABC Case,101 E JEFFERSON ST,40202-0000,LOUISVILLE,KY,Closed,2019/01/28 17:20:32+00
1152,95999,19ABC1033,1000,ABC Case,301 W MARKET ST,40202-0000,LOUISVILLE,KY,Closed,2019/01/29 17:50:15+00
1153,96001,19ABC1007,1000,ABC Case,901 DENMARK ST,40215-0000,LOUISVILLE,KY,Closed,2019/01/11 21:28:31+00
1154,96002,19ABC1019,1000,ABC Case,1029 S 26TH ST,40210-0000,LOUISVILLE,KY,Closed,2019/01/24 16:29:22+00
1155,96003,19ABC1008,1000,ABC Case,5501 VALLEY STATION RD,40272-0000,LOUISVILLE,KY,Closed,2019/01/17 18:09:43+00
1156,96004,19ABC1002,1000,ABC Case,3451 TAYLOR BLVD,40215-0000,LOUISVILLE,KY,Closed,2019/01/11 18:05:42+00
1157,96005,19ABC1003,1000,ABC Case,3449 TAYLOR BLVD,40215-0000,LOUISVILLE,KY,Closed,2019/01/11 18:06:36+00
1158,96006,19ABC1012,1000,ABC Case,829 S 28TH ST,40211-0000,LOUISVILLE,KY,Closed,2019/01/17 21:05:50+00
1159,96007,19ABC1013,1000,ABC Case,3044 WILSON AVE,40211-0000,LOUISVILLE,KY,Closed,2019/01/17 21:06:54+00
1160,96008,19ABC1023,1000,ABC Case,1100 ALGONQUIN PKY,40208-0000,LOUISVILLE,KY,Closed,2019/01/28 17:17:48+00
1161,96009,19ABC1001,1000,ABC Case,1025 W BROADWAY ,40203-0000,LOUISVILLE,KY,Closed,2019/01/09 21:23:59+00
1162,96010,19ABC1014,1000,ABC Case,2728 W MARKET ST,40212-0000,LOUISVILLE,KY,Closed,2019/01/17 21:11:20+00
1163,96013,19ABC1030,1000,ABC Case,5000 BARDSTOWN RD,40291-0000,LOUISVILLE,KY,Closed,2019/01/29 17:46:23+00
1164,96014,19ABC1036,1000,ABC Case,845 S 9TH ST,40203-0000,LOUISVILLE,KY,Closed,2019/01/30 21:26:14+00
1165,96015,19ABC1011,1000,ABC Case,2631 W BROADWAY ,40211-0000,LOUISVILLE,KY,Closed,2019/01/17 21:03:44+00
1166,96017,19ABC1022,1000,ABC Case,1481 S 7TH ST,40208-0000,LOUISVILLE,KY,Closed,2019/01/24 22:16:34+00
1167,96018,19ABC1040,1000,ABC Case,1075 BARDSTOWN RD,40204-0000,LOUISVILLE,KY,Closed,2019/02/01 19:18:03+00
1168,96019,19ABC1020,1000,ABC Case,600 N 27TH ST,40212-0000,LOUISVILLE,KY,Closed,2019/01/24 21:19:17+00
1169,96020,19ABC1039,1000,ABC Case,4105 W MARKET ST,40212-0000,LOUISVILLE,KY,Closed,2019/02/01 19:06:52+00
1170,96021,19ABC1026,1000,ABC Case,1004 E OAK ST,40204-0000,LOUISVILLE,KY,Closed,2019/01/28 17:35:13+00
1171,96022,19ABC1029,1000,ABC Case,700 W OAK ST,40203-0000,LOUISVILLE,KY,Closed,2019/01/29 17:45:13+00
1172,96023,19ABC1031,1000,ABC Case,626 W MAIN ST,40202-0000,LOUISVILLE,KY,Closed,2019/01/29 17:47:27+00
1173,96024,19ABC1017,1000,ABC Case,101 E JEFFERSON ST,40202-0000,LOUISVILLE,KY,Closed,2019/01/23 16:55:52+00
1174,96025,19ABC1028,1000,ABC Case, N HURSTBOURNE PKY,40222-0000,LOUISVILLE,KY,Closed,2019/01/29 17:34:01+00
1175,96026,19ABC1044,1000,ABC Case,2232 BARDSTOWN RD,40205-0000,LOUISVILLE,KY,Closed,2019/02/11 18:46:13+00
1176,96027,19ABC1045,1000,ABC Case,3300 CLARINET DR,40216-0000,LOUISVILLE,KY,Closed,2019/02/11 18:57:34+00
1177,96028,19ABC1047,1000,ABC Case,2235 S PRESTON ST,40217-0000,LOUISVILLE,KY,Closed,2019/02/11 19:29:55+00
1178,96029,19ABC1042,1000,ABC Case,5901 NEW CUT RD,40214-0000,LOUISVILLE,KY,Closed,2019/02/07 23:20:34+00
1179,96030,19ABC1049,1000,ABC Case,4901 OUTER LOOP,40219-0000,LOUISVILLE,KY,Closed,2019/02/13 16:41:15+00
1180,96031,19ABC1043,1000,ABC Case, N HURSTBOURNE PKY,40222-0000,LOUISVILLE,KY,Closed,2019/02/08 18:15:58+00
1181,96032,19ABC1048,1000,ABC Case,11710 DIXIE HWY,40272-0000,LOUISVILLE,KY,Closed,2019/02/12 19:03:23+00
1182,96033,19ABC1051,1000,ABC Case,908 S 32ND ST,40211-0000,LOUISVILLE,KY,Closed,2019/02/18 21:26:06+00
1183,96037,19ABC1108,1000,ABC Case,7807 ST ANDREWS CHURCH RD,40214-0000,LOUISVILLE,KY,Closed,2019/04/19 14:36:50+00
1184,96038,19ABC1070,1000,ABC Case,1320 DIXIE HWY,40210-0000,LOUISVILLE,KY,Closed,2019/03/08 18:02:56+00
1185,96039,19ABC1072,1000,ABC Case,2728 W MARKET ST,40212-0000,LOUISVILLE,KY,Closed,2019/03/08 18:28:38+00
1186,96040,19ABC1071,1000,ABC Case,118 S 26TH ST,40212-0000,LOUISVILLE,KY,Closed,2019/03/08 18:09:11+00
1187,95641,13ABC1040,1000,ABC Case,320 W JEFFERSON ST,40202-0000,LOUISVILLE,KY,Closed,2013/07/12 14:36:18+00
1188,95642,13ABC1048,1000,ABC Case,720 W MUHAMMAD ALI BLVD,40203-0000,LOUISVILLE,KY,Closed,2013/07/21 19:32:23+00
1189,95643,13ABC1064,1000,ABC Case,401 S 2ND ST,40202-0000,LOUISVILLE,KY,Closed,2013/07/28 03:28:55+00
1190,95644,13ABC1044,1000,ABC Case,2420 S 4TH ST,40208-0000,LOUISVILLE,KY,Closed,2013/07/18 12:56:00+00
1191,95645,13ABC1058,1000,ABC Case,4102 MURPHY LN,40241-0000,LOUISVILLE,KY,Closed,2013/07/24 22:48:15+00
1192,95646,14ABC1050,1000,ABC Case,5000 SHELBYVILLE RD,40207-0000,ST MATTHEWS,KY,Closed,2014/02/26 19:28:42+00
1193,95647,ABC825441,1000,ABC Case,1767 BARDSTOWN RD,40205-0000,LOUISVILLE,KY,Closed,2013/09/10 19:37:38+00
1194,95648,13ABC1063,1000,ABC Case,444 S 5TH ST,40202-0000,LOUISVILLE,KY,Closed,2013/07/26 16:43:59+00
1195,95649,ABC825284,1000,ABC Case,4112 CANE RUN RD,40216-0000,LOUISVILLE,KY,Closed,2013/09/10 12:30:16+00
1196,95650,13ABC1042,1000,ABC Case,120 N 39TH ST,40212-0000,LOUISVILLE,KY,Closed,2013/07/16 18:16:30+00
1197,95651,13ABC1038,1000,ABC Case,1133 BARDSTOWN RD,40204-0000,LOUISVILLE,KY,Closed,2013/07/10 15:04:00+00
1198,95652,ABC826998,1000,ABC Case,  , , , ,Closed,2013/09/23 16:03:22+00
1199,95653,13ABC1068,1000,ABC Case,7844 DIXIE HWY,40258-0000,LOUISVILLE,KY,Closed,2013/07/29 19:25:31+00
1200,95654,13ABC1054,1000,ABC Case,444 S 5TH ST,40202-0000,LOUISVILLE,KY,Closed,2013/07/23 11:36:53+00
1201,96177,18ABC1102,1000,ABC Case,1811 W MAIN ST,40203-0000,LOUISVILLE,KY,Closed,2018/05/17 22:49:01+00
1202,96178,18ABC1088,1000,ABC Case,1900 BLUEGRASS AVE,40215-0000,LOUISVILLE,KY,Closed,2018/04/26 21:42:17+00
1203,96179,18ABC1151,1000,ABC Case,406 REG SMITH CIR,40208-0000,LOUISVILLE,KY,Closed,2018/07/16 17:20:53+00
1204,96180,18ABC1197,1000,ABC Case,600 TERMINAL DR,40209-0000,LOUISVILLE,KY,Closed,2018/09/17 22:58:50+00
1205,96181,18ABC1112,1000,ABC Case, BRECKENRIDGE LN,40207-0000, ,KY,Closed,2018/05/30 22:41:56+00
1206,96182,18ABC1075,1000,ABC Case,8423 ELSIE CT,40228-0000,LOUISVILLE,KY,Closed,2018/04/11 17:48:35+00
1207,96183,18ABC1132,1000,ABC Case,841 S 6TH ST,40203-0000,LOUISVILLE,KY,Closed,2018/06/28 14:07:21+00
1208,96184,18ABC1100,1000,ABC Case,3451 TAYLOR BLVD,40215-0000,LOUISVILLE,KY,Closed,2018/05/17 15:48:12+00
1209,96185,18ABC1126,1000,ABC Case,4111 MURPHY LN,40241-0000,LOUISVILLE,KY,Closed,2018/06/19 20:11:31+00
1210,96186,18ABC1081,1000,ABC Case,1398 S 2ND ST,40208-0000,LOUISVILLE,KY,Closed,2018/04/17 19:51:59+00
1211,96187,18ABC1125,1000,ABC Case,6908 SOUTHSIDE DR,40214-0000,LOUISVILLE,KY,Closed,2018/06/19 19:45:35+00
1212,96188,18ABC1095,1000,ABC Case,1047 BARDSTOWN RD,40204-0000,LOUISVILLE,KY,Closed,2018/05/07 16:56:36+00
1213,96189,18ABC1093,1000,ABC Case,8209 PRESTON HWY,40219-0000,LOUISVILLE,KY,Closed,2018/05/02 18:36:50+00
1214,96190,18ABC1099,1000,ABC Case,1164 S 3RD ST,40203-0000,LOUISVILLE,KY,Closed,2018/05/14 15:45:36+00
1215,96191,18ABC1167,1000,ABC Case,4105 TAYLOR BLVD,40215-0000,LOUISVILLE,KY,Closed,2018/08/04 04:58:39+00
1216,96192,18ABC1137,1000,ABC Case,1809 W JEFFERSON ST,40203-0000,LOUISVILLE,KY,Closed,2018/07/02 18:36:26+00
1217,96193,18ABC1103,1000,ABC Case,1600 ARCADE AVE,40215-0000,LOUISVILLE,KY,Closed,2018/05/18 15:55:27+00
1218,96194,18ABC1162,1000,ABC Case,1532 S 4TH ST,40208-0000,LOUISVILLE,KY,Closed,2018/07/27 14:44:48+00
1219,96195,18ABC1164,1000,ABC Case, I 65 RAMP ,40203-0000,LOUISVILLE,KY,Closed,2018/07/27 20:34:47+00
1220,96196,18ABC1163,1000,ABC Case, BAXTER AVE,40204-0000,LOUISVILLE,KY,Closed,2018/07/27 16:05:07+00
1221,96197,18ABC1115,1000,ABC Case,1809 W JEFFERSON ST,40203-0000,LOUISVILLE,KY,Closed,2018/06/01 17:28:03+00
1222,96198,18ABC1172,1000,ABC Case,631 N 25TH ST,40212-0000,LOUISVILLE,KY,Closed,2018/08/14 15:20:37+00
1223,96199,18ABC1139,1000,ABC Case,2912 BROWNSBORO RD,40206-0000,LOUISVILLE,KY,Closed,2018/07/06 15:02:36+00
1224,96200,18ABC1119,1000,ABC Case,12415 TAYLORSVILLE RD,40299-0000,LOUISVILLE,KY,Closed,2018/06/12 14:14:21+00
1225,96201,18ABC1087,1000,ABC Case,1506 BERRY BLVD,40215-0000,LOUISVILLE,KY,Closed,2018/04/24 14:41:54+00
1226,96202,18ABC1104,1000,ABC Case,2232 BARDSTOWN RD,40205-0000,LOUISVILLE,KY,Closed,2018/05/21 19:30:22+00
1227,96203,18ABC1136,1000,ABC Case,528 E LIBERTY ST,40202-0000,LOUISVILLE,KY,Closed,2018/06/29 20:05:31+00
1228,96204,18ABC1094,1000,ABC Case,1047 BARDSTOWN RD,40204-0000,LOUISVILLE,KY,Closed,2018/05/07 13:57:15+00
1229,96205,18ABC1127,1000,ABC Case,9302 BLUE LICK RD,40229-0000,LOUISVILLE,KY,Closed,2018/06/22 19:41:51+00
1230,96206,17ABC1188,1000,ABC Case,1101 E WASHINGTON ST,40206-0000,LOUISVILLE,KY,Closed,2017/09/14 17:54:29+00
1231,96207,17ABC1190,1000,ABC Case,9220 BLUE LICK RD,40229-0000,LOUISVILLE,KY,Closed,2017/09/14 18:15:47+00
1232,96208,17ABC1162,1000,ABC Case, DUTCHMANS LN,40207-0000, ,KY,Closed,2017/08/09 15:31:28+00
1233,96209,17ABC1144,1000,ABC Case,1369 S 20TH ST,40210-0000,LOUISVILLE,KY,Closed,2017/07/18 19:12:42+00
1234,96210,18ABC1071,1000,ABC Case,1638 MELLWOOD AVE,40206-0000,LOUISVILLE,KY,Closed,2018/04/03 16:09:08+00
1235,96211,17ABC1138,1000,ABC Case,14000 TAYLORSVILLE RD,40299-0000,LOUISVILLE,KY,Closed,2017/07/12 20:22:05+00
1236,96212,17ABC1146,1000,ABC Case,3401 CANE RUN RD,40210-0000,LOUISVILLE,KY,Closed,2017/07/20 14:52:59+00
1237,96213,17ABC1151,1000,ABC Case,3425 TAYLOR BLVD,40215-0000,LOUISVILLE,KY,Closed,2017/07/27 15:52:08+00
1238,96214,18ABC1118,1000,ABC Case,5503 LAZY ACRES CT,40258-0000,LOUISVILLE,KY,Closed,2018/06/12 14:04:09+00
1239,96215,17ABC1264,1000,ABC Case,1715 BERRY BLVD,40215-0000,LOUISVILLE,KY,Closed,2017/12/10 05:37:41+00
1240,96216,17ABC1159,1000,ABC Case, SHELBYVILLE RD,40207-0000,LOUISVILLE,KY,Closed,2017/08/04 19:45:55+00
1241,96217,17ABC1086,1000,ABC Case,1904 FRANKFORT AVE,40206-0000,LOUISVILLE,KY,Closed,2017/05/04 13:59:08+00
1242,96218,17ABC1178,1000,ABC Case,9411 NORTON COMMONS BLVD,40059-0000,LOUISVILLE,KY,Closed,2017/08/28 15:08:08+00
1243,96219,17ABC1076,1000,ABC Case,2631 W BROADWAY ,40211-0000,LOUISVILLE,KY,Closed,2017/04/26 15:04:41+00
1244,96220,17ABC1136,1000,ABC Case,12801 DIXIE HWY,40272-0000,LOUISVILLE,KY,Closed,2017/07/11 16:44:17+00
1245,96221,17ABC1081,1000,ABC Case,438 W MARKET ST,40202-0000,LOUISVILLE,KY,Closed,2017/05/02 15:01:18+00
1246,96222,17ABC1155,1000,ABC Case, S 4TH ST,40202-0000,LOUISVILLE,KY,Closed,2017/08/02 21:37:07+00
1247,96223,17ABC1147,1000,ABC Case,3401 CANE RUN RD,40210-0000,LOUISVILLE,KY,Closed,2017/07/21 16:06:51+00
1248,96224,17ABC1126,1000,ABC Case,1481 S 7TH ST,40208-0000,LOUISVILLE,KY,Closed,2017/06/26 15:27:39+00
1249,96225,17ABC1127,1000,ABC Case,4308 FEGENBUSH LN,40228-0000,LOUISVILLE,KY,Closed,2017/06/26 15:51:54+00
1250,96226,17ABC1082,1000,ABC Case,4621 W MARKET ST,40212-0000,LOUISVILLE,KY,Closed,2017/05/02 19:29:07+00
1251,96227,17ABC1121,1000,ABC Case,2235 FRANKFORT AVE,40206-0000,LOUISVILLE,KY,Closed,2017/06/20 19:54:47+00
1252,96228,17ABC1089,1000,ABC Case,3119 DIXIE HWY,40216-0000,SHIVELY,KY,Closed,2017/05/08 20:43:15+00
1253,96229,17ABC1177,1000,ABC Case,7800 3RD STREET RD,40214-0000,LOUISVILLE,KY,Closed,2017/08/28 13:38:18+00
1254,96230,18ABC1111,1000,ABC Case,3900 SHELBYVILLE RD,40207-0000,LOUISVILLE,KY,Closed,2018/05/30 18:32:31+00
1255,96231,17ABC1173,1000,ABC Case,3204 FRANKFORT AVE,40206-0000,LOUISVILLE,KY,Closed,2017/08/23 15:35:22+00
1256,96232,17ABC1091,1000,ABC Case,721 GAGEL AVE,40216-0000,LOUISVILLE,KY,Closed,2017/05/10 20:17:15+00
1257,96233,18ABC1110,1000,ABC Case,5415 INDIAN OAKS CIR,40213-0000,LOUISVILLE,KY,Closed,2018/05/29 19:22:58+00
1258,96234,17ABC1197,1000,ABC Case,3700 FALCON CREST DR,40219-0000,LOUISVILLE,KY,Closed,2017/09/21 12:28:10+00
1259,96235,17ABC1181,1000,ABC Case,2523 W BROADWAY ,40211-0000,LOUISVILLE,KY,Closed,2017/08/28 19:53:46+00
1260,96295,17ABC1259,1000,ABC Case,4700 BARDSTOWN RD,40218-0000,LOUISVILLE,KY,Closed,2017/12/02 06:10:03+00
1261,96041,19ABC1082,1000,ABC Case,1047 BARDSTOWN RD,40204-0000,LOUISVILLE,KY,Closed,2019/03/20 17:46:20+00
1262,96236,18ABC1225,1000,ABC Case,1047 BARDSTOWN RD,40204-0000,LOUISVILLE,KY,Closed,2018/10/29 17:03:02+00
1263,96237,17ABC1120,1000,ABC Case, W MUHAMMAD ALI BLVD,40202-0000,LOUISVILLE,KY,Closed,2017/06/16 21:37:14+00
1264,96238,18ABC1026,1000,ABC Case,1904 FRANKFORT AVE,40206-0000,LOUISVILLE,KY,Closed,2018/01/23 03:27:07+00
1265,96239,17ABC1154,1000,ABC Case,3265 ROBIN RD,40213-0000,LOUISVILLE,KY,Closed,2017/07/28 15:31:33+00
1266,96240,17ABC1186,1000,ABC Case,3521 HALE AVE,40211-0000,LOUISVILLE,KY,Closed,2017/09/08 17:59:11+00
1267,96241,17ABC1270,1000,ABC Case,349 W KENWOOD WAY,40214-0000,LOUISVILLE,KY,Closed,2017/12/19 22:36:39+00
1268,96242,17ABC1108,1000,ABC Case,5015 POPLAR LEVEL RD,40219-0000,LOUISVILLE,KY,Closed,2017/06/04 06:45:36+00
1269,96243,17ABC1158,1000,ABC Case,3425 TAYLOR BLVD,40215-0000,LOUISVILLE,KY,Closed,2017/08/02 23:10:27+00
1270,96244,17ABC1170,1000,ABC Case, TAYLORSVILLE RD,40220-0000,LOUISVILLE,KY,Closed,2017/08/18 16:27:02+00
1271,96245,17ABC1137,1000,ABC Case,8505 SHIRLEY LN,40258-0000,LOUISVILLE,KY,Closed,2017/07/11 16:51:58+00
1272,96246,17ABC1077,1000,ABC Case,3410 W BROADWAY ,40211-0000,LOUISVILLE,KY,Closed,2017/04/26 16:27:09+00
1273,96247,18ABC1147,1000,ABC Case,5812 PRESTON HWY,40219-0000,LOUISVILLE,KY,Closed,2018/07/16 14:33:22+00
1274,96248,17ABC1140,1000,ABC Case,1279 BARDSTOWN RD,40204-0000,LOUISVILLE,KY,Closed,2017/07/13 20:02:00+00
1275,96249,17ABC1182,1000,ABC Case, BARDSTOWN RD,40204-0000,LOUISVILLE,KY,Closed,2017/08/28 21:56:24+00
1276,96250,18ABC1039,1000,ABC Case,1307 CLARA AVE,40215-0000,LOUISVILLE,KY,Closed,2018/02/15 20:31:06+00
1277,96251,17ABC1129,1000,ABC Case,600 TERMINAL DR,40209-0000,LOUISVILLE,KY,Closed,2017/06/30 12:49:21+00
1278,96252,17ABC1083,1000,ABC Case,3004 S 4TH ST,40208-0000,LOUISVILLE,KY,Closed,2017/05/02 20:13:50+00
1279,96253,17ABC1153,1000,ABC Case,410 S 5TH ST,40202-0000,LOUISVILLE,KY,Closed,2017/07/28 14:03:59+00
1280,96254,17ABC1090,1000,ABC Case,3119 DIXIE HWY,40216-0000,SHIVELY,KY,Closed,2017/05/08 20:44:12+00
1281,96255,17ABC1097,1000,ABC Case,1080 AMPHITHEATER RD,40214-0000,LOUISVILLE,KY,Closed,2017/05/18 21:17:35+00
1282,96256,17ABC1164,1000,ABC Case,3331 RED ROOF INN PL,40218-0000,WATTERSON PARK,KY,Closed,2017/08/14 16:16:48+00
1283,96257,17ABC1183,1000,ABC Case,1332 S 4TH ST,40208-0000,LOUISVILLE,KY,Closed,2017/08/31 17:51:41+00
1284,96258,17ABC1103,1000,ABC Case,2633 S 4TH ST,40208-0000,LOUISVILLE,KY,Closed,2017/05/25 17:07:17+00
1285,96259,17ABC1141,1000,ABC Case,10231 BLUE LICK RD,40229-0000,LOUISVILLE,KY,Closed,2017/07/13 23:45:37+00
1286,96260,17ABC1111,1000,ABC Case, S HURSTBOURNE PKY,40222-0000,LOUISVILLE,KY,Closed,2017/06/09 15:36:19+00
1287,96261,17ABC1102,1000,ABC Case,120 W BROADWAY ,40202-0000,LOUISVILLE,KY,Closed,2017/05/22 21:17:45+00
1288,96262,18ABC1202,1000,ABC Case,1504 BERRY BLVD,40215-0000,LOUISVILLE,KY,Closed,2018/09/26 15:46:08+00
1289,96263,18ABC1020,1000,ABC Case,2100 W MUHAMMAD ALI BLVD,40212-0000,LOUISVILLE,KY,Closed,2018/01/18 16:51:04+00
1290,96264,18ABC1105,1000,ABC Case,1164 S 3RD ST,40203-0000,LOUISVILLE,KY,Closed,2018/05/23 12:30:08+00
1291,96265,17ABC1163,1000,ABC Case,9525 TAYLORSVILLE RD,40299-0000,JEFFERSONTOWN,KY,Closed,2017/08/09 20:56:33+00
1292,96266,17ABC1075,1000,ABC Case,2728 W MARKET ST,40212-0000,LOUISVILLE,KY,Closed,2017/04/22 18:09:52+00
1293,96267,17ABC1161,1000,ABC Case,105 W KENTUCKY ST,40203-0000,LOUISVILLE,KY,Closed,2017/08/06 14:32:32+00
1294,96268,17ABC1244,1000,ABC Case,3702 FALCON CREST DR,40219-0000,LOUISVILLE,KY,Closed,2017/11/13 15:40:08+00
1295,96269,17ABC1176,1000,ABC Case,3320 FRANKFORT AVE,40206-0000,LOUISVILLE,KY,Closed,2017/08/25 23:44:33+00
1296,96270,17ABC1167,1000,ABC Case,2622 S 4TH ST,40208-0000,LOUISVILLE,KY,Closed,2017/08/16 19:04:32+00
1297,96271,17ABC1128,1000,ABC Case,618 BAXTER AVE,40204-0000,LOUISVILLE,KY,Closed,2017/06/29 21:10:00+00
1298,96272,17ABC1107,1000,ABC Case,5404 BARDSTOWN RD,40291-0000,LOUISVILLE,KY,Closed,2017/06/04 04:14:24+00
1299,96273,17ABC1268,1000,ABC Case, HIKES LN,40218-0000,LOUISVILLE,KY,Closed,2017/12/14 21:26:02+00
1300,96274,17ABC1094,1000,ABC Case,933 BAXTER AVE,40204-0000,LOUISVILLE,KY,Closed,2017/05/15 21:58:14+00
1301,96275,17ABC1165,1000,ABC Case,4102 MURPHY LN,40241-0000,LOUISVILLE,KY,Closed,2017/08/15 14:24:42+00
1302,96276,17ABC1152,1000,ABC Case,2701 BARDSTOWN RD,40205-0000,LOUISVILLE,KY,Closed,2017/07/27 18:43:34+00
1303,96277,17ABC1130,1000,ABC Case,1601 S PRESTON ST,40217-0000,LOUISVILLE,KY,Closed,2017/06/30 21:25:06+00
1304,96278,17ABC1168,1000,ABC Case,7502 PRESTON HWY,40219-0000,LOUISVILLE,KY,Closed,2017/08/17 14:20:02+00
1305,96279,18ABC1067,1000,ABC Case,5603 GREENWOOD RD,40258-0000,LOUISVILLE,KY,Closed,2018/03/28 18:04:54+00
1306,96280,17ABC1166,1000,ABC Case,4122 PINECROFT DR,40219-0000,LOUISVILLE,KY,Closed,2017/08/15 20:22:49+00
1307,96281,18ABC1021,1000,ABC Case,3817 E INDIAN TRL,40213-0000,LOUISVILLE,KY,Closed,2018/01/18 16:56:46+00
1308,96282,17ABC1180,1000,ABC Case,3701 HOPEWELL RD,40299-0000,LOUISVILLE,KY,Closed,2017/08/28 17:14:28+00
1309,96283,17ABC1187,1000,ABC Case,332 W BROADWAY ,40202-0000,LOUISVILLE,KY,Closed,2017/09/08 19:36:23+00
1310,96284,17ABC1148,1000,ABC Case,411 IOWA AVE,40208-0000,LOUISVILLE,KY,Closed,2017/07/21 17:38:40+00
1311,96285,18ABC1059,1000,ABC Case,2928 W KENTUCKY ST,40211-0000,LOUISVILLE,KY,Closed,2018/03/19 16:29:58+00
1312,96286,17ABC1085,1000,ABC Case,5909 TERRY RD,40216-0000,LOUISVILLE,KY,Closed,2017/05/03 20:09:38+00
1313,96287,17ABC1088,1000,ABC Case,700 CENTRAL AVE,40208-0000,LOUISVILLE,KY,Closed,2017/05/08 14:55:55+00
1314,96288,17ABC1096,1000,ABC Case,5404 BARDSTOWN RD,40291-0000,LOUISVILLE,KY,Closed,2017/05/18 20:55:10+00
1315,96289,17ABC1229,1000,ABC Case,2622 S 4TH ST,40208-0000,LOUISVILLE,KY,Closed,2017/11/05 03:33:34+00
1316,96290,17ABC1104,1000,ABC Case,6112 PRESTON HWY,40219-0000,LOUISVILLE,KY,Closed,2017/05/25 19:14:33+00
1317,96291,18ABC1018,1000,ABC Case,400 E OAK ST,40203-0000,LOUISVILLE,KY,Closed,2018/01/12 18:21:14+00
1318,96292,18ABC1089,1000,ABC Case,1398 S 2ND ST,40208-0000,LOUISVILLE,KY,Closed,2018/04/30 16:07:31+00
1319,96293,18ABC1000,1000,ABC Case,3912 BARDSTOWN RD,40218-0000,LOUISVILLE,KY,Closed,2018/01/02 23:04:10+00
1320,96294,17ABC1217,1000,ABC Case,2011 FRANKFORT AVE,40206-0000,LOUISVILLE,KY,Closed,2017/10/18 22:31:22+00
1321,96042,19ABC1076,1000,ABC Case,2532 W BROADWAY ,40211-0000,LOUISVILLE,KY,Closed,2019/03/14 16:15:32+00
1322,96296,18ABC1006,1000,ABC Case,3940 BARDSTOWN RD,40218-0000,LOUISVILLE,KY,Closed,2018/01/03 22:39:08+00
1323,96297,18ABC1007,1000,ABC Case,3503 7TH STREET RD,40216-0000,LOUISVILLE,KY,Closed,2018/01/03 22:42:07+00
1324,96298,18ABC1008,1000,ABC Case,1535 BAXTER AVE,40205-0000,LOUISVILLE,KY,Closed,2018/01/03 23:18:43+00
1325,96299,18ABC1009,1000,ABC Case,1535 BAXTER AVE,40205-0000,LOUISVILLE,KY,Closed,2018/01/03 23:23:26+00
1326,96300,17ABC1269,1000,ABC Case,13600 KINROSS BLVD,40272-0000,LOUISVILLE,KY,Closed,2017/12/19 16:14:01+00
1327,96301,17ABC1194,1000,ABC Case,4105 TAYLOR BLVD,40215-0000,LOUISVILLE,KY,Closed,2017/09/18 19:07:08+00
1328,96302,17ABC1200,1000,ABC Case,3814 FRANKFORT AVE,40207-0000,LOUISVILLE,KY,Closed,2017/09/25 15:37:07+00
1329,96303,17ABC1212,1000,ABC Case,5414 VALLEY STATION RD,40272-0000,LOUISVILLE,KY,Closed,2017/10/04 22:41:21+00
1330,96304,18ABC1024,1000,ABC Case,2728 LINDSAY AVE,40206-0000,LOUISVILLE,KY,Closed,2018/01/18 23:00:05+00
1331,96305,18ABC1150,1000,ABC Case,2501 S 4TH ST,40208-0000,LOUISVILLE,KY,Closed,2018/07/16 17:12:19+00
1332,96306,17ABC1232,1000,ABC Case,2126 S PRESTON ST,40217-0000,LOUISVILLE,KY,Closed,2017/11/06 22:45:14+00
1333,96307,17ABC1258,1000,ABC Case,3940 BARDSTOWN RD,40218-0000,LOUISVILLE,KY,Closed,2017/11/30 16:10:43+00
1334,96308,18ABC1025,1000,ABC Case,9702 WESTPORT RD,40241-0000,LOUISVILLE,KY,Closed,2018/01/19 20:30:42+00
1335,96309,17ABC1214,1000,ABC Case,4116 GREENWOOD AVE,40211-0000,LOUISVILLE,KY,Closed,2017/10/05 22:13:04+00
1336,96310,18ABC1004,1000,ABC Case,5603 GREENWOOD RD,40258-0000,LOUISVILLE,KY,Closed,2018/01/03 22:26:18+00
1337,96311,17ABC1202,1000,ABC Case,934 BAXTER AVE,40204-0000,LOUISVILLE,KY,Closed,2017/09/25 18:53:58+00
1338,96312,17ABC1207,1000,ABC Case,3707 FALCON CREST DR,40219-0000,LOUISVILLE,KY,Closed,2017/09/27 20:12:49+00
1339,96313,17ABC1241,1000,ABC Case,6112 PRESTON HWY,40219-0000,LOUISVILLE,KY,Closed,2017/11/12 22:23:32+00
1340,96314,17ABC1220,1000,ABC Case,1135 S 32ND ST,40211-0000,LOUISVILLE,KY,Closed,2017/10/24 13:35:29+00
1341,96315,17ABC1199,1000,ABC Case,2927 7TH STREET RD,40216-0000,LOUISVILLE,KY,Closed,2017/09/22 19:49:28+00
1342,96316,18ABC1005,1000,ABC Case,6019 PRESTON HWY,40219-0000,LOUISVILLE,KY,Closed,2018/01/03 22:29:26+00
1343,96317,18ABC1128,1000,ABC Case,7208 WHIPPLE RD,40272-0000,LOUISVILLE,KY,Closed,2018/06/26 14:28:14+00
1344,96318,18ABC1010,1000,ABC Case,3814 FRANKFORT AVE,40207-0000,LOUISVILLE,KY,Closed,2018/01/04 20:24:47+00
1345,96319,18ABC1159,1000,ABC Case,414 W OAK ST,40203-0000,LOUISVILLE,KY,Closed,2018/07/23 15:18:02+00
1346,96320,18ABC1036,1000,ABC Case,2219 HOLIDAY MANOR CTR,40222-0000,NORTHFIELD,KY,Closed,2018/02/08 20:54:25+00
1347,96321,17ABC1242,1000,ABC Case,4108 PRESTON HWY,40213-0000,LOUISVILLE,KY,Closed,2017/11/12 23:02:14+00
1348,96322,18ABC1022,1000,ABC Case,2410 ST XAVIER ST,40212-0000,LOUISVILLE,KY,Closed,2018/01/18 17:32:59+00
1349,96323,18ABC1035,1000,ABC Case,1307 CLARA AVE,40215-0000,LOUISVILLE,KY,Closed,2018/02/06 15:19:04+00
1350,96324,18ABC1017,1000,ABC Case,416 S 26TH ST,40212-0000,LOUISVILLE,KY,Closed,2018/01/12 12:59:05+00
1351,96325,18ABC1261,1000,ABC Case,1608 BARDSTOWN RD,40205-0000,LOUISVILLE,KY,Closed,2018/11/20 19:24:54+00
1352,96326,18ABC1030,1000,ABC Case,1506 BERRY BLVD,40215-0000,LOUISVILLE,KY,Closed,2018/01/31 15:06:47+00
1353,96327,18ABC1033,1000,ABC Case,444 S 5TH ST,40202-0000,LOUISVILLE,KY,Closed,2018/02/02 20:13:34+00
1354,96328,18ABC1032,1000,ABC Case,8103 PRESTON HWY,40219-0000,LOUISVILLE,KY,Closed,2018/01/31 19:05:54+00
1355,96329,17ABC1223,1000,ABC Case,3814 FRANKFORT AVE,40207-0000,LOUISVILLE,KY,Closed,2017/10/27 04:45:58+00
1356,96330,18ABC1052,1000,ABC Case,1901 W MAIN ST,40203-0000,LOUISVILLE,KY,Closed,2018/03/09 16:41:02+00
1357,96331,18ABC1055,1000,ABC Case,9302 BLUE LICK RD,40229-0000,LOUISVILLE,KY,Closed,2018/03/09 18:48:38+00
1358,96332,17ABC1204,1000,ABC Case,444 S 5TH ST,40202-0000,LOUISVILLE,KY,Closed,2017/09/26 20:55:21+00
1359,96333,17ABC1219,1000,ABC Case,3814 FRANKFORT AVE,40207-0000,LOUISVILLE,KY,Closed,2017/10/20 20:03:03+00
1360,96334,18ABC1016,1000,ABC Case,1030 GOSS AVE,40217-0000,LOUISVILLE,KY,Closed,2018/01/11 20:17:52+00
1361,96335,18ABC1038,1000,ABC Case,2902 7TH STREET RD,40216-0000,SHIVELY,KY,Closed,2018/02/14 22:24:49+00
1362,96336,17ABC1221,1000,ABC Case,4122 PINECROFT DR,40219-0000,LOUISVILLE,KY,Closed,2017/10/24 14:19:51+00
1363,96337,18ABC1124,1000,ABC Case,3503 7TH STREET RD,40216-0000,LOUISVILLE,KY,Closed,2018/06/19 19:41:45+00
1364,96338,17ABC1239,1000,ABC Case,1904 FRANKFORT AVE,40206-0000,LOUISVILLE,KY,Closed,2017/11/10 19:49:57+00
1365,96339,17ABC1191,1000,ABC Case,3800 FALCON CREST DR,40219-0000,LOUISVILLE,KY,Closed,2017/09/15 17:35:30+00
1366,96340,18ABC1028,1000,ABC Case,2601 W BROADWAY ,40211-0000,LOUISVILLE,KY,Closed,2018/01/24 21:29:06+00
1367,96341,17ABC1196,1000,ABC Case,1004 BARDSTOWN RD,40204-0000,LOUISVILLE,KY,Closed,2017/09/20 18:02:34+00
1368,96342,17ABC1189,1000,ABC Case,1715 BERRY BLVD,40215-0000,LOUISVILLE,KY,Closed,2017/09/14 17:56:35+00
1369,96343,18ABC1267,1000,ABC Case,344 E LEE ST,40208-0000,LOUISVILLE,KY,Closed,2018/11/29 16:53:16+00
1370,96345,18ABC1049,1000,ABC Case, SPRINGHURST BLVD,40241-0000,LOUISVILLE,KY,Closed,2018/03/05 17:39:21+00
1371,96346,18ABC1053,1000,ABC Case,1320 DIXIE HWY,40210-0000,LOUISVILLE,KY,Closed,2018/03/09 18:43:24+00
1372,96347,17ABC1231,1000,ABC Case,3018 RODMAN ST,40208-0000,LOUISVILLE,KY,Closed,2017/11/06 20:53:22+00
1373,96348,18ABC1066,1000,ABC Case, BRECKENRIDGE LN,40220-0000,LOUISVILLE,KY,Closed,2018/03/27 19:17:52+00
1374,96349,18ABC1023,1000,ABC Case,3801 W MARKET ST,40212-0000,LOUISVILLE,KY,Closed,2018/01/18 22:50:22+00
1375,96350,17ABC1266,1000,ABC Case,5011 POPLAR LEVEL RD,40219-0000,LOUISVILLE,KY,Closed,2017/12/11 16:56:11+00
1376,96351,18ABC1015,1000,ABC Case,4836 SOUTHSIDE DR,40214-0000,LOUISVILLE,KY,Closed,2018/01/09 20:23:18+00
1377,96352,18ABC1042,1000,ABC Case,6112 PRESTON HWY,40219-0000,LOUISVILLE,KY,Closed,2018/02/19 16:37:43+00
1378,96353,18ABC1041,1000,ABC Case,2523 W BROADWAY ,40211-0000,LOUISVILLE,KY,Closed,2018/02/16 21:01:48+00
1379,96046,19ABC1077,1000,ABC Case,6707 SHAREITH DR,40228-0000,LOUISVILLE,KY,Closed,2019/03/14 16:20:04+00
1380,96116,17ABC1236,1000,ABC Case,131 BRECKENRIDGE LN,40207-0000,LOUISVILLE,KY,Closed,2017/11/07 22:02:23+00
1381,96117,18ABC1122,1000,ABC Case,3817 E INDIAN TRL,40213-0000,LOUISVILLE,KY,Closed,2018/06/18 17:29:29+00
1382,96118,17ABC1226,1000,ABC Case,8809 3RD STREET RD,40272-0000,LOUISVILLE,KY,Closed,2017/10/31 16:49:58+00
1383,96119,18ABC1037,1000,ABC Case,3265 ROBIN RD,40213-0000,LOUISVILLE,KY,Closed,2018/02/13 14:37:12+00
1384,96120,17ABC1230,1000,ABC Case,2928 W KENTUCKY ST,40211-0000,LOUISVILLE,KY,Closed,2017/11/06 16:38:05+00
1385,96121,17ABC1276,1000,ABC Case,3814 FRANKFORT AVE,40207-0000,LOUISVILLE,KY,Closed,2017/12/27 20:12:30+00
1386,96122,17ABC1225,1000,ABC Case,3814 FRANKFORT AVE,40207-0000,LOUISVILLE,KY,Closed,2017/10/30 16:36:22+00
1387,96123,17ABC1263,1000,ABC Case,10805 BLUE LICK RD,40229-0000,LOUISVILLE,KY,Closed,2017/12/07 20:40:15+00
1388,96124,17ABC1256,1000,ABC Case,1164 S 3RD ST,40203-0000,LOUISVILLE,KY,Closed,2017/11/28 19:30:53+00
1389,96125,17ABC1233,1000,ABC Case,1307 CLARA AVE,40215-0000,LOUISVILLE,KY,Closed,2017/11/07 20:46:34+00
1390,96126,18ABC1051,1000,ABC Case, N 9TH ST,40202-0000,LOUISVILLE,KY,Closed,2018/03/08 17:52:52+00
1391,96127,18ABC1046,1000,ABC Case,280 W JEFFERSON ST,40202-0000,LOUISVILLE,KY,Closed,2018/02/26 17:18:43+00
1392,96128,17ABC1250,1000,ABC Case,1951 BONNYCASTLE AVE,40205-0000,LOUISVILLE,KY,Closed,2017/11/17 18:24:16+00
1393,96050,19ABC1065,1000,ABC Case, CENTRAL STATION BLVD,40208-0000,LOUISVILLE,KY,Closed,2019/03/06 18:59:28+00
1394,96129,18ABC1158,1000,ABC Case,12415 TAYLORSVILLE RD,40299-0000,LOUISVILLE,KY,Closed,2018/07/23 14:27:12+00
1395,96051,19ABC1067,1000,ABC Case,3449 TAYLOR BLVD,40215-0000,LOUISVILLE,KY,Closed,2019/03/07 17:51:06+00
1396,96130,17ABC1218,1000,ABC Case,7803 3RD STREET RD,40214-0000,LOUISVILLE,KY,Closed,2017/10/20 19:15:11+00
1397,96053,19ABC1078,1000,ABC Case,3033 RADIANCE RD,40220-0000,LOUISVILLE,KY,Closed,2019/03/18 16:38:00+00
1398,96131,18ABC1058,1000,ABC Case,3401 KERRY DR,40218-0000,LOUISVILLE,KY,Closed,2018/03/15 19:20:47+00
1399,96055,19ABC1085,1000,ABC Case,6714 SHEPHERDSVILLE RD,40228-0000,LOUISVILLE,KY,Closed,2019/03/21 21:31:31+00
1400,96132,18ABC1064,1000,ABC Case,3814 FRANKFORT AVE,40207-0000,LOUISVILLE,KY,Closed,2018/03/26 19:29:58+00
1401,96059,19ABC1079,1000,ABC Case,9603 WHIPPS MILL RD,40242-0000,LYNDON,KY,Closed,2019/03/18 16:41:48+00
1402,96133,17ABC1272,1000,ABC Case,1904 FRANKFORT AVE,40206-0000,LOUISVILLE,KY,Closed,2017/12/21 20:13:08+00
1403,96060,19ABC1084,1000,ABC Case,6714 SHEPHERDSVILLE RD,40228-0000,LOUISVILLE,KY,Closed,2019/03/21 15:55:10+00
1404,96134,17ABC1277,1000,ABC Case,1164 S 3RD ST,40203-0000,LOUISVILLE,KY,Closed,2017/12/27 21:24:29+00
1405,96062,19ABC1086,1000,ABC Case,2801 W BROADWAY ,40211-0000,LOUISVILLE,KY,Closed,2019/03/22 17:20:45+00
1406,96135,17ABC1253,1000,ABC Case,2927 7TH STREET RD,40216-0000,LOUISVILLE,KY,Closed,2017/11/27 14:27:36+00
1407,96063,19ABC1092,1000,ABC Case, BARDSTOWN RD,40204-0000,LOUISVILLE,KY,Closed,2019/03/27 14:51:27+00
1408,96136,18ABC1062,1000,ABC Case,5207 MOUNT WASHINGTON RD,40229-0000,LOUISVILLE,KY,Closed,2018/03/20 20:56:19+00
1409,96065,19ABC1095,1000,ABC Case,4740 CHAMBERLAIN LN,40241-0000,LOUISVILLE,KY,Closed,2019/04/02 17:14:45+00
1410,96137,18ABC1069,1000,ABC Case,3816 BISHOP LN,40218-0000,LOUISVILLE,KY,Closed,2018/03/28 20:43:31+00
1411,96066,19ABC1096,1000,ABC Case,6409 GREENWOOD RD,40258-0000,LOUISVILLE,KY,Closed,2019/04/02 17:17:40+00
1412,96138,18ABC1070,1000,ABC Case,8506 SHEPHERDSVILLE RD,40219-0000,LOUISVILLE,KY,Closed,2018/04/02 18:55:27+00
1413,96067,19ABC1101,1000,ABC Case,3030 S 3RD ST,40208-0000,LOUISVILLE,KY,Closed,2019/04/11 18:02:50+00
1414,96139,17ABC1273,1000,ABC Case, POPLAR LEVEL RD,40213-0000,LOUISVILLE,KY,Closed,2017/12/22 16:58:57+00
1415,96068,19ABC1099,1000,ABC Case,7416 PRESTON HWY,40219-0000,LOUISVILLE,KY,Closed,2019/04/08 16:21:21+00
1416,96140,17ABC1261,1000,ABC Case,7800 3RD STREET RD,40214-0000,LOUISVILLE,KY,Closed,2017/12/04 20:41:19+00
1417,96069,19ABC1100,1000,ABC Case,7746 ST ANDREWS CHURCH RD,40214-0000,LOUISVILLE,KY,Closed,2019/04/10 14:43:45+00
1418,96141,18ABC1101,1000,ABC Case,11521 TAZWELL DR,40241-0000,LOUISVILLE,KY,Closed,2018/05/17 21:56:00+00
1419,96070,19ABC1098,1000,ABC Case, BARDSTOWN RD,40204-0000,LOUISVILLE,KY,Closed,2019/04/08 15:29:32+00
1420,96071,19ABC1090,1000,ABC Case,4055 SUMMIT PLAZA DR,40241-0000,LOUISVILLE,KY,Closed,2019/03/26 17:47:44+00
1421,96075,19ABC1104,1000,ABC Case,2613 W BROADWAY ,40211-0000,LOUISVILLE,KY,Closed,2019/04/16 14:53:07+00
1422,96076,19ABC1107,1000,ABC Case,2613 W BROADWAY ,40211-0000,LOUISVILLE,KY,Closed,2019/04/18 16:43:49+00
1423,96077,19ABC1105,1000,ABC Case,2200 W MARKET ST,40212-0000,LOUISVILLE,KY,Closed,2019/04/16 20:23:56+00
1424,96078,19ABC1106,1000,ABC Case, S 28TH ST,40211-0000,LOUISVILLE,KY,Closed,2019/04/18 16:41:40+00
1425,96079,18ABC1057,1000,ABC Case,1401 LEXINGTON RD,40206-0000,LOUISVILLE,KY,Closed,2018/03/15 02:36:53+00
1426,96080,17ABC1216,1000,ABC Case,1111 CANOPY CT,40211-0000,LOUISVILLE,KY,Closed,2017/10/06 20:47:57+00
1427,96081,17ABC1209,1000,ABC Case,4116 GREENWOOD AVE,40211-0000,LOUISVILLE,KY,Closed,2017/09/29 19:12:48+00
1428,96082,18ABC1169,1000,ABC Case,1601 S 3RD ST,40208-0000,LOUISVILLE,KY,Closed,2018/08/06 17:00:59+00
1429,96083,17ABC1260,1000,ABC Case,5503 LAZY ACRES CT,40258-0000,LOUISVILLE,KY,Closed,2017/12/04 17:46:50+00
1430,96084,18ABC1003,1000,ABC Case,4000 TOWER RD,40219-0000,LOUISVILLE,KY,Closed,2018/01/03 22:24:14+00
1431,96085,17ABC1246,1000,ABC Case,3705 FALCON CREST DR,40219-0000,LOUISVILLE,KY,Closed,2017/11/13 20:32:27+00
1432,96086,17ABC1245,1000,ABC Case,934 BAXTER AVE,40204-0000,LOUISVILLE,KY,Closed,2017/11/13 20:19:41+00
1433,96087,17ABC1238,1000,ABC Case,3119 DIXIE HWY,40216-0000,SHIVELY,KY,Closed,2017/11/08 19:29:53+00
1434,96088,18ABC1019,1000,ABC Case,1203 S PRESTON ST,40203-0000,LOUISVILLE,KY,Closed,2018/01/12 18:24:32+00
1435,96089,18ABC1031,1000,ABC Case,1307 CLARA AVE,40215-0000,LOUISVILLE,KY,Closed,2018/01/31 15:10:32+00
1436,96090,18ABC1050,1000,ABC Case,8509 TERRY RD,40258-0000,LOUISVILLE,KY,Closed,2018/03/06 21:20:53+00
1437,96091,18ABC1061,1000,ABC Case,2817 DEL RIO PL,40220-0000,LOUISVILLE,KY,Closed,2018/03/20 20:48:00+00
1438,96092,18ABC1175,1000,ABC Case,514 BAXTER AVE,40204-0000,LOUISVILLE,KY,Closed,2018/08/16 13:11:46+00
1439,96093,18ABC1176,1000,ABC Case,514 BAXTER AVE,40204-0000,LOUISVILLE,KY,Closed,2018/08/16 13:12:13+00
1440,96094,18ABC1045,1000,ABC Case,2622 S 4TH ST,40208-0000,LOUISVILLE,KY,Closed,2018/02/23 22:21:21+00
1441,96095,18ABC1048,1000,ABC Case,1134 E BRECKINRIDGE ST,40204-0000,LOUISVILLE,KY,Closed,2018/02/28 19:39:26+00
1442,96096,18ABC1034,1000,ABC Case,1506 S SHELBY ST,40217-0000,LOUISVILLE,KY,Closed,2018/02/06 14:43:53+00
1443,96097,18ABC1260,1000,ABC Case,1058 BARDSTOWN RD,40204-0000,LOUISVILLE,KY,Closed,2018/11/16 22:05:19+00
1444,96098,17ABC1228,1000,ABC Case,1164 S 3RD ST,40203-0000,LOUISVILLE,KY,Closed,2017/11/03 20:08:28+00
1445,96099,18ABC1054,1000,ABC Case,1318 DIXIE HWY,40210-0000,LOUISVILLE,KY,Closed,2018/03/09 18:46:13+00
1446,96100,18ABC1068,1000,ABC Case,942 BAXTER AVE,40204-0000,LOUISVILLE,KY,Closed,2018/03/28 19:28:02+00
1447,96101,18ABC1056,1000,ABC Case, S SHELBY ST,40202-0000,LOUISVILLE,KY,Closed,2018/03/12 17:44:49+00
1448,96102,17ABC1275,1000,ABC Case,331 E MARKET ST,40202-0000,LOUISVILLE,KY,Closed,2017/12/27 15:02:25+00
1449,96103,18ABC1002,1000,ABC Case,3814 FRANKFORT AVE,40207-0000,LOUISVILLE,KY,Closed,2018/01/03 17:16:45+00
1450,96104,18ABC1011,1000,ABC Case,118 S 26TH ST,40212-0000,LOUISVILLE,KY,Closed,2018/01/04 22:40:06+00
1451,96105,18ABC1012,1000,ABC Case,1164 S 3RD ST,40203-0000,LOUISVILLE,KY,Closed,2018/01/06 06:17:11+00
1452,96106,18ABC1040,1000,ABC Case,8730 WESTPORT RD,40242-0000,BRIARWOOD,KY,Closed,2018/02/15 21:01:48+00
1453,96107,18ABC1044,1000,ABC Case,3814 FRANKFORT AVE,40207-0000,LOUISVILLE,KY,Closed,2018/02/21 15:28:44+00
1454,96108,18ABC1060,1000,ABC Case,907 ULRICH AVE,40219-0000,LOUISVILLE,KY,Closed,2018/03/20 20:40:44+00
1455,96109,18ABC1047,1000,ABC Case,3814 FRANKFORT AVE,40207-0000,LOUISVILLE,KY,Closed,2018/02/26 22:17:11+00
1456,96110,17ABC1215,1000,ABC Case,4105 W MARKET ST,40212-0000,LOUISVILLE,KY,Closed,2017/10/06 18:45:27+00
1457,96111,17ABC1224,1000,ABC Case,118 S 26TH ST,40212-0000,LOUISVILLE,KY,Closed,2017/10/28 01:57:59+00
1458,96112,18ABC1029,1000,ABC Case,3800 FALCON CREST DR,40219-0000,LOUISVILLE,KY,Closed,2018/01/29 18:27:04+00
1459,96113,17ABC1222,1000,ABC Case,1398 S 2ND ST,40208-0000,LOUISVILLE,KY,Closed,2017/10/26 20:54:10+00
1460,96114,17ABC1198,1000,ABC Case,7509 FEGENBUSH LN,40228-0000,LOUISVILLE,KY,Closed,2017/09/22 19:14:24+00
1461,96115,17ABC1255,1000,ABC Case,418 S 18TH ST,40203-0000,LOUISVILLE,KY,Closed,2017/11/28 18:43:08+00
1462,96142,18ABC1155,1000,ABC Case,3706 DIANN MARIE RD,40241-0000,LOUISVILLE,KY,Closed,2018/07/20 20:16:00+00
1463,96143,18ABC1090,1000,ABC Case,4200 OUTER LOOP,40219-0000,LOUISVILLE,KY,Closed,2018/05/01 21:31:42+00
1464,96144,18ABC1129,1000,ABC Case,3102 DIXIE HWY,40216-0000,SHIVELY,KY,Closed,2018/06/26 16:02:38+00
1465,96145,18ABC1208,1000,ABC Case, TAYLOR BLVD,40215-0000,LOUISVILLE,KY,Closed,2018/10/03 17:12:46+00
1466,96146,18ABC1134,1000,ABC Case,521 N 22ND ST,40203-0000,LOUISVILLE,KY,Closed,2018/06/29 16:26:53+00
1467,96147,18ABC1108,1000,ABC Case,2440 BARDSTOWN RD,40205-0000,LOUISVILLE,KY,Closed,2018/05/24 16:43:08+00
1468,96148,18ABC1073,1000,ABC Case,1320 DIXIE HWY,40210-0000,LOUISVILLE,KY,Closed,2018/04/09 19:55:31+00
1469,96149,18ABC1138,1000,ABC Case, I 264 RAMP ,40216-0000, ,KY,Closed,2018/07/02 20:46:26+00
1470,96150,18ABC1082,1000,ABC Case,1843 DEER PARK AVE,40205-0000,LOUISVILLE,KY,Closed,2018/04/18 14:54:46+00
1471,96151,18ABC1121,1000,ABC Case,11521 TAZWELL DR,40241-0000,LOUISVILLE,KY,Closed,2018/06/13 18:15:45+00
1472,96152,18ABC1076,1000,ABC Case, TAYLORSVILLE RD,40220-0000,JEFFERSONTOWN,KY,Closed,2018/04/11 17:55:53+00
1473,96153,18ABC1153,1000,ABC Case,7137 SOUTHSIDE DR,40214-0000,LOUISVILLE,KY,Closed,2018/07/19 15:55:03+00
1474,96154,18ABC1143,1000,ABC Case,1636 W OAK ST,40210-0000,LOUISVILLE,KY,Closed,2018/07/11 20:48:10+00
1475,96155,18ABC1157,1000,ABC Case,11521 TAZWELL DR,40241-0000,LOUISVILLE,KY,Closed,2018/07/23 12:57:01+00
1476,96156,18ABC1116,1000,ABC Case,1532 S 4TH ST,40208-0000,LOUISVILLE,KY,Closed,2018/06/08 13:26:23+00
1477,96157,18ABC1173,1000,ABC Case,956 BAXTER AVE,40204-0000,LOUISVILLE,KY,Closed,2018/08/14 15:25:01+00
1478,96158,18ABC1078,1000,ABC Case,3952 BARDSTOWN RD,40218-0000,LOUISVILLE,KY,Closed,2018/04/16 18:50:02+00
1479,96159,18ABC1106,1000,ABC Case,7212 PRESTON HWY,40219-0000,LOUISVILLE,KY,Closed,2018/05/23 17:31:51+00
1480,96160,18ABC1166,1000,ABC Case,501 N 33RD ST,40212-0000,LOUISVILLE,KY,Closed,2018/08/04 00:45:59+00
1481,96161,18ABC1079,1000,ABC Case,1320 DIXIE HWY,40210-0000,LOUISVILLE,KY,Closed,2018/04/16 19:34:38+00
1482,96162,18ABC1092,1000,ABC Case,8209 PRESTON HWY,40219-0000,LOUISVILLE,KY,Closed,2018/05/02 18:32:59+00
1483,96163,18ABC1080,1000,ABC Case,14700 LANDMARK DR,40245-0000,LOUISVILLE,KY,Closed,2018/04/17 13:22:09+00
1484,96165,18ABC1086,1000,ABC Case,7803 3RD STREET RD,40214-0000,LOUISVILLE,KY,Closed,2018/04/23 19:31:07+00
1485,96166,18ABC1096,1000,ABC Case,942 BAXTER AVE,40204-0000,LOUISVILLE,KY,Closed,2018/05/08 18:29:11+00
1486,96167,18ABC1135,1000,ABC Case,8802 BEULAH CHURCH RD,40291-0000,LOUISVILLE,KY,Closed,2018/06/29 18:20:30+00
1487,96168,18ABC1131,1000,ABC Case,601 E BROADWAY ,40202-0000,LOUISVILLE,KY,Closed,2018/06/28 13:56:33+00
1488,96169,18ABC1160,1000,ABC Case,4149 TAYLOR BLVD,40215-0000,LOUISVILLE,KY,Closed,2018/07/24 13:06:28+00
1489,96170,18ABC1141,1000,ABC Case,413 E MUHAMMAD ALI BLVD,40202-0000,LOUISVILLE,KY,Closed,2018/07/10 18:12:28+00
1490,96171,18ABC1120,1000,ABC Case, SOUTHSIDE DR,40214-0000,LOUISVILLE,KY,Closed,2018/06/12 19:31:59+00
1491,96173,18ABC1133,1000,ABC Case,1239 GILMORE LN,40213-0000,LYNNVIEW,KY,Closed,2018/06/29 16:11:16+00
1492,96174,18ABC1152,1000,ABC Case,209 S PRESTON ST,40202-0000,LOUISVILLE,KY,Closed,2018/07/16 18:30:16+00
1493,96175,18ABC1140,1000,ABC Case,2119 UPPER HUNTERS TRCE,40216-0000,LOUISVILLE,KY,Closed,2018/07/06 22:23:11+00
1494,96176,18ABC1142,1000,ABC Case,1600 ARCADE AVE,40215-0000,LOUISVILLE,KY,Closed,2018/07/11 19:03:02+00
