CITY OF POST OFFICE,ADDRESS,CITY,STATE,ZIP,PHONE,LONGITUDE,LATITUDE,Location
Ada,231 W Main St,Ada,OK,74820,(580) 436-3017,-96.680903,34.774378,"(34.774378, -96.680903)"
Adair,110 S William Penn St,Adair,OK,74330,(918) 785-2234,-95.273046,36.436798,"(36.436798, -95.273046)"
Adams,407 Main St,Adams,OK,73901,(580) 253-6568,-101.073529,36.7563,"(36.7563, -101.073529)"
Addington,201 Parker St,Addington,OK,73520,(580) 439-2248,-97.967908,34.246406,"(34.246406, -97.967908)"
Achille,110 E Main St,Achille,OK,74720,(580) 283-3997,-96.387496,33.833486,"(33.833486, -96.387496)"
Ada,131 E 12th St,Ada,OK,74820,(580) 332-6118,-96.678115,34.773276,"(34.773276, -96.678115)"
Afton,101 NW 1st St,Afton,OK,74331,(918) 257-4042,-94.921251,36.63563,"(36.63563, -94.921251)"
Agra,13 S Main St,Agra,OK,74824,(918) 375-2237,-96.843871,35.840168,"(35.840168, -96.843871)"
Albany,109 N Wade St,Albany,OK,74721,(580) 924-3189,-96.174519,33.88123,"(33.88123, -96.174519)"
Albert,104 Main St,Albert,OK,73001,(405) 643-2796,-98.411959,35.23359,"(35.23359, -98.411959)"
Albion,110 S Kentucky St,Albion,OK,74521,(918) 563-4421,-95.095679,34.66619,"(34.66619, -95.095679)"
Alderson,49 W Highway 270,Alderson,OK,74522,(918) 423-7480,-95.698389,34.8995,"(34.8995, -95.698389)"
Alex,111 S Main St,Alex,OK,73002,(405) 785-2249,-97.778653,34.917643,"(34.917643, -97.778653)"
Aline,104 N Main St,Aline,OK,73716,(580) 463-2291,-98.450659,36.51328,"(36.51328, -98.450659)"
Allen,107 S Easton,Allen,OK,74825,(580) 857-2253,-96.415995,34.87374,"(34.87374, -96.415995)"
Altus,217 W Cypress St,Altus,OK,73521,(580) 482-3339,-99.335554,34.640137,"(34.640137, -99.335554)"
Altus,204 S 3rd St,Altus,OK,73523,(580) 482-2065,-99.285786,34.654269,"(34.654269, -99.285786)"
Alva,408 Government St,Alva,OK,73717,(580) 327-2400,-98.664376,36.804711,"(36.804711, -98.664376)"
Amber,402 E Main St,Amber,OK,73004,(405) 222-0511,-97.870998,35.160385,"(35.160385, -97.870998)"
Ames,108 E Marie Gautier Blvd,Ames,OK,73718,(580) 753-4229,-98.184241,36.24416,"(36.24416, -98.184241)"
Amorita,102 Broadway Ave,Amorita,OK,73719,(580) 474-2511,-98.292979,36.92452,"(36.92452, -98.292979)"
Anadarko,120 SW 1st St,Anadarko,OK,73005,(405) 247-6461,-98.243669,35.06646,"(35.06646, -98.243669)"
Antlers,219 N High St,Antlers,OK,74523,(580) 298-2526,-95.62053,34.232699,"(34.232699, -95.62053)"
Apache,302 E Evans,Apache,OK,73006,(580) 588-3829,-98.363181,34.893766,"(34.893766, -98.363181)"
Arapaho,668 Main St,Arapaho,OK,73620,(580) 323-2008,-98.954359,35.57773,"(35.57773, -98.954359)"
Arcadia,205 N Odor St,Arcadia,OK,73007,(405) 396-2494,-97.324081,35.663197,"(35.663197, -97.324081)"
Ardmore,208 1st Ave SW,Ardmore,OK,73401,(580) 223-8383,-97.131236,34.171594,"(34.171594, -97.131236)"
Arkoma,308 Sicard St,Arkoma,OK,74901,(918) 875-3843,-94.435109,35.353348,"(35.353348, -94.435109)"
Arnett,109 S Washington St,Arnett,OK,73832,(580) 885-7433,-99.771259,36.13277,"(36.13277, -99.771259)"
Asher,110 W Main St,Asher,OK,74826,(405) 784-2231,-96.929958,34.987491,"(34.987491, -96.929958)"
Atoka,401 E Court St,Atoka,OK,74525,(580) 889-3589,-96.124508,34.38512,"(34.38512, -96.124508)"
Atwood,321 Highway 1,Atwood,OK,74827,(580) 986-2245,-96.341669,34.95609,"(34.95609, -96.341669)"
Avant,514 E 3rd St,Avant,OK,74001,(918) 263-4895,-96.056927,36.492233,"(36.492233, -96.056927)"
Balko,1 Highway 83,Balko,OK,73931,(580) 361-2273,-100.828604,36.616045,"(36.616045, -100.828604)"
Barnsdall,520 W Main St,Barnsdall,OK,74002,(918) 847-3125,-96.162146,36.561978,"(36.561978, -96.162146)"
Bartlesville,3900 SE Green Country Rd,Bartlesville,OK,74006,(918) 333-5858,-95.933736,36.740068,"(36.740068, -95.933736)"
Bartlesville,615 SW Jennings Ave,Bartlesville,OK,74003,(918) 336-0948,-95.981027,36.747926,"(36.747926, -95.981027)"
Battiest,100 S Main St,Battiest,OK,74722,(580) 241-5562,-94.929637,34.394406,"(34.394406, -94.929637)"
Beaver,16 E 2nd St,Beaver,OK,73932,(580) 625-3362,-100.559762,36.774041,"(36.774041, -100.559762)"
Beggs,106 N Choctaw St,Beggs,OK,74421,(918) 267-4187,-96.032978,35.773429,"(35.773429, -96.032978)"
Bennington,310 N Perry St,Bennington,OK,74723,(580) 847-2302,-96.038497,33.996264,"(33.996264, -96.038497)"
Bessie,709 Main St,Bessie,OK,73622,(580) 337-6316,-98.987884,35.386375,"(35.386375, -98.987884)"
Bethany,6612 NW 38th St,Bethany,OK,73008,(405) 491-1096,-97.628105,35.509933,"(35.509933, -97.628105)"
Bethel,100 Main St,Bethel,OK,74724,(580) 241-7846,-94.877151,34.364613,"(34.364613, -94.877151)"
Big Cabin,104 W Main St,Big Cabin,OK,74332,(918) 783-5171,-95.221272,36.537896,"(36.537896, -95.221272)"
Billings,113 Main St,Billings,OK,74630,(580) 725-3523,-97.444308,36.528733,"(36.528733, -97.444308)"
Binger,224 W Main St,Binger,OK,73009,(405) 656-2562,-98.343079,35.30879,"(35.30879, -98.343079)"
Bixby,16 S A Ave,Bixby,OK,74008,(918) 366-8277,-95.883705,35.941141,"(35.941141, -95.883705)"
Blackwell,203 W Blackwell Ave,Blackwell,OK,74631,(580) 363-4640,-97.284412,36.804198,"(36.804198, -97.284412)"
Blair,111 E Main St,Blair,OK,73526,(580) 563-2200,-99.333966,34.780628,"(34.780628, -99.333966)"
Blanchard,1200 N Council Rd,Blanchard,OK,73010,(405) 485-3034,-97.653004,35.147763,"(35.147763, -97.653004)"
Blanco,100 E Highway 63,Blanco,OK,74528,(918) 432-5931,-95.735048,34.767792,"(34.767792, -95.735048)"
Blocker,Highway 31e,Blocker,OK,74529,(918) 469-3488,-95.568688,35.059874,"(35.059874, -95.568688)"
Bluejacket,210 E Main St,Bluejacket,OK,74333,(918) 784-2555,-95.072069,36.80004,"(36.80004, -95.072069)"
Boise City,210 N Cimarron,Boise City,OK,73933,(580) 544-2941,-102.513041,36.73155,"(36.73155, -102.513041)"
Bokchito,118 W Main St,Bokchito,OK,74726,(580) 295-3889,-96.144811,34.016762,"(34.016762, -96.144811)"
Bokoshe,100 Highway 31,Bokoshe,OK,74930,(918) 969-2422,-94.721919,35.18757,"(35.18757, -94.721919)"
Boley,122 S Pecan St,Boley,OK,74829,(918) 667-3722,-96.483669,35.49441,"(35.49441, -96.483669)"
Boswell,515 Hunter Ave,Boswell,OK,74727,(580) 566-2845,-95.870517,34.027472,"(34.027472, -95.870517)"
Bowlegs,126 S Main,Bowlegs,OK,74830,(405) 398-4638,-96.670417,35.14657,"(35.14657, -96.670417)"
Boynton,101 S. Seaman St,Boynton,OK,74422,(918) 472-7252,-95.655969,35.653045,"(35.653045, -95.655969)"
Braman,410 Broadway Ave,Braman,OK,74632,(580) 385-2156,-97.334639,36.923389,"(36.923389, -97.334639)"
Bristow,124 W 6th Ave,Bristow,OK,74010,(918) 367-3440,-96.391708,35.832682,"(35.832682, -96.391708)"
Broken Arrow,1701 S Main St,Broken Arrow,OK,74012,(918) 258-9856,-95.790668,36.036926,"(36.036926, -95.790668)"
Broken Arrow,2801 E Kenosha St,Broken Arrow,OK,74014,(918) 355-9223,-95.756542,36.061089,"(36.061089, -95.756542)"
Broken Bow,405 Main St,Broken Bow,OK,74728,(580) 584-6633,-94.73717,34.030529,"(34.030529, -94.73717)"
Bromide,102 S Main St,Bromide,OK,74530,(580) 638-2400,-96.492169,34.41897,"(34.41897, -96.492169)"
Buffalo,103 E Elm St,Buffalo,OK,73834,(580) 735-2420,-99.629794,36.83345,"(36.83345, -99.629794)"
Bunch,3 E Main St,Bunch,OK,74931,(918) 775-5343,-94.757327,35.750217,"(35.750217, -94.757327)"
Burbank,100 E McCorkle Ave,Burbank,OK,74633,(918) 648-5330,-96.726328,36.698097,"(36.698097, -96.726328)"
Burlington,513 Main St,Burlington,OK,73722,(580) 431-2515,-98.293017,36.90386,"(36.90386, -98.293017)"
Burneyville,200 N Main St,Burneyville,OK,73430,(580) 276-2780,-97.315153,33.932124,"(33.932124, -97.315153)"
Burns Flat,100 Sooner Rd,Burns Flat,OK,73624,(580) 562-3564,-99.170504,35.355401,"(35.355401, -99.170504)"
Butler,103 N Olmstead Ave,Butler,OK,73625,(580) 664-3451,-99.187839,35.63767,"(35.63767, -99.187839)"
Byars,252 E Ripley St,Byars,OK,74831,(405) 783-4427,-97.052872,34.874604,"(34.874604, -97.052872)"
Cache,601 S 8th St,Cache,OK,73527,(580) 429-8100,-98.63293,34.625395,"(34.625395, -98.63293)"
Caddo,127 W Buffalo St,Caddo,OK,74729,(580) 367-2240,-96.261309,34.12593,"(34.12593, -96.261309)"
Calera,410 N Mckinley Ave,Calera,OK,74730,(580) 434-5369,-96.432081,33.931676,"(33.931676, -96.432081)"
Calumet,105 E Main St,Calumet,OK,73014,(405) 893-2572,-98.118477,35.60088,"(35.60088, -98.118477)"
Calvin,205 Canadian St,Calvin,OK,74531,(405) 645-2483,-96.250371,34.967906,"(34.967906, -96.250371)"
Camargo,200 S Broadway St,Camargo,OK,73835,(580) 926-3360,-99.289334,36.01686,"(36.01686, -99.289334)"
Cameron,15818 Church St,Cameron,OK,74932,(918) 654-3316,-94.541094,35.136286,"(35.136286, -94.541094)"
Canadian,101 Tignor St,Canadian,OK,74425,(918) 339-2545,-95.655072,35.176269,"(35.176269, -95.655072)"
Caney,200 W Main St,Caney,OK,74533,(580) 889-6097,-96.213019,34.23242,"(34.23242, -96.213019)"
Canton,202 W Main St,Canton,OK,73724,(580) 886-2218,-98.589794,36.053574,"(36.053574, -98.589794)"
Canute,915 E Willard St,Canute,OK,73626,(580) 472-3261,-99.275756,35.421821,"(35.421821, -99.275756)"
Cardin,508 1st St,Cardin,OK,74335,(580) 673-2525,-94.851436,36.972752,"(36.972752, -94.851436)"
Carmen,418 W Main St,Carmen,OK,73726,(580) 987-2318,-98.463039,36.57896,"(36.57896, -98.463039)"
Carnegie,14 N Broadway St,Carnegie,OK,73015,(580) 654-2115,-98.604919,35.10709,"(35.10709, -98.604919)"
Carney,406 W Santa Fe St,Carney,OK,74832,(405) 865-2360,-97.016238,35.809551,"(35.809551, -97.016238)"
Carrier,101 E Main St,Carrier,OK,73727,(580) 855-2520,-98.020712,36.475633,"(36.475633, -98.020712)"
Carter,108 E Main St,Carter,OK,73627,(580) 486-3256,-99.511474,35.218995,"(35.218995, -99.511474)"
Cartwright,52 Boat Club Rd,Cartwright,OK,74731,(580) 965-4444,-96.583069,33.8506,"(33.8506, -96.583069)"
Cashion,109 S Main St,Cashion,OK,73016,(405) 433-2691,-97.679158,35.798575,"(35.798575, -97.679158)"
Castle,401 Main St,Castle,OK,74833,(918) 668-3332,-96.383099,35.478148,"(35.478148, -96.383099)"
Catoosa,1805 S Cherokee St,Catoosa,OK,74015,(918) 266-7134,-95.75613,36.17247,"(36.17247, -95.75613)"
Cement,406 N Main St,Cement,OK,73017,(405) 489-3620,-98.140189,34.93504,"(34.93504, -98.140189)"
Centrahoma,201 W Main St,Centrahoma,OK,74534,(580) 845-2607,-96.339054,34.60958,"(34.60958, -96.339054)"
Chandler,123 W 9th St,Chandler,OK,74834,(405) 258-1397,-96.881137,35.701404,"(35.701404, -96.881137)"
Chattanooga,307 Madison Ave,Chattanooga,OK,73528,(580) 597-2513,-98.658514,34.422595,"(34.422595, -98.658514)"
Checotah,213 W Spaulding St,Checotah,OK,74426,(918) 473-5606,-95.521528,35.470934,"(35.470934, -95.521528)"
Chelsea,408 W 6th St,Chelsea,OK,74016,(918) 789-2653,-95.433908,36.536374,"(36.536374, -95.433908)"
Cherokee,1780 S Grand Ave,Cherokee,OK,73728,(580) 596-2450,-98.35999,36.739846,"(36.739846, -98.35999)"
Chester,135 S Highway 281,Chester,OK,73838,(580) 764-3435,-98.879801,36.49945,"(36.49945, -98.879801)"
Cheyenne,207 S Ll Males Ave,Cheyenne,OK,73628,(580) 497-3995,-99.671719,35.612695,"(35.612695, -99.671719)"
Chickasha,702 W Kansas Ave,Chickasha,OK,73018,(405) 222-0511,-97.941429,35.050066,"(35.050066, -97.941429)"
Chickasha,702 W Kansas Ave,Chickasha,OK,73018,(405) 224-1633,-97.941429,35.050066,"(35.050066, -97.941429)"
Chouteau,125 Railroad St,Chouteau,OK,74337,(918) 476-8816,-95.344534,36.185924,"(36.185924, -95.344534)"
Claremore,400 W 9th St,Claremore,OK,74017,(918) 343-5912,-95.610466,36.317396,"(36.317396, -95.610466)"
Clarita,100 Main St,Clarita,OK,74535,(580) 428-3303,-96.436255,34.4817,"(34.4817, -96.436255)"
Clayton,502 Lawson Blvd,Clayton,OK,74536,(918) 569-7621,-95.352397,34.590386,"(34.590386, -95.352397)"
Cleo Springs,123 N Square St,Cleo Springs,OK,73729,(580) 438-2244,-98.43608,36.40512,"(36.40512, -98.43608)"
Cleveland,105 W Pawnee St,Cleveland,OK,74020,(918) 358-2371,-96.464138,36.310144,"(36.310144, -96.464138)"
Clinton,212 S 11th St,Clinton,OK,73601,(580) 323-0712,-98.973426,35.513161,"(35.513161, -98.973426)"
Coalgate,38 N Main St,Coalgate,OK,74538,(580) 927-2223,-96.217962,34.539605,"(34.539605, -96.217962)"
Colbert,705 Moore St,Colbert,OK,74733,(580) 296-2927,-96.508339,33.85299,"(33.85299, -96.508339)"
Colcord,367 W Main,Colcord,OK,74338,(918) 326-4636,-94.695424,36.26392,"(36.26392, -94.695424)"
Coleman,12900 OK Highway,Coleman,OK,73432,(580) 937-4544,-96.461048,34.26574,"(34.26574, -96.461048)"
Collinsville,118 S 11th St,Collinsville,OK,74021,(918) 371-6528,-95.838049,36.364279,"(36.364279, -95.838049)"
Bradley,116 S McKee St,Bradley,OK,73011,(405) 462-7443,-97.710261,34.855344,"(34.855344, -97.710261)"
Braggs,300 N Madison St,Braggs,OK,74423,(918) 487-5561,-95.198549,35.663755,"(35.663755, -95.198549)"
Colony,50 N Watan Ave,Colony,OK,73021,(405) 929-7277,-98.676169,35.349136,"(35.349136, -98.676169)"
McAlester,500 E Washington Ave,McAlester,OK,74501,(918) 423-4048,-95.762401,34.932548,"(34.932548, -95.762401)"
McCurtain,215 Main St,McCurtain,OK,74944,(918) 945-7597,-94.973159,35.14977,"(35.14977, -94.973159)"
McLoud,700 S 8th St,McLoud,OK,74851,(405) 964-7389,-97.098324,35.427255,"(35.427255, -97.098324)"
Mead,310 N Main,Mead,OK,73449,(580) 924-3548,-96.509609,34.00095,"(34.00095, -96.509609)"
Medford,115 W Cherokee St,Medford,OK,73759,(580) 395-2250,-97.73527,36.80685,"(36.80685, -97.73527)"
Medicine Park,1 E Lake Dr,Medicine Park,OK,73557,(580) 529-2734,-98.501973,34.736919,"(34.736919, -98.501973)"
Meeker,220 W Carl Hubbell Blvd,Meeker,OK,74855,(405) 279-2014,-96.896256,35.503333,"(35.503333, -96.896256)"
Meno,123 E Highway 60,Meno,OK,73760,(580) 776-2290,-98.178303,36.391037,"(36.391037, -98.178303)"
Meridian,100 E 5th St,Meridian,OK,73058,(405) 586-2222,-97.264962,35.772104,"(35.772104, -97.264962)"
Miami,200 I St Ne,Miami,OK,74354,(918) 540-6232,-94.867643,36.877814,"(36.877814, -94.867643)"
Miami,34 A St Ne,Miami,OK,74354,(918) 542-1018,-94.876254,36.875235,"(36.875235, -94.876254)"
Midwest City,8275 E Reno Ave,Midwest City,OK,73110,(405) 732-8601,-97.383908,35.464193,"(35.464193, -97.383908)"
Milburn,201 E I Ave,Milburn,OK,73450,(580) 443-5541,-96.546943,34.243958,"(34.243958, -96.546943)"
Milfay,2810 S 513th West Ave,Milfay,OK,74046,(918) 968-3675,-96.565539,35.75513,"(35.75513, -96.565539)"
Mill Creek,200 W Main St,Mill Creek,OK,74856,(580) 384-5513,-96.767259,34.237685,"(34.237685, -96.767259)"
Millerton,201 N Main St,Millerton,OK,74750,(580) 746-2741,-95.013844,33.991507,"(33.991507, -95.013844)"
Minco,301 Main St,Minco,OK,73059,(405) 352-4850,-97.944581,35.312723,"(35.312723, -97.944581)"
Moffett,400 Belt St,Moffett,OK,74946,(918) 875-3918,-94.447949,35.39046,"(35.39046, -94.447949)"
Moore,601 S I 35 Service Rd,Moore,OK,73160,(405) 794-1690,-97.492588,35.333553,"(35.333553, -97.492588)"
Monroe,14577 Hickory St,Monroe,OK,74947,(918) 658-3360,-94.5193,34.994572,"(34.994572, -94.5193)"
Moodys,9783 Highway 82A,Moodys,OK,74444,(918) 456-2632,-94.957743,36.02403,"(36.02403, -94.957743)"
Mooreland,302 S Main St,Mooreland,OK,73852,(580) 994-5482,-99.20463,36.437906,"(36.437906, -99.20463)"
Morris,321 S 2nd St,Morris,OK,74445,(918) 733-2224,-95.861287,35.607395,"(35.607395, -95.861287)"
Morrison,309 Woolsey Ave,Morrison,OK,73061,(580) 724-3282,-97.00603,36.296357,"(36.296357, -97.00603)"
Mounds,1201 Rockwood Ave,Mounds,OK,74047,(918) 827-6567,-96.061892,35.875652,"(35.875652, -96.061892)"
Mountain Park,204 Spruce St,Mountain Park,OK,73559,(580) 569-4155,-98.949264,34.697105,"(34.697105, -98.949264)"
Mountain View,302 Main St,Mountain View,OK,73062,(580) 347-2197,-98.747709,35.09759,"(35.09759, -98.747709)"
Moyers,100 Main St,Moyers,OK,74557,(580) 298-5693,-95.652699,34.326345,"(34.326345, -95.652699)"
Muldrow,600 E Shawntel Smith Blvd,Muldrow,OK,74948,(918) 427-3241,-94.574646,35.405347,"(35.405347, -94.574646)"
Mulhall,108 S Lewis,Mulhall,OK,73063,(405) 649-2219,-97.405854,36.064682,"(36.064682, -97.405854)"
Muse,1 Main St,Muse,OK,74949,(918) 651-3369,-94.714349,34.655597,"(34.655597, -94.714349)"
Muskogee,525 W Okmulgee St,Muskogee,OK,74401,(918) 682-7832,-95.374237,35.749604,"(35.749604, -95.374237)"
Mustang,600 N Mustang Rd,Mustang,OK,73064,(405) 376-2681,-97.724564,35.397294,"(35.397294, -97.724564)"
Mutual,105 N Broadway Ave,Mutual,OK,73853,(580) 989-3344,-99.115437,36.20947,"(36.20947, -99.115437)"
Nardin,202 Main St,Nardin,OK,74646,(580) 363-1752,-97.446271,36.804895,"(36.804895, -97.446271)"
Nash,103 S Main St,Nash,OK,73761,(580) 839-2212,-98.050466,36.665994,"(36.665994, -98.050466)"
Nashoba,100 Highway 144,Nashoba,OK,74558,(918) 755-4580,-95.028269,34.524392,"(34.524392, -95.028269)"
Newalla,5900 S Harrah Rd,Newalla,OK,74857,(405) 391-5901,-97.159484,35.407305,"(35.407305, -97.159484)"
Newcastle,220 N Wright St,Newcastle,OK,73065,(405) 387-5679,-97.598639,35.249162,"(35.249162, -97.598639)"
Newkirk,101 S Main St,Newkirk,OK,74647,(580) 362-3353,-97.053761,36.882257,"(36.882257, -97.053761)"
Nicoma Park,2301 Overholser Dr,Nicoma Park,OK,73066,(405) 769-8813,-97.325121,35.49237,"(35.49237, -97.325121)"
Ninnekah,904 Walnut St,Ninnekah,OK,73067,(405) 224-0865,-97.921835,34.946975,"(34.946975, -97.921835)"
Noble,220 Maple St,Noble,OK,73068,(405) 872-3616,-97.395691,35.136515,"(35.136515, -97.395691)"
Norman,129 W Gray St,Norman,OK,73069,(405) 307-0013,-97.445133,35.221533,"(35.221533, -97.445133)"
Norman,200 36th Ave Nw,Norman,OK,73072,(405) 366-6036,-97.494485,35.220014,"(35.220014, -97.494485)"
North Miami,303 Pine St,North Miami,OK,74358,(918) 542-6097,-94.879898,36.916337,"(36.916337, -94.879898)"
Nowata,109 N Pine St,Nowata,OK,74048,(918) 273-1681,-95.639393,36.700552,"(36.700552, -95.639393)"
Oakhurst,6403 W 60th St,Oakhurst,OK,74050,(918) 445-5535,-96.063719,36.075495,"(36.075495, -96.063719)"
Oaks,377 W Main,Oaks,OK,74359,(918) 253-4988,-94.855392,36.166149,"(36.166149, -94.855392)"
Oakwood,102 S Missouri St,Oakwood,OK,73658,(580) 891-3391,-98.69859,35.913167,"(35.913167, -98.69859)"
Ochelata,300 Ochelata St,Ochelata,OK,74051,(918) 335-1786,-95.979754,36.603403,"(36.603403, -95.979754)"
Oilton,101 E Main St,Oilton,OK,74052,(918) 862-3363,-96.585591,36.086309,"(36.086309, -96.585591)"
Okarche,120 W Oklahoma St,Okarche,OK,73762,(405) 263-4444,-97.973627,35.725914,"(35.725914, -97.973627)"
Okay,3620 E 75th St N,Okay,OK,74446,(918) 683-3985,-95.315994,35.850729,"(35.850729, -95.315994)"
Okeene,201 N 5th St,Okeene,OK,73763,(580) 822-3447,-98.315819,36.12319,"(36.12319, -98.315819)"
Okemah,418 W Broadway St,Okemah,OK,74859,(918) 623-0112,-96.305067,35.431705,"(35.431705, -96.305067)"
Oklahoma City,1101 S Agnew Ave,Oklahoma City,OK,73108,(405) 234-8230,-97.554699,35.454809,"(35.454809, -97.554699)"
Oklahoma City,1117 NW 24th St,Oklahoma City,OK,73106,(405) 528-1251,-97.530415,35.494417,"(35.494417, -97.530415)"
Oklahoma City,1930 NE 24th St,Oklahoma City,OK,73111,(405) 427-6653,-97.478159,35.494778,"(35.494778, -97.478159)"
Oklahoma City,2304 W Hefner Rd,Oklahoma City,OK,73120,(405) 751-7384,-97.553332,35.580005,"(35.580005, -97.553332)"
Oklahoma City,2401 N Lincoln Blvd,Oklahoma City,OK,73105,(405) 525-6076,-97.505549,35.494454,"(35.494454, -97.505549)"
Oklahoma City,301 W Britton Rd,Oklahoma City,OK,73114,(405) 848-8725,-97.518188,35.565735,"(35.565735, -97.518188)"
Oklahoma City,3022 W I 44 Service Rd,Oklahoma City,OK,73112,(405) 946-8493,-97.568123,35.510985,"(35.510985, -97.568123)"
Oklahoma City,305 NW 5th St,Oklahoma City,OK,73102,(405) 232-2198,-97.518009,35.473167,"(35.473167, -97.518009)"
Oklahoma City,320 SW 5th St,Oklahoma City,OK,73125,(999) 999-9999,-97.518252,35.459865,"(35.459865, -97.518252)"
Oklahoma City,3621 NW 16th St,Oklahoma City,OK,73107,(405) 946-5038,-97.582021,35.486185,"(35.486185, -97.582021)"
Oklahoma City,3681 H Ave,Oklahoma City,OK,73145,(800) 275-8777,-97.405901,35.428511,"(35.428511, -97.405901)"
Oklahoma City,4440 SE 44th St,Oklahoma City,OK,73135,(405) 672-7851,-97.438009,35.420642,"(35.420642, -97.438009)"
Oklahoma City,4500 SE 28th St,Oklahoma City,OK,73115,(405) 672-5831,-97.437075,35.436104,"(35.436104, -97.437075)"
Oklahoma City,4801 S I 35 Service Rd,Oklahoma City,OK,73129,(405) 677-9439,-97.490035,35.418026,"(35.418026, -97.490035)"
Oklahoma City,4901 W Reno Ave,Oklahoma City,OK,73127,(405) 942-4973,-97.60688,35.464563,"(35.464563, -97.60688)"
Oklahoma City,5300 N Shartel Ave,Oklahoma City,OK,73118,(405) 848-0986,-97.525463,35.523611,"(35.523611, -97.525463)"
Oklahoma City,5701 NW 4th St,Oklahoma City,OK,73127,(405) 942-3679,-97.617124,35.469758,"(35.469758, -97.617124)"
Oklahoma City,5701 S Agnew Ave,Oklahoma City,OK,73119,(405) 688-6747,-97.555068,35.408842,"(35.408842, -97.555068)"
Oklahoma City,601 S Service Rd,Oklahoma City,OK,73160,(405) 794-1733,-97.491688,35.319716,"(35.319716, -97.491688)"
Oklahoma City,6421 N Macarthur Blvd,Oklahoma City,OK,73132,(405) 721-7528,-97.619134,35.537097,"(35.537097, -97.619134)"
Oklahoma City,6500 Air Cargo Rd,Oklahoma City,OK,73195,(405) 553-6321,-97.594601,35.402357,"(35.402357, -97.594601)"
Oklahoma City,701 N Kelley Ave,Oklahoma City,OK,73117,(405) 236-0534,-97.495239,35.473952,"(35.473952, -97.495239)"
Oklahoma City,7800 W Hefner Rd,Oklahoma City,OK,73162,(405) 722-7695,-97.652319,35.579995,"(35.579995, -97.652319)"
Oklahoma City,8275 E Reno Ave,Oklahoma City,OK,73110,(800) 275-8777,-97.383908,35.464193,"(35.464193, -97.383908)"
Oklahoma City,9201 S Pennsylvania Ave,Oklahoma City,OK,73159,(405) 378-3726,-97.547989,35.375297,"(35.375297, -97.547989)"
Okmulgee,111 W 4th St,Okmulgee,OK,74447,(918) 756-3747,-95.971866,35.624798,"(35.624798, -95.971866)"
Oktaha,104 E Prairie,Oktaha,OK,74450,(918) 683-2733,-95.472726,35.57647,"(35.57647, -95.472726)"
Olustee,104 E 4th St,Olustee,OK,73560,(580) 648-2301,-99.423691,34.54874,"(34.54874, -99.423691)"
Omega,100 Main St,Omega,OK,73764,(405) 729-4266,-98.171597,35.84836,"(35.84836, -98.171597)"
Oologah,150 W Coweescowee Ave,Oologah,OK,74053,(918) 443-2529,-95.706672,36.447177,"(36.447177, -95.706672)"
Orlando,100 Highway 77,Orlando,OK,73073,(580) 455-2228,-97.377199,36.152673,"(36.152673, -97.377199)"
Osage,101 S Broadway,Osage,OK,74054,(918) 354-2385,-96.415767,36.298398,"(36.298398, -96.415767)"
Overbrook,209 Highway 77 S,Overbrook,OK,73453,(580) 223-2795,-97.143356,34.06188,"(34.06188, -97.143356)"
Owasso,1233 N Cedar St,Owasso,OK,74055,(918) 274-9376,-95.851284,36.278845,"(36.278845, -95.851284)"
Paden,813 S Main St,Paden,OK,74860,(405) 932-5171,-96.567874,35.506592,"(35.506592, -96.567874)"
Panama,901 N Kentucky St,Panama,OK,74951,(918) 963-2326,-94.673415,35.176753,"(35.176753, -94.673415)"
Panola,5755 Highway 270 E,Panola,OK,74559,(918) 465-5064,-95.237439,34.92673,"(34.92673, -95.237439)"
Wardville,305 Main St,Wardville,OK,74576,(918) 874-3551,-96.030397,34.658453,"(34.658453, -96.030397)"
Warner,805 Second Ave,Warner,OK,74469,(918) 463-2410,-95.307689,35.49254,"(35.49254, -95.307689)"
Washington,214 N Main Ave,Washington,OK,73093,(405) 288-0225,-97.476983,35.147713,"(35.147713, -97.476983)"
Watonga,121 N Noble Ave,Watonga,OK,73772,(580) 623-5095,-98.4133,35.844746,"(35.844746, -98.4133)"
Watson,100 Highway 4,Watson,OK,74963,(580) 244-3424,-94.475829,34.431888,"(34.431888, -94.475829)"
Watts,601 E 6th St,Watts,OK,74964,(918) 422-5986,-94.567493,36.11017,"(36.11017, -94.567493)"
Waukomis,504 E Euclid St,Waukomis,OK,73773,(580) 758-3274,-97.894387,36.280125,"(36.280125, -97.894387)"
Waurika,121 W Broadway Ave,Waurika,OK,73573,(580) 228-2991,-98.001832,34.163781,"(34.163781, -98.001832)"
Wayne,100 S Shannon St,Wayne,OK,73095,(405) 449-3517,-97.313584,34.91917,"(34.91917, -97.313584)"
Waynoka,1620 Santa Fe St,Waynoka,OK,73860,(580) 824-2702,-98.881208,36.584382,"(36.584382, -98.881208)"
Weatherford,107 E Franklin Ave,Weatherford,OK,73096,(580) 772-2412,-98.707517,35.527285,"(35.527285, -98.707517)"
Webbers Falls,116 Commercial St,Webbers Falls,OK,74470,(918) 464-2521,-95.129414,35.51093,"(35.51093, -95.129414)"
Welch,322 S Commercial St,Welch,OK,74369,(918) 788-3623,-95.094919,36.87386,"(36.87386, -95.094919)"
Weleetka,212 W 9th St,Weleetka,OK,74880,(405) 786-2114,-96.135074,35.345655,"(35.345655, -96.135074)"
Welling,20627 S Welling Rd,Welling,OK,74471,(918) 456-5631,-94.898973,35.873579,"(35.873579, -94.898973)"
Wellston,401 2nd St,Wellston,OK,74881,(405) 356-2750,-97.06515,35.694422,"(35.694422, -97.06515)"
Westville,210 S Williams St,Westville,OK,74965,(918) 723-3231,-94.594629,35.994874,"(35.994874, -94.594629)"
Wetumka,119 N Main St,Wetumka,OK,74883,(405) 452-3391,-96.241484,35.237577,"(35.237577, -96.241484)"
Wewoka,115 W 2nd St,Wewoka,OK,74884,(405) 257-3214,-96.491896,35.157865,"(35.157865, -96.491896)"
Wheatland,6920 S Main St,Wheatland,OK,73097,(405) 745-4874,-97.651969,35.397895,"(35.397895, -97.651969)"
Whitefield,201 N Main St,Whitefield,OK,74472,(918) 967-4482,-95.237299,35.25356,"(35.25356, -95.237299)"
Whitesboro,57137 White Wood Dr,Whitesboro,OK,74577,(918) 567-2469,-94.824491,34.681519,"(34.681519, -94.824491)"
Wilburton,205 E Main St,Wilburton,OK,74578,(918) 465-2332,-95.307597,34.918928,"(34.918928, -95.307597)"
Willow,113 W Main St,Willow,OK,73673,(580) 287-3491,-99.503248,35.009469,"(35.009469, -99.503248)"
Wilson,1224 US Highway 70A,Wilson,OK,73463,(580) 668-2434,-97.427604,34.161939,"(34.161939, -97.427604)"
Wister,204 Plum St,Wister,OK,74966,(918) 655-7570,-94.724668,34.967334,"(34.967334, -94.724668)"
Woodward,2020 Williams Ave,Woodward,OK,73801,(580) 256-7138,-99.390531,36.42615,"(36.42615, -99.390531)"
Wright City,301 W 10th St,Wright City,OK,74766,(580) 981-2725,-95.002601,34.068011,"(34.068011, -95.002601)"
Wyandotte,12 N Main St,Wyandotte,OK,74370,(918) 678-2250,-94.725375,36.793868,"(36.793868, -94.725375)"
Wynnewood,115 E Robert S Kerr Blvd,Wynnewood,OK,73098,(405) 665-4235,-97.170143,34.642537,"(34.642537, -97.170143)"
Wynona,202 W 4th St,Wynona,OK,74084,(918) 846-2780,-96.328575,36.547003,"(36.547003, -96.328575)"
Yale,209 W Broadway Ave,Yale,OK,74085,(918) 387-2441,-96.702088,36.1139,"(36.1139, -96.702088)"
Yukon,900 Garth Brooks Blvd,Yukon,OK,73099,(405) 350-1474,-97.760419,35.497418,"(35.497418, -97.760419)"
Pauls Valley,120 W Paul Ave,Pauls Valley,OK,73075,(405) 238-3268,-97.219877,34.740391,"(34.740391, -97.219877)"
Pawhuska,137 E 6th St,Pawhuska,OK,74056,(918) 287-4482,-96.339034,36.664556,"(36.664556, -96.339034)"
Pawnee,658 Illinois St,Pawnee,OK,74058,(918) 762-3266,-96.804964,36.339256,"(36.339256, -96.804964)"
Peggs,6580 N Sylvan St,Peggs,OK,74452,(918) 598-3212,-95.046953,36.103248,"(36.103248, -95.046953)"
Paoli,307 S Oklahoma St,Paoli,OK,73074,(405) 484-7374,-97.259339,34.82386,"(34.82386, -97.259339)"
Park Hill,21286 S Keeler Dr,Park Hill,OK,74451,(918) 456-0980,-94.958454,35.866929,"(35.866929, -94.958454)"
Perkins,114 W Stumbo Ave,Perkins,OK,74059,(405) 547-2922,-97.033945,35.972917,"(35.972917, -97.033945)"
Perry,326 N 7th St,Perry,OK,73077,(580) 336-2504,-97.288065,36.286454,"(36.286454, -97.288065)"
Picher,100 S Connell Ave,Picher,OK,74360,(918) 673-1029,-94.83098,36.985188,"(36.985188, -94.83098)"
Pickens,100 Main St,Pickens,OK,74752,(580) 241-5285,-95.004799,34.39361,"(34.39361, -95.004799)"
Piedmont,112 Jackson Ave NW,Piedmont,OK,73078,(405) 373-0251,-97.746691,35.643259,"(35.643259, -97.746691)"
Pittsburg,500 E Broadway St,Pittsburg,OK,74560,(918) 432-5293,-95.849826,34.713987,"(34.713987, -95.849826)"
Platter,313 2nd St,Platter,OK,74753,(580) 965-4781,-96.535484,33.909435,"(33.909435, -96.535484)"
Pocasset,130 Main St,Pocasset,OK,73079,(405) 459-6767,-97.952978,35.196141,"(35.196141, -97.952978)"
Pocola,101 E Victor Ln,Pocola,OK,74902,(918) 436-2780,-94.477708,35.255753,"(35.255753, -94.477708)"
Ponca City,402 E Grand Ave,Ponca City,OK,74601,(580) 762-2485,-97.079709,36.703516,"(36.703516, -97.079709)"
Pond Creek,104 W Broadway St,Pond Creek,OK,73766,(580) 532-6338,-97.799985,36.66955,"(36.66955, -97.799985)"
Porter,300 Main St,Porter,OK,74454,(918) 483-0401,-95.522536,35.867755,"(35.867755, -95.522536)"
Porum,105 Seminole St,Porum,OK,74455,(918) 484-5537,-95.260294,35.3588,"(35.3588, -95.260294)"
Poteau,115 N Witte St,Poteau,OK,74953,(918) 647-3410,-94.621573,35.052449,"(35.052449, -94.621573)"
Prague,901 Klabzuba Ave,Prague,OK,74864,(405) 567-3723,-96.684707,35.485662,"(35.485662, -96.684707)"
Preston,10040 Polk Ave,Preston,OK,74456,(918) 756-1878,-95.990509,35.70973,"(35.70973, -95.990509)"
Proctor,100 Highway 62,Proctor,OK,74457,(918) 723-5828,-94.765369,35.966036,"(35.966036, -94.765369)"
Prue,507 Main St,Prue,OK,74060,(918) 242-3220,-96.270071,36.255636,"(36.255636, -96.270071)"
Pryor,111 S Adair St,Pryor,OK,74361,(918) 825-0912,-95.317729,36.305498,"(36.305498, -95.317729)"
Purcell,228 W Main St,Purcell,OK,73080,(405) 527-3080,-97.361577,35.012105,"(35.012105, -97.361577)"
Putnam,102 N Main St,Putnam,OK,73659,(580) 582-6262,-98.968903,35.849566,"(35.849566, -98.968903)"
Quapaw,601 Main St,Quapaw,OK,74363,(918) 674-2511,-94.788023,36.950842,"(36.950842, -94.788023)"
Wainwright,103 Main St,Wainwright,OK,74468,(918) 474-3214,-95.564829,35.614445,"(35.614445, -95.564829)"
Wakita,121 E Main,Wakita,OK,73771,(580) 594-2902,-97.921557,36.883188,"(36.883188, -97.921557)"
Walters,130 W Colorado St,Walters,OK,73572,(580) 875-3339,-98.309755,34.357852,"(34.357852, -98.309755)"
Dill City,606 S McDonald St,Dill City,OK,73641,(580) 674-3313,-99.129705,35.277723,"(35.277723, -99.129705)"
Disney,303 E Main St,Disney,OK,74340,(918) 435-4247,-95.019013,36.479354,"(36.479354, -95.019013)"
Dougherty,100 E Main St,Dougherty,OK,73032,(580) 993-2040,-97.054109,34.40086,"(34.40086, -97.054109)"
Douglas,419 Diener,Douglas,OK,73733,(580) 862-7223,-97.667946,36.260405,"(36.260405, -97.667946)"
Dover,120 N Chisholm Trail,Dover,OK,73734,(405) 828-4636,-97.911556,35.981295,"(35.981295, -97.911556)"
Drummond,319 Main St,Drummond,OK,73735,(580) 493-2290,-98.036495,36.300999,"(36.300999, -98.036495)"
Drumright,118 N Ohio Ave,Drumright,OK,74030,(918) 352-3694,-96.599364,35.988813,"(35.988813, -96.599364)"
Duke,106 E 2nd St,Duke,OK,73532,(580) 679-3562,-99.570133,34.661296,"(34.661296, -99.570133)"
Duncan,802 W Willow Ave,Duncan,OK,73533,(580) 255-7226,-97.957142,34.500607,"(34.500607, -97.957142)"
Durant,1223 W Main St,Durant,OK,74701,(580) 924-6464,-96.389268,33.99387,"(33.99387, -96.389268)"
Durham,1 E Main St,Durham,OK,73642,(580) 983-2281,-99.925314,35.820351,"(35.820351, -99.925314)"
Dustin,127 N Broadway St,Dustin,OK,74839,(918) 656-3285,-96.030784,35.26762,"(35.26762, -96.030784)"
Eagletown,104 E Highway 70,Eagletown,OK,74734,(580) 835-2559,-94.584889,34.04507,"(34.04507, -94.584889)"
Eakly,400 W Main St,Eakly,OK,73033,(405) 797-3353,-98.556819,35.30513,"(35.30513, -98.556819)"
Earlsboro,220 W Main St,Earlsboro,OK,74840,(405) 997-5327,-96.805219,35.26791,"(35.26791, -96.805219)"
Edmond,407 W Covell Rd,Edmond,OK,73003,(405) 844-0583,-97.492902,35.682087,"(35.682087, -97.492902)"
Edmond,801 W 33rd St,Edmond,OK,73013,(405) 348-9104,-97.494929,35.623711,"(35.623711, -97.494929)"
El Reno,203 N Evans Ave,El Reno,OK,73036,(405) 262-5095,-97.956157,35.534214,"(35.534214, -97.956157)"
Eldorado,116 N 4th St,Eldorado,OK,73537,(580) 633-2528,-99.648669,34.4672,"(34.4672, -99.648669)"
Elgin,8292 State Highway 17,Elgin,OK,73538,(580) 492-4795,-98.290158,34.782611,"(34.782611, -98.290158)"
Elk City,101 S Adams Ave,Elk City,OK,73644,(580) 225-0294,-99.407582,35.410566,"(35.410566, -99.407582)"
Elmer,717 Main St,Elmer,OK,73539,(580) 687-4460,-99.346883,34.478737,"(34.478737, -99.346883)"
Elmore City,204 S Main St,Elmore City,OK,73433,(580) 788-2597,-97.39641,34.621959,"(34.621959, -97.39641)"
Enid,115 W Broadway Ave,Enid,OK,73701,(580) 237-4331,-97.878688,36.396508,"(36.396508, -97.878688)"
Erick,119 W 3rd St,Erick,OK,73645,(580) 526-3254,-99.867648,35.214027,"(35.214027, -99.867648)"
Eucha,101 Main St,Eucha,OK,74342,(918) 253-4956,-94.934681,36.4713,"(36.4713, -94.934681)"
Eufaula,131 W Foley St,Eufaula,OK,74432,(918) 689-2622,-95.582956,35.286433,"(35.286433, -95.582956)"
Fairfax,151 E Elm St,Fairfax,OK,74637,(918) 642-3254,-96.703592,36.573538,"(36.573538, -96.703592)"
Fairland,121 N Oliver,Fairland,OK,74343,(918) 676-3831,-94.853415,36.749857,"(36.749857, -94.853415)"
Fairmont,620 Main St,Fairmont,OK,73736,(580) 358-2289,-97.706701,36.356044,"(36.356044, -97.706701)"
Fairview,115 W Broadway,Fairview,OK,73737,(580) 227-4838,-98.480183,36.268918,"(36.268918, -98.480183)"
Fanshawe,201 Main St,Fanshawe,OK,74935,(918) 659-2259,-94.986246,34.898051,"(34.898051, -94.986246)"
Fargo,218 S Main St,Fargo,OK,73840,(580) 698-2450,-99.623304,36.374879,"(36.374879, -99.623304)"
Faxon,501 D St,Faxon,OK,73540,(580) 597-6648,-98.561518,34.469638,"(34.469638, -98.561518)"
Fay,120 N Custer St,Fay,OK,73646,(580) 887-3426,-98.66775,35.83424,"(35.83424, -98.66775)"
Felt,101 Lincoln St,Felt,OK,73937,(580) 426-2280,-102.794208,36.566999,"(36.566999, -102.794208)"
Finley,300 Main St,Finley,OK,74543,(580) 298-2019,-95.52473,34.313631,"(34.313631, -95.52473)"
Fittstown,101 US Highway 377,Fittstown,OK,74842,(580) 777-2288,-96.634644,34.55618,"(34.55618, -96.634644)"
Fitzhugh,100 E Lee St,Fitzhugh,OK,74843,(580) 436-1425,-96.774685,34.668032,"(34.668032, -96.774685)"
Fort Gibson,201 W Poplar St,Fort Gibson,OK,74434,(918) 478-2181,-95.251362,35.796992,"(35.796992, -95.251362)"
Fletcher,103 N Selby St,Fletcher,OK,73541,(580) 549-6257,-98.24489,34.823236,"(34.823236, -98.24489)"
Forgan,115 S Broadway St,Forgan,OK,73938,(580) 487-3722,-100.535629,36.907157,"(36.907157, -100.535629)"
Fort Sill,6605 NW Fort Sill Blvd,Fort Sill,OK,73503,(580) 355-7738,-98.403017,34.673134,"(34.673134, -98.403017)"
Fort Supply,229 Broadway St,Fort Supply,OK,73841,(580) 766-3781,-99.571118,36.573571,"(36.573571, -99.571118)"
Fort Towson,100 Main St,Fort Towson,OK,74735,(580) 873-2218,-95.202249,34.01961,"(34.01961, -95.202249)"
Foss,202 E Broadway St,Foss,OK,73647,(580) 592-4733,-99.170349,35.456572,"(35.456572, -99.170349)"
Foster,200 Highway 29a,Foster,OK,73434,(580) 432-5598,-97.489299,34.617208,"(34.617208, -97.489299)"
Fox,20378 State Highway 76,Fox,OK,73435,(580) 673-2022,-97.492939,34.36406,"(34.36406, -97.492939)"
Foyil,100 E 3rd St,Foyil,OK,74031,(918) 341-6229,-95.521889,36.43361,"(36.43361, -95.521889)"
Francis,231 W Main St,Francis,OK,74844,(580) 436-3017,-96.599566,34.873615,"(34.873615, -96.599566)"
Frederick,120 E Grand Ave,Frederick,OK,73542,(580) 335-3021,-99.016678,34.389471,"(34.389471, -99.016678)"
Freedom,448 4th St,Freedom,OK,73842,(580) 621-3501,-99.160296,36.84135,"(36.84135, -99.160296)"
Gage,403 N Main St,Gage,OK,73843,(580) 923-7446,-99.755979,36.31813,"(36.31813, -99.755979)"
Gans,100 S Stacy Ave,Gans,OK,74936,(918) 775-4982,-94.678639,35.403405,"(35.403405, -94.678639)"
Garber,104 Main St,Garber,OK,73738,(580) 863-2250,-97.581969,36.441548,"(36.441548, -97.581969)"
Garvin,10 N Love St,Garvin,OK,74736,(580) 286-3103,-94.940604,33.955505,"(33.955505, -94.940604)"
Gate,102 E Main St,Gate,OK,73844,(580) 934-2651,-100.058409,36.853375,"(36.853375, -100.058409)"
Geary,120 NW 1st St,Geary,OK,73040,(405) 884-2771,-98.317761,35.631983,"(35.631983, -98.317761)"
Gene Autry,45 Prairie St,Gene Autry,OK,73436,(580) 294-3111,-97.041405,34.282852,"(34.282852, -97.041405)"
Geronimo,200 Main St,Geronimo,OK,73543,(580) 353-0173,-98.390107,34.480825,"(34.480825, -98.390107)"
Glenpool,14169 S Broadway St,Glenpool,OK,74033,(918) 322-3273,-96.007886,35.958627,"(35.958627, -96.007886)"
Golden,100 Line St,Golden,OK,74737,(580) 420-6505,-94.897161,34.032788,"(34.032788, -94.897161)"
Goodwell,105 S Main St,Goodwell,OK,73939,(580) 349-2490,-101.632593,36.593684,"(36.593684, -101.632593)"
Gore,402 N Main St,Gore,OK,74435,(918) 489-5603,-95.115221,35.5315,"(35.5315, -95.115221)"
Countyline,1 W Main St,Countyline,OK,73425,(580) 856-3425,-97.569434,34.44799,"(34.44799, -97.569434)"
Covington,316 W Main St,Covington,OK,73730,(580) 864-7449,-97.589167,36.306004,"(36.306004, -97.589167)"
Coweta,215 W Sycamore St,Coweta,OK,74429,(918) 486-5634,-95.652081,35.951082,"(35.951082, -95.652081)"
Coyle,208 E Main St,Coyle,OK,73027,(405) 466-2265,-97.234271,35.956673,"(35.956673, -97.234271)"
Crawford,1 E Crawford Rd,Crawford,OK,73638,(580) 983-2203,-99.818223,35.85225,"(35.85225, -99.818223)"
Crescent,115 N Grand St,Crescent,OK,73028,(405) 969-3314,-97.595637,35.952797,"(35.952797, -97.595637)"
Cromwell,104 N Shawnee Ave,Cromwell,OK,74837,(405) 944-5505,-96.458883,35.340687,"(35.340687, -96.458883)"
Crowder,100 N B St,Crowder,OK,74430,(918) 334-3701,-95.67486,35.123815,"(35.123815, -95.67486)"
Cushing,116 S Cleveland Ave,Cushing,OK,74023,(918) 225-4665,-96.77252,35.979767,"(35.979767, -96.77252)"
Connerville,7121 N Highway 377,Connerville,OK,74836,(580) 836-7911,-96.634979,34.44846,"(34.44846, -96.634979)"
Cookson,32094 Highway 82,Cookson,OK,74427,(918) 457-5471,-94.918357,35.709403,"(35.709403, -94.918357)"
Copan,207 S Caney St,Copan,OK,74022,(918) 532-4385,-95.926143,36.896246,"(36.896246, -95.926143)"
Cordell,121 E 1st St,Cordell,OK,73632,(580) 832-2494,-98.989889,35.292477,"(35.292477, -98.989889)"
Corn,208 W Main St,Corn,OK,73024,(580) 343-2311,-98.784095,35.377831,"(35.377831, -98.784095)"
Council Hill,115 S Broadway St,Council Hill,OK,74428,(918) 474-3282,-95.651429,35.55608,"(35.55608, -95.651429)"
Howe,21525 W Main St,Howe,OK,74940,(918) 658-3415,-94.639632,34.949942,"(34.949942, -94.639632)"
Hugo,207 N 4th St,Hugo,OK,74743,(580) 326-6696,-95.5088,34.010917,"(34.010917, -95.5088)"
Hulbert,402 E Main St,Hulbert,OK,74441,(918) 772-2522,-95.139431,35.932649,"(35.932649, -95.139431)"
Hunter,126 N Maine St,Hunter,OK,74640,(580) 684-7723,-97.661415,36.564787,"(36.564787, -97.661415)"
Hydro,221 W Main St,Hydro,OK,73048,(405) 663-2577,-98.581301,35.549625,"(35.549625, -98.581301)"
Idabel,201 N Central Ave,Idabel,OK,74745,(580) 286-2149,-94.828619,33.895971,"(33.895971, -94.828619)"
Indiahoma,308 Main St,Indiahoma,OK,73552,(580) 246-3351,-98.751384,34.619616,"(34.619616, -98.751384)"
Indianola,212 Main St,Indianola,OK,74442,(918) 823-4514,-95.769269,35.11599,"(35.11599, -95.769269)"
Inola,25 2nd St SW,Inola,OK,74036,(918) 543-4923,-95.507885,36.148967,"(36.148967, -95.507885)"
Isabella,130 W Main St,Isabella,OK,73747,(580) 822-3492,-98.326401,36.231686,"(36.231686, -98.326401)"
Jay,409 S 6th St,Jay,OK,74346,(918) 253-4988,-94.798826,36.419967,"(36.419967, -94.798826)"
Jenks,217 E Main St,Jenks,OK,74037,(918) 299-8008,-95.968069,36.022756,"(36.022756, -95.968069)"
Jenks,303 E A St,Jenks,OK,74037,(918) 296-0893,-95.966973,36.023669,"(36.023669, -95.966973)"
Jennings,718 N Main,Jennings,OK,74038,(918) 757-2296,-96.570011,36.184739,"(36.184739, -96.570011)"
Jet,418 Main St,Jet,OK,73749,(580) 626-4567,-98.179928,36.666133,"(36.666133, -98.179928)"
Jones,120 E Main St,Jones,OK,73049,(405) 399-4598,-97.286007,35.565545,"(35.565545, -97.286007)"
Commerce,301 Commerce St,Commerce,OK,74339,(918) 675-4617,-94.874088,36.933307,"(36.933307, -94.874088)"
Concho,400 N Lefthand Ave,Concho,OK,73022,(405) 262-2786,-97.959229,35.61422,"(35.61422, -97.959229)"
Kansas,491 W Main St,Kansas,OK,74347,(918) 868-2759,-94.803686,36.209066,"(36.209066, -94.803686)"
Kaw City,701 Morgan Sq,Kaw City,OK,74641,(580) 269-2914,-96.859886,36.765804,"(36.765804, -96.859886)"
Kellyville,218 E Buffalo,Kellyville,OK,74039,(918) 247-6344,-96.214283,35.943543,"(35.943543, -96.214283)"
Kenefic,117 Mary St,Kenefic,OK,74748,(580) 367-2428,-96.362787,34.143775,"(34.143775, -96.362787)"
Kenton,100 S Newbert,Kenton,OK,73946,(405) 261-7474,-102.962061,36.902137,"(36.902137, -102.962061)"
Keota,300 W Main St,Keota,OK,74941,(918) 966-3979,-94.918119,35.25795,"(35.25795, -94.918119)"
Ketchum,435 N Main,Ketchum,OK,74349,(918) 782-2160,-95.026609,36.524595,"(36.524595, -95.026609)"
Keyes,101 E Ramsey Ave,Keyes,OK,73947,(580) 546-7331,-102.2518,36.805887,"(36.805887, -102.2518)"
Kiefer,418 E Indian,Kiefer,OK,74041,(918) 321-9509,-96.059117,35.944514,"(35.944514, -96.059117)"
Kingfisher,214 S Main St,Kingfisher,OK,73750,(405) 375-6686,-97.932794,35.859593,"(35.859593, -97.932794)"
Kingston,101 N Main St,Kingston,OK,73439,(580) 564-3325,-96.719516,33.999432,"(33.999432, -96.719516)"
Kinta,301 W Broadway St,Kinta,OK,74552,(918) 768-3554,-95.236394,35.116105,"(35.116105, -95.236394)"
Kiowa,209 S Harrison Ave,Kiowa,OK,74553,(918) 432-5441,-95.903909,34.72634,"(34.72634, -95.903909)"
Konawa,100 S Broadway St,Konawa,OK,74849,(580) 925-3656,-96.751968,34.957202,"(34.957202, -96.751968)"
Krebs,40 S Main St,Krebs,OK,74554,(918) 423-6044,-95.776159,34.89993,"(34.89993, -95.776159)"
Kremlin,3415 E Keowee Rd,Kremlin,OK,73753,(580) 874-2228,-97.830483,36.550041,"(36.550041, -97.830483)"
Lahoma,535 Main St,Lahoma,OK,73754,(580) 796-2290,-98.089229,36.388718,"(36.388718, -98.089229)"
Lamar,201 Jefferson St,Lamar,OK,74850,(405) 379-2029,-96.132549,35.09955,"(35.09955, -96.132549)"
Lamont,102 N Main St,Lamont,OK,74643,(580) 388-6698,-97.557009,36.690846,"(36.690846, -97.557009)"
Lane,1020 E Highway 3,Lane,OK,74555,(580) 889-3861,-95.979007,34.294857,"(34.294857, -95.979007)"
Langley,213 S 3rd St,Langley,OK,74350,(918) 782-9383,-95.048632,36.464632,"(36.464632, -95.048632)"
Langston,100 Wiley Jones St,Langston,OK,73050,(405) 466-2447,-97.252046,35.946233,"(35.946233, -97.252046)"
Laverne,206 W Jane Jayroe Blvd,Laverne,OK,73848,(580) 921-5522,-99.914029,36.709565,"(36.709565, -99.914029)"
Lawton,501 SW 5th St,Lawton,OK,73501,(580) 353-1500,-98.395256,34.602816,"(34.602816, -98.395256)"
Lawton,2310 E Gore Blvd,Lawton,OK,73501,(580) 357-7113,-98.360504,34.608943,"(34.608943, -98.360504)"
Lawton,2800 W Gore Blvd,Lawton,OK,73505,(580) 581-2378,-98.433829,34.608846,"(34.608846, -98.433829)"
Lawton,4510 SE Lee Blvd,Lawton,OK,73501,(580) 248-0811,-98.334491,34.594492,"(34.594492, -98.334491)"
Lawton,6601 W Gore Blvd,Lawton,OK,73505,(580) 536-3526,-98.473314,34.609153,"(34.609153, -98.473314)"
Lebanon,442 Highway 32,Lebanon,OK,73440,(580) 795-2935,-96.909814,33.983489,"(33.983489, -96.909814)"
Leedey,515 S Main St,Leedey,OK,73654,(580) 488-2925,-99.347279,35.86791,"(35.86791, -99.347279)"
LeFlore,130 State St,LeFlore,OK,74942,(918) 753-2383,-94.981304,34.8975,"(34.8975, -94.981304)"
Lehigh,105 N Highway 75,Lehigh,OK,74556,(580) 927-2424,-96.218159,34.479625,"(34.479625, -96.218159)"
Lenapah,500 Shawnee,Lenapah,OK,74042,(918) 468-2470,-95.636488,36.846297,"(36.846297, -95.636488)"
Leon,25 E 5th St,Leon,OK,73441,(580) 276-5646,-97.428689,33.87908,"(33.87908, -97.428689)"
Leonard,15801 E 167th St So,Leonard,OK,74043,(918) 366-8899,-95.785979,35.91652,"(35.91652, -95.785979)"
Lequire,104 W Front St,Lequire,OK,74943,(918) 967-4201,-95.105921,35.104708,"(35.104708, -95.105921)"
Lexington,115 NE 2nd St,Lexington,OK,73051,(405) 527-2003,-97.332715,35.015188,"(35.015188, -97.332715)"
Lindsay,426 S Main St,Lindsay,OK,73052,(405) 756-2239,-97.602926,34.833194,"(34.833194, -97.602926)"
Loco,115 W 2nd St,Loco,OK,73442,(580) 537-2382,-97.680579,34.32911,"(34.32911, -97.680579)"
Locust Grove,700 Elora St,Locust Grove,OK,74352,(918) 479-5693,-95.159553,36.200815,"(36.200815, -95.159553)"
Lone Grove,25 Heritage St,Lone Grove,OK,73443,(580) 657-4730,-97.247975,34.172402,"(34.172402, -97.247975)"
Lone Wolf,1024 Main St,Lone Wolf,OK,73655,(580) 846-5530,-99.248449,34.989406,"(34.989406, -99.248449)"
Longdale,500 Ken Miller Blvd,Longdale,OK,73755,(580) 274-3240,-98.547671,36.13738,"(36.13738, -98.547671)"
Lookeba,201 W Wichita St,Lookeba,OK,73053,(405) 457-6651,-98.385755,35.363024,"(35.363024, -98.385755)"
Loyal,102 E Main St,Loyal,OK,73756,(405) 729-4290,-98.121054,35.973165,"(35.973165, -98.121054)"
Lucien,620 SW 3rd St,Lucien,OK,73757,(580) 336-3234,-97.454857,36.274512,"(36.274512, -97.454857)"
Luther,506 S Ash,Luther,OK,73054,(405) 277-3292,-97.194543,35.658209,"(35.658209, -97.194543)"
Macomb,36654 Second St,Macomb,OK,74852,(405) 598-5078,-97.008454,35.146255,"(35.146255, -97.008454)"
Madill,223 W Lillie Blvd,Madill,OK,73446,(580) 795-2212,-96.772231,34.090318,"(34.090318, -96.772231)"
Manchester,200 Main St,Manchester,OK,73758,(580) 694-2319,-98.03109,36.994099,"(36.994099, -98.03109)"
Mangum,101 S Pennsylvania Ave,Mangum,OK,73554,(580) 782-2306,-99.504489,34.87352,"(34.87352, -99.504489)"
Manitou,300 Highway 183,Manitou,OK,73555,(580) 397-2451,-98.983164,34.510999,"(34.510999, -98.983164)"
Mannford,165 Coonrod Ave,Mannford,OK,74044,(918) 865-4835,-96.356842,36.126195,"(36.126195, -96.356842)"
Mannsville,101 N 20th St,Mannsville,OK,73447,(580) 371-2024,-96.882389,34.189355,"(34.189355, -96.882389)"
Maramec,420 2nd St,Maramec,OK,74045,(918) 454-2267,-96.680739,36.24196,"(36.24196, -96.680739)"
Marble City,105 N Main St,Marble City,OK,74945,(918) 775-7180,-94.820812,35.586437,"(35.586437, -94.820812)"
Marietta,118 W Main St,Marietta,OK,73448,(580) 276-3122,-97.117144,33.937317,"(33.937317, -97.117144)"
Marland,375 N Main St,Marland,OK,74644,(580) 268-3249,-97.150968,36.560648,"(36.560648, -97.150968)"
Marlow,324 W Main St,Marlow,OK,73055,(580) 658-5162,-97.958257,34.647558,"(34.647558, -97.958257)"
Marshall,221 E Main St,Marshall,OK,73056,(580) 935-6847,-97.627928,36.153708,"(36.153708, -97.627928)"
Martha,106 E Church St,Martha,OK,73556,(580) 266-3311,-99.384301,34.724972,"(34.724972, -99.384301)"
Maud,201 W Main St,Maud,OK,74854,(405) 374-2767,-96.778139,35.13124,"(35.13124, -96.778139)"
May,201 Highway 270,May,OK,73851,(580) 689-2322,-99.751799,36.614722,"(36.614722, -99.751799)"
Maysville,622 Main St,Maysville,OK,73057,(405) 867-5350,-97.409569,34.8179,"(34.8179, -97.409569)"
Quinton,911 E Main St,Quinton,OK,74561,(918) 469-2686,-95.366644,35.123351,"(35.123351, -95.366644)"
Ralston,509 Main St,Ralston,OK,74650,(918) 738-4310,-96.730843,36.503843,"(36.503843, -96.730843)"
Ramona,585 Wyandotte Ave,Ramona,OK,74061,(918) 536-4455,-95.926055,36.532283,"(36.532283, -95.926055)"
Randlett,101 S 6th St,Randlett,OK,73562,(580) 281-3471,-98.462364,34.17681,"(34.17681, -98.462364)"
Ratliff City,57 Church St,Ratliff City,OK,73481,(580) 856-3484,-97.516583,34.447949,"(34.447949, -97.516583)"
Rattan,200 Highway 3,Rattan,OK,74562,(580) 587-2337,-95.411799,34.2004,"(34.2004, -95.411799)"
Ravia,312 E Grand St,Ravia,OK,73455,(580) 371-3966,-96.756582,34.240681,"(34.240681, -96.756582)"
Red Oak,100 NE Division St,Red Oak,OK,74563,(918) 754-2614,-95.074824,34.95182,"(34.95182, -95.074824)"
Red Rock,500 Mckinley St,Red Rock,OK,74651,(580) 723-4292,-97.177269,36.46053,"(36.46053, -97.177269)"
Redbird,103 N Main St,Redbird,OK,74458,(918) 483-3761,-95.588879,35.89012,"(35.89012, -95.588879)"
Rentiesville,200 Mcintosh St,Rentiesville,OK,74459,(918) 473-5675,-95.496774,35.523586,"(35.523586, -95.496774)"
Reydon,150 2nd St,Reydon,OK,73660,(580) 655-4595,-99.924439,35.65371,"(35.65371, -99.924439)"
Ringling,105 N 4th St,Ringling,OK,73456,(580) 662-2103,-97.593718,34.178277,"(34.178277, -97.593718)"
Ringold,100 Highway 3,Ringold,OK,74754,(580) 981-2275,-95.038101,34.158564,"(34.158564, -95.038101)"
Ringwood,124 S Main St,Ringwood,OK,73768,(580) 883-2290,-98.244934,36.39046,"(36.39046, -98.244934)"
Ripley,107 E Main St,Ripley,OK,74062,(918) 372-4540,-96.905585,36.018935,"(36.018935, -96.905585)"
Rocky,313 S Main St,Rocky,OK,73661,(580) 666-2468,-99.060674,35.15678,"(35.15678, -99.060674)"
Roff,204 W Main St,Roff,OK,74865,(580) 456-7661,-96.842234,34.627217,"(34.627217, -96.842234)"
Roland,103 Davis Ln,Roland,OK,74954,(918) 427-3032,-94.511551,35.410064,"(35.410064, -94.511551)"
Roosevelt,526 S Main St,Roosevelt,OK,73564,(580) 639-2466,-99.021754,34.850593,"(34.850593, -99.021754)"
Rosston,215 7th St,Rosston,OK,73855,(580) 921-5326,-99.928197,36.81205,"(36.81205, -99.928197)"
Rufe,100 Main St,Rufe,OK,74755,(580) 876-3224,-95.144915,34.127439,"(34.127439, -95.144915)"
Rush Springs,315 W Blakely St,Rush Springs,OK,73082,(580) 476-3897,-97.956566,34.782882,"(34.782882, -97.956566)"
Ryan,1114 5th St,Ryan,OK,73565,(580) 757-2238,-97.958113,34.019749,"(34.019749, -97.958113)"
S Coffeyville,501 Willow St,S Coffeyville,OK,74072,(918) 255-6344,-95.620363,36.994577,"(36.994577, -95.620363)"
Saint Louis,34000 Rock Creek Rd,Saint Louis,OK,74866,(405) 289-3300,-96.859119,35.072349,"(35.072349, -96.859119)"
Salina,200 S Cherokee St,Salina,OK,74365,(918) 434-2520,-95.153173,36.29233,"(36.29233, -95.153173)"
Sallisaw,111 S McGee Dr,Sallisaw,OK,74955,(918) 775-6578,-94.770218,35.458247,"(35.458247, -94.770218)"
Sand Springs,114 W 2nd St,Sand Springs,OK,74063,(918) 245-1832,-96.111799,36.138293,"(36.138293, -96.111799)"
Sapulpa,410 S Main St,Sapulpa,OK,74066,(918) 224-3527,-96.114166,35.993958,"(35.993958, -96.114166)"
Sasakwa,1 Olive St,Sasakwa,OK,74867,(405) 941-3679,-96.525735,34.947224,"(34.947224, -96.525735)"
Savanna,1 S Main St,Savanna,OK,74565,(918) 548-3771,-95.841569,34.82781,"(34.82781, -95.841569)"
Sawyer,100 Dam Access,Sawyer,OK,74756,(580) 326-2747,-95.362676,34.033761,"(34.033761, -95.362676)"
Seiling,209 N Walnut St,Seiling,OK,73663,(580) 922-3304,-98.923279,36.15291,"(36.15291, -98.923279)"
Sayre,201 N 4th St,Sayre,OK,73662,(580) 928-3489,-99.640054,35.292469,"(35.292469, -99.640054)"
Schulter,100 E 8th St,Schulter,OK,74460,(918) 650-9165,-95.955719,35.51252,"(35.51252, -95.955719)"
Seminole,120 E Oak Ave,Seminole,OK,74868,(405) 382-0152,-96.670727,35.225665,"(35.225665, -96.670727)"
Seminole,Oak & 2nd,Seminole,OK,74868,(405) 382-0152,-96.669819,35.2255,"(35.2255, -96.669819)"
Sentinel,312 E Main St,Sentinel,OK,73664,(580) 393-2234,-99.17556,35.158145,"(35.158145, -99.17556)"
Shady Point,23067 Wheelus St,Shady Point,OK,74956,(918) 963-4180,-94.665708,35.13087,"(35.13087, -94.665708)"
Shamrock,108 E Tipperary Rd,Shamrock,OK,74068,(918) 352-9628,-96.577851,35.910767,"(35.910767, -96.577851)"
Sharon,114 N Main St,Sharon,OK,73857,(580) 866-3346,-99.339385,36.274224,"(36.274224, -99.339385)"
Shattuck,507 S Main St,Shattuck,OK,73858,(580) 938-2355,-99.881724,36.271961,"(36.271961, -99.881724)"
Shawnee,116 E 9th St,Shawnee,OK,74801,(405) 878-0184,-96.921882,35.328885,"(35.328885, -96.921882)"
Shidler,301 S Cosdon St,Shidler,OK,74652,(918) 793-4641,-96.671354,36.82547,"(36.82547, -96.671354)"
Skiatook,303 E 2nd St,Skiatook,OK,74070,(918) 396-2495,-95.998652,36.369597,"(36.369597, -95.998652)"
Slick,104 N Columbia,Slick,OK,74071,(918) 367-2401,-96.266819,35.776754,"(35.776754, -96.266819)"
Smithville,200 Highway 4,Smithville,OK,74957,(580) 244-3330,-94.644989,34.467025,"(34.467025, -94.644989)"
Snow,100 Hwy 271,Snow,OK,74567,(580) 298-2875,-95.321998,34.461032,"(34.461032, -95.321998)"
Snyder,401 7th St,Snyder,OK,73566,(580) 569-2209,-98.953039,34.658954,"(34.658954, -98.953039)"
Soper,300 Paris Ave,Soper,OK,74759,(580) 345-2600,-95.697699,34.03401,"(34.03401, -95.697699)"
Southard,300 Highway 51A,Southard,OK,73770,(580) 822-3483,-98.480249,36.059817,"(36.059817, -98.480249)"
Sparks,316 Broadway St,Sparks,OK,74869,(918) 866-2271,-96.821763,35.611616,"(35.611616, -96.821763)"
Spavinaw,125 N Main St,Spavinaw,OK,74366,(918) 589-2217,-95.047001,36.391478,"(36.391478, -95.047001)"
Spencer,3601 Spencer Rd,Spencer,OK,73084,(405) 771-4867,-97.379887,35.50673,"(35.50673, -97.379887)"
Spencerville,101 Spencerville Rd,Spencerville,OK,74760,(580) 326-2959,-95.382561,34.1352,"(34.1352, -95.382561)"
Sperry,117 N Cincinnati Ave,Sperry,OK,74073,(918) 288-6289,-95.991484,36.297606,"(36.297606, -95.991484)"
Spiro,123 N Main St,Spiro,OK,74959,(918) 962-3247,-94.621294,35.241355,"(35.241355, -94.621294)"
Springer,16625 US Highway 77,Springer,OK,73458,(580) 653-2741,-97.143084,34.312182,"(34.312182, -97.143084)"
Sterling,210 W Main St,Sterling,OK,73567,(580) 365-4320,-98.170909,34.750092,"(34.750092, -98.170909)"
Stigler,120 N Broadway St,Stigler,OK,74462,(918) 967-8873,-95.125358,35.254414,"(35.254414, -95.125358)"
Stillwater,809 S Lewis St,Stillwater,OK,74074,(405) 377-3867,-97.057066,36.113302,"(36.113302, -97.057066)"
Stilwell,16 S 2nd St,Stilwell,OK,74960,(918) 696-7173,-94.628639,35.81433,"(35.81433, -94.628639)"
Stonewall,124 W Main St,Stonewall,OK,74871,(580) 265-4220,-96.526457,34.652531,"(34.652531, -96.526457)"
Strang,104 E Broadway,Strang,OK,74367,(918) 593-2390,-95.133877,36.410753,"(36.410753, -95.133877)"
Stratford,116 E Main St,Stratford,OK,74872,(580) 759-2319,-96.954926,34.79545,"(34.79545, -96.954926)"
Stringtown,107 E Reba McEntire Ave,Stringtown,OK,74569,(580) 346-7733,-96.055809,34.4707,"(34.4707, -96.055809)"
Stroud,601 W Main St,Stroud,OK,74079,(918) 968-2626,-96.660377,35.749191,"(35.749191, -96.660377)"
Stuart,619 Roosevelt Ave,Stuart,OK,74570,(918) 546-2626,-96.099414,34.900622,"(34.900622, -96.099414)"
Sulphur,1100 W 2nd St,Sulphur,OK,73086,(580) 622-3030,-96.969758,34.508251,"(34.508251, -96.969758)"
Sweetwater,105 N Highway 30,Sweetwater,OK,73666,(580) 534-2366,-99.911409,35.42275,"(35.42275, -99.911409)"
Swink,100 Front St,Swink,OK,74761,(580) 873-9226,-95.201779,34.019075,"(34.019075, -95.201779)"
Taft,106 West Cherokee St,Taft,OK,74463,(918) 687-6701,-95.549164,35.760746,"(35.760746, -95.549164)"
Tahlequah,1101 S Muskogee Ave,Tahlequah,OK,74464,(918) 456-2381,-94.974306,35.902104,"(35.902104, -94.974306)"
Talala,112 N Pine St,Talala,OK,74080,(918) 275-4343,-95.702372,36.531605,"(36.531605, -95.702372)"
Talihina,405 Dallas Street,Talihina,OK,74571,(918) 567-2924,-95.047764,34.751601,"(34.751601, -95.047764)"
Taloga,112 S Broadway St,Taloga,OK,73667,(580) 328-5634,-98.964047,36.039645,"(36.039645, -98.964047)"
Tatums,26 King St,Tatums,OK,73487,(580) 856-3801,-97.459217,34.483347,"(34.483347, -97.459217)"
Tecumseh,116 W Park St,Tecumseh,OK,74873,(405) 598-6812,-96.937111,35.258555,"(35.258555, -96.937111)"
Temple,209 S Commercial St,Temple,OK,73568,(580) 342-6864,-98.235714,34.269767,"(34.269767, -98.235714)"
Terlton,100 W Main St,Terlton,OK,74081,(918) 757-4215,-96.491998,36.188065,"(36.188065, -96.491998)"
Terral,309 E Apache St,Terral,OK,73569,(580) 437-2343,-97.923259,33.89651,"(33.89651, -97.923259)"
Texhoma,114 S 2nd St,Texhoma,OK,73949,(580) 423-7227,-101.783264,36.503435,"(36.503435, -101.783264)"
Texola,500 Grand St,Texola,OK,73668,(580) 526-3185,-99.991459,35.21973,"(35.21973, -99.991459)"
Thackerville,281 S Highway 77,Thackerville,OK,73459,(580) 276-3777,-97.150734,33.736455,"(33.736455, -97.150734)"
Thomas,108 N Main St,Thomas,OK,73669,(580) 661-2321,-98.747747,35.744131,"(35.744131, -98.747747)"
Tipton,105 E Main St,Tipton,OK,73570,(580) 667-5272,-99.136139,34.50302,"(34.50302, -99.136139)"
Tishomingo,108 N Neshoba St,Tishomingo,OK,73460,(580) 371-3225,-96.678628,34.235199,"(34.235199, -96.678628)"
Tonkawa,207 E Tonkawa Ave,Tonkawa,OK,74653,(580) 628-3174,-97.308427,36.679607,"(36.679607, -97.308427)"
Tryon,10 S Oklahoma St,Tryon,OK,74875,(918) 374-2361,-96.965024,35.869533,"(35.869533, -96.965024)"
Tryon,17 W Central,Tryon,OK,74875,(918) 374-2361,-96.964851,35.869573,"(35.869573, -96.964851)"
Tulsa,111 S Lewis Ave,Tulsa,OK,74104,(918) 584-6817,-95.958017,36.158407,"(36.158407, -95.958017)"
Tulsa,1423 Terrace Dr,Tulsa,OK,74104,(918) 743-1581,-95.959895,36.14188,"(36.14188, -95.959895)"
Tulsa,2032 Utica Sq,Tulsa,OK,74114,(918) 742-1384,-95.964226,36.131793,"(36.131793, -95.964226)"
Tulsa,2920 S 129th East Ave,Tulsa,OK,74134,(918) 664-1791,-95.833384,36.1224,"(36.1224, -95.833384)"
Tulsa,333 W 4th St,Tulsa,OK,74103,(918) 732-6651,-95.995021,36.151057,"(36.151057, -95.995021)"
Tulsa,3408 W 42nd Pl,Tulsa,OK,74107,(918) 446-3976,-96.030989,36.101323,"(36.101323, -96.030989)"
Tulsa,4001 W Edison St,Tulsa,OK,74127,(918) 585-1675,-96.037134,36.161327,"(36.161327, -96.037134)"
Tulsa,5313 E Independence St,Tulsa,OK,74115,(918) 835-8089,-95.917471,36.166354,"(36.166354, -95.917471)"
Tulsa,6110 E 51st Pl,Tulsa,OK,74135,(918) 664-4699,-95.906265,36.088983,"(36.088983, -95.906265)"
Tulsa,626 E Apache St,Tulsa,OK,74106,(918) 584-0765,-95.985487,36.191293,"(36.191293, -95.985487)"
Tulsa,6528 N Peoria Ave,Tulsa,OK,74126,(918) 584-0745,-95.975529,36.24852,"(36.24852, -95.975529)"
Tulsa,6910 S Yorktown Ave,Tulsa,OK,74136,(918) 492-1630,-95.961131,36.063252,"(36.063252, -95.961131)"
Tulsa,9023 E 46th St,Tulsa,OK,74145,(918) 627-4637,-95.876895,36.097967,"(36.097967, -95.876895)"
Tupelo,403 W Main,Tupelo,OK,74572,(580) 845-2486,-96.41641,34.604586,"(34.604586, -96.41641)"
Turpin,419 Main St,Turpin,OK,73950,(580) 778-3869,-100.87751,36.864092,"(36.864092, -100.87751)"
Tuskahoma,301 W Main St,Tuskahoma,OK,74574,(918) 569-4382,-95.095708,34.662842,"(34.662842, -95.095708)"
Tussy,1500 Baseline Rd,Tussy,OK,73488,(580) 856-3071,-97.545589,34.50703,"(34.50703, -97.545589)"
Tuttle,407 E Main St,Tuttle,OK,73089,(405) 381-2381,-97.807233,35.290969,"(35.290969, -97.807233)"
Twin Oaks,9755 US Highway 412 Alt,Twin Oaks,OK,74368,(918) 868-2969,-94.848288,36.205023,"(36.205023, -94.848288)"
Tyrone,104 W Main St,Tyrone,OK,73951,(580) 854-6755,-101.071214,36.95471,"(36.95471, -101.071214)"
Union City,201 N Main St,Union City,OK,73090,(405) 483-5355,-97.937289,35.39289,"(35.39289, -97.937289)"
Valliant,501 N Dalton St,Valliant,OK,74764,(580) 933-7811,-95.094369,34.00075,"(34.00075, -95.094369)"
Velma,503 Main St,Velma,OK,73491,(580) 444-3321,-97.673685,34.457047,"(34.457047, -97.673685)"
Vera,100 S Osage St,Vera,OK,74082,(918) 371-9313,-95.883068,36.449195,"(36.449195, -95.883068)"
Verden,100 Morris Ave,Verden,OK,73092,(405) 453-7575,-98.088259,35.08574,"(35.08574, -98.088259)"
Vian,205 N Thornton St,Vian,OK,74962,(918) 773-5749,-94.968981,35.499617,"(35.499617, -94.968981)"
Vici,706 N Main St,Vici,OK,73859,(580) 995-3328,-99.298619,36.14868,"(36.14868, -99.298619)"
Vinita,120 E Illinois Ave,Vinita,OK,74301,(918) 256-7548,-95.148493,36.636588,"(36.636588, -95.148493)"
Vinson,201 Francis St,Vinson,OK,73571,(580) 675-2261,-99.818929,34.893391,"(34.893391, -99.818929)"
Wagoner,233 E Church St,Wagoner,OK,74467,(918) 485-2569,-95.37548,35.958573,"(35.958573, -95.37548)"
Comanche,121 S 2nd St,Comanche,OK,73529,(580) 439-8830,-97.963094,34.368669,"(34.368669, -97.963094)"
Custer City,630 Main St,Custer City,OK,73639,(580) 593-2915,-98.883409,35.66347,"(35.66347, -98.883409)"
Cyril,112 W Main St,Cyril,OK,73029,(580) 464-2288,-98.199089,34.89652,"(34.89652, -98.199089)"
Dacoma,1000 Main,Dacoma,OK,73731,(580) 871-2291,-98.563367,36.661594,"(36.661594, -98.563367)"
Daisy,2401 E Hwy 43,Daisy,OK,74540,(580) 346-7602,-95.754928,34.52936,"(34.52936, -95.754928)"
Davenport,313 Broadway St,Davenport,OK,74026,(918) 377-2301,-96.765334,35.707138,"(35.707138, -96.765334)"
Davidson,110 W Grand St,Davidson,OK,73530,(580) 568-2276,-99.076394,34.241725,"(34.241725, -99.076394)"
Davis,900 E Main St,Davis,OK,73030,(580) 369-2514,-97.112333,34.506765,"(34.506765, -97.112333)"
Deer Creek,104 S Main St,Deer Creek,OK,74636,(580) 267-3275,-97.519473,36.8057,"(36.8057, -97.519473)"
Delaware,117 E Elevator St,Delaware,OK,74027,(918) 467-3231,-95.642339,36.778726,"(36.778726, -95.642339)"
Depew,316 W Main St,Depew,OK,74028,(918) 324-5644,-96.505213,35.803067,"(35.803067, -96.505213)"
Devol,110 W Mulberry St,Devol,OK,73531,(580) 299-3234,-98.589284,34.193461,"(34.193461, -98.589284)"
Dewar,104 N Broadway,Dewar,OK,74431,(918) 652-8655,-95.940823,35.458413,"(35.458413, -95.940823)"
Dewey,800 N Shawnee Ave,Dewey,OK,74029,(918) 534-2101,-95.936757,36.799281,"(36.799281, -95.936757)"
Dibble,12252 State Highway 39,Dibble,OK,73031,(405) 344-6985,-97.63078,35.031,"(35.031, -97.63078)"
Gotebo,11 W Commercial,Gotebo,OK,73041,(580) 538-4611,-98.867348,35.069726,"(35.069726, -98.867348)"
Gowen,100 Main St,Gowen,OK,74545,(918) 297-7302,-95.477339,34.881629,"(34.881629, -95.477339)"
Gracemont,201 W Main St,Gracemont,OK,73042,(405) 966-2367,-98.260619,35.18743,"(35.18743, -98.260619)"
Graham,29173 State Highway 53,Graham,OK,73437,(580) 673-2332,-97.435394,34.34026,"(34.34026, -97.435394)"
Grandfield,123 E 2nd St,Grandfield,OK,73546,(580) 479-3155,-98.687322,34.230696,"(34.230696, -98.687322)"
Granite,402 N Granite St,Granite,OK,73547,(580) 535-2352,-99.382088,34.961251,"(34.961251, -99.382088)"
Grant,604 Walnut St,Grant,OK,74738,(580) 326-2088,-95.50126,33.925308,"(33.925308, -95.50126)"
Greenfield,100 Madison St,Greenfield,OK,73043,(580) 623-8631,-98.378574,35.72732,"(35.72732, -98.378574)"
Grove,1200 S Shundi,Grove,OK,74344,(918) 786-2266,-94.755594,36.596815,"(36.596815, -94.755594)"
Grove,501 E 3rd St,Grove,OK,74344,(918) 786-2266,-94.762351,36.593956,"(36.593956, -94.762351)"
Guthrie,201 W Oklahoma Ave,Guthrie,OK,73044,(405) 282-4736,-97.426664,35.87795,"(35.87795, -97.426664)"
Guymon,302 N Quinn St,Guymon,OK,73942,(580) 338-6422,-101.482954,36.680723,"(36.680723, -101.482954)"
Haileyville,509 Parkway Ave,Haileyville,OK,74546,(918) 297-3221,-95.578869,34.85541,"(34.85541, -95.578869)"
Hallett,501 5th Ave,Hallett,OK,74034,(918) 356-4365,-96.567844,36.231295,"(36.231295, -96.567844)"
Hammon,701 Main St,Hammon,OK,73650,(580) 473-2299,-99.385004,35.63283,"(35.63283, -99.385004)"
Hanna,105 S Main St,Hanna,OK,74845,(918) 657-2561,-95.910773,35.259271,"(35.259271, -95.910773)"
Hardesty,107 S Broadway St,Hardesty,OK,73944,(580) 888-4515,-101.191804,36.616413,"(36.616413, -101.191804)"
Harrah,19900 NE 23rd St,Harrah,OK,73045,(405) 454-1267,-97.178621,35.492923,"(35.492923, -97.178621)"
Hartshorne,1021 Pennsylvania Ave,Hartshorne,OK,74547,(918) 297-2636,-95.5557,34.844992,"(34.844992, -95.5557)"
Haskell,118 S Broadway,Haskell,OK,74436,(918) 482-3422,-95.674949,35.817725,"(35.817725, -95.674949)"
Hastings,115 W Main St,Hastings,OK,73548,(580) 963-2961,-98.109989,34.22679,"(34.22679, -98.109989)"
Haworth,100 N Elm St,Haworth,OK,74740,(580) 245-1992,-94.590166,33.792286,"(33.792286, -94.590166)"
Headrick,310 N Broadway St,Headrick,OK,73549,(580) 738-5330,-99.242989,34.557888,"(34.557888, -99.242989)"
Healdton,315 Franklin St,Healdton,OK,73438,(580) 229-0450,-97.486784,34.234159,"(34.234159, -97.486784)"
Heavener,301 Main St,Heavener,OK,74937,(918) 653-4873,-94.601832,34.89049,"(34.89049, -94.601832)"
Helena,212 N Main St,Helena,OK,73741,(580) 852-3269,-98.270014,36.54863,"(36.54863, -98.270014)"
Hendrix,309 E Main St,Hendrix,OK,74741,(580) 838-2408,-96.404411,33.775092,"(33.775092, -96.404411)"
Hennepin,100 State Highway 7,Hennepin,OK,73444,(580) 868-3311,-97.350559,34.50712,"(34.50712, -97.350559)"
Hennessey,221 S Main St,Hennessey,OK,73742,(405) 853-2928,-97.898824,36.108109,"(36.108109, -97.898824)"
Henryetta,201 N 5th St,Henryetta,OK,74437,(918) 652-7834,-95.987141,35.440989,"(35.440989, -95.987141)"
Hillsdale,103 S Main St,Hillsdale,OK,73743,(580) 635-2331,-97.991772,36.562894,"(36.562894, -97.991772)"
Hinton,107 S Noble St,Hinton,OK,73047,(405) 542-3280,-98.354219,35.47346,"(35.47346, -98.354219)"
Hitchcock,104 W Main St,Hitchcock,OK,73744,(580) 825-3219,-98.349364,35.968035,"(35.968035, -98.349364)"
Hitchita,1 Broadway St,Hitchita,OK,74438,(918) 466-3306,-95.768199,35.50931,"(35.50931, -95.768199)"
Hobart,229 S Main St,Hobart,OK,73651,(580) 726-5258,-99.093377,35.0267,"(35.0267, -99.093377)"
Hodgen,47061 US Highway 59,Hodgen,OK,74939,(918) 653-2189,-94.633069,34.8405,"(34.8405, -94.633069)"
Holdenville,123 W 7th St,Holdenville,OK,74848,(405) 379-5627,-96.401241,35.084482,"(35.084482, -96.401241)"
Hollis,120 N 2nd St,Hollis,OK,73550,(580) 688-2366,-99.919964,34.682064,"(34.682064, -99.919964)"
Hollister,200 Main St,Hollister,OK,73551,(580) 335-7643,-98.869339,34.341101,"(34.341101, -98.869339)"
Hominy,402 W 1st St,Hominy,OK,74035,(918) 885-2770,-96.397532,36.414381,"(36.414381, -96.397532)"
Hooker,107 S Swem St,Hooker,OK,73945,(580) 652-2020,-101.214359,36.86286,"(36.86286, -101.214359)"
Hopeton,19405 County Road 440,Hopeton,OK,73746,(580) 435-2238,-98.667134,36.68803,"(36.68803, -98.667134)"
Wanette,112 E Main St,Wanette,OK,74878,(405) 383-2673,-97.033383,34.962093,"(34.962093, -97.033383)"
Wann,110 W Main St,Wann,OK,74083,(918) 531-2255,-95.804969,36.915475,"(36.915475, -95.804969)"
Wapanucka,109 E Main St,Wapanucka,OK,73461,(580) 937-4493,-96.422059,34.37499,"(34.37499, -96.422059)"
