TAG AGENCIES,ADDRESS,CITY,STATE,ZIP,PHONE1,PHONE2,LONGITUDE,LATITUDE,Location
Midwest City Tag Agency,119 South Air Depot,Midwest City,OK,73110,(405) 737-4830,(405) 737-7640,-97.406401,35.463552,"(35.463552, -97.406401)"
Tinker Tag Agency,2839 South Douglas,Midwest City,OK,73130,(405) 732-2200,(405) 732-2525,-97.370948,35.438353,"(35.438353, -97.370948)"
Minco Tag Agency,210 Main,Minco,OK,73059,(405) 352-4315,,-97.946177,35.313177,"(35.313177, -97.946177)"
Moore Tag Agency,623-D North Broadway,Moore,OK,73160,(405) 794-7144,,-97.487133,35.343445,"(35.343445, -97.487133)"
Mooreland Tag Agency,124 South Main,Mooreland,OK,73852,(580) 994-5453,,-99.204819,36.43362,"(36.43362, -99.204819)"
Morris Tag Agent,317 South Hughes,Morris,OK,74445,(918) 733-1365,,-95.860021,35.607415,"(35.607415, -95.860021)"
Morrison Tag Agency,3rd and Woolsey,Morrison,OK,73061,(580) 724-3511,,-97.008189,36.29616,"(36.29616, -97.008189)"
Mountain View Tag Agency,314 Main Street,Mountain View,OK,73062,(580) 347-2143,,-98.747709,35.09759,"(35.09759, -98.747709)"
Muskogee Tag Agency,315 State Street,Muskogee,OK,74402,(918) 682-3763,,-95.372508,35.751526,"(35.751526, -95.372508)"
Mustang Tag Agency,135 West Highway 152,Mustang,OK,73064,(405) 376-2802,,-97.723288,35.391845,"(35.391845, -97.723288)"
Newcastle Tag Agency,1025 North Main,Newcastle,OK,73065,(405) 387-9200,,-97.600274,35.25698,"(35.25698, -97.600274)"
Tri City Tag Agency,2824 North West 32nd,Newcastle,OK,73065,(405) 392-2525,,-97.653229,35.29098,"(35.29098, -97.653229)"
Newkirk Tag Agency,110 West 7th,Newkirk,OK,74647,(580) 362-3618,,-97.053885,36.882538,"(36.882538, -97.053885)"
Nicoma Park Tag Agency,11524 North East 23rd,Nicoma Park,OK,73066,(405) 769-3353,(405) 769-3354,-97.326529,35.492923,"(35.492923, -97.326529)"
Noble Tag Agency,730 North Main,Noble,OK,73068,(405) 872-9322,,-97.395973,35.147892,"(35.147892, -97.395973)"
Fuson Tag Agency,1236 North Interstate Drive,Norman,OK,73072,(405) 364-1151,(405) 321-4383,-97.487313,35.233509,"(35.233509, -97.487313)"
Lanoy Tag Agency,1315A 24th Avenue South West,Norman,OK,73072,(405) 360-0345,,-97.476478,35.202509,"(35.202509, -97.476478)"
Leroy Wheeler,443 West Gray,Norman,OK,73069,(405) 321-2977,(405) 321-1211,-97.44995,35.219463,"(35.219463, -97.44995)"
Sooner Tag Agency,130 36th Aveneu North West,Norman,OK,73072,(405) 321-7979,(405) 366-7888,-97.494443,35.218859,"(35.218859, -97.494443)"
Nowata Tag Agency,112 East Cherokee,Nowata,OK,74048,(918) 273-3025,,-95.637865,36.700165,"(36.700165, -95.637865)"
Oilton Tag Agency,110 West Main,Oilton,OK,74052,(918) 862-3705,,-96.586053,36.086289,"(36.086289, -96.586053)"
Okay Tag Agency,Highways 16 and 251A,Okay,OK,74446,(918) 683-2500,,-95.314761,35.844235,"(35.844235, -95.314761)"
Buchanan Tag Agency,316 East Oklahoma,Okeene,OK,73763,(580) 822-3797,(580) 822-4443,-98.314288,36.118239,"(36.118239, -98.314288)"
Okemah Tag Agency,421 West Broadway,Okemah,OK,74859,(918) 623-1582,,-96.305087,35.431375,"(35.431375, -96.305087)"
Brad Sullivan Tag Agency,2511 North Western,Oklahoma City ,OK,73106,(405) 524-8247,,-97.53006,35.494481,"(35.494481, -97.53006)"
Capitol Hill Tag Agency,"3201 South Shields, Suite A",Oklahoma City ,OK,73129,(405) 631-4545,,-97.508115,35.433152,"(35.433152, -97.508115)"
Classen Tag Agency,3100 Classen Boulevard,Oklahoma City ,OK,73118,(405) 521-1151,,-97.53407,35.50061,"(35.50061, -97.53407)"
Crawford Tag Agency,10443 North May,Oklahoma City ,OK,73120,(405) 751-2203,,-97.567325,35.575701,"(35.575701, -97.567325)"
Downtown Oklahoma CIty Tag Agency,120 North Robinson,Oklahoma City ,OK,73102,(405) 232-5299,,-97.516298,35.468034,"(35.468034, -97.516298)"
Express Tag Agency,6730 North West Expressway,Oklahoma City ,OK,73132,(405) 721-4144,(405) 721-4287,-97.632868,35.555334,"(35.555334, -97.632868)"
Greenway Plaza Tag Agency,11721 South Western,Oklahoma City ,OK,73170,(405) 691-8700,(405) 691-8907,-97.53012,35.351332,"(35.351332, -97.53012)"
Hill Tag Agency,7416 North Broadway Extension,Oklahoma City ,OK,73116,(405) 286-3658,,-97.513383,35.546534,"(35.546534, -97.513383)"
Kenny Skaggs Tag Agency,1621 South West 59th,Oklahoma City ,OK,73119,(405) 685-3411,,-97.545068,35.406346,"(35.406346, -97.545068)"
Mac's Tag Agency,4512 South Pennsylvania,Oklahoma City ,OK,73119,(405) 681-5305,,-97.547784,35.420518,"(35.420518, -97.547784)"
Motor Vehicle Division at the Oklahoma Tax Commission,2501 Lincoln Boulevard,Oklahoma City ,OK,73194,(405) 521-2830,,-97.505444,35.495257,"(35.495257, -97.505444)"
Northeast Tag Agency,2501 North East 23rd,Oklahoma City ,OK,73111,(405) 424-4660,,-97.464173,35.493185,"(35.493185, -97.464173)"
Northside Tag Agency,7527 North May Avenue,Oklahoma City ,OK,73116,(405) 843-6036,(405) 843-1727,-97.56582,35.546742,"(35.546742, -97.56582)"
Northwest Tag Agency,4200-D North West Expressway,Oklahoma City ,OK,73116,(405) 840-1739,,-97.595114,35.538826,"(35.538826, -97.595114)"
Oklahoma Corporation Commission Trucking One-Stop-Shop,2101 North Lincoln,Oklahoma City ,OK,73152,(405) 521-3036,,-97.473208,35.355706,"(35.355706, -97.473208)"
Price Tag Agency,7402 South Walker,Oklahoma City ,OK,73139,(405) 634-3333,(405) 634-3488,-97.521086,35.39285,"(35.39285, -97.521086)"
Quail Tag Agency,13919-A North May Avenue,Oklahoma City ,OK,73134,(405) 752-2770,(405) 752-2990,-97.567322,35.614487,"(35.614487, -97.567322)"
Ralph's Drug and Tag Agency,1301 South West 29th,Oklahoma City ,OK,73119,(405) 634-3317,,-97.539301,35.435343,"(35.435343, -97.539301)"
Altus Tag Agency,802 Falcon Road,Altus,OK,73521,(580) 480-0400,,-99.324616,34.651413,"(34.651413, -99.324616)"
Alva Tag Agency,324 7th,Alva,OK,73717,(580) 327-4920,,-98.668304,36.805731,"(36.805731, -98.668304)"
Marlett Tax & Tag,121 North West Second Street,Anadarko,OK,73005,(405) 247-6717,,-98.245194,35.079274,"(35.079274, -98.245194)"
Antlers Tag Agency,203 South West C Street,Antlers,OK,74523,(580) 298-3507,,-95.623927,34.22976,"(34.22976, -95.623927)"
Apache Tag Agency,204 East Evans,Apache,OK,73006,(580) 588-3695,,-98.363359,34.89385,"(34.89385, -98.363359)"
Arapaho Tag Agency,504 South 10th,Arapaho,OK,73620,(580) 323-6471,,-98.964601,35.57327,"(35.57327, -98.964601)"
Arcadia Tag and Title,Highway 66 and Odor Street,Arcadia,OK,73007,(405) 396-0824,,-97.324009,35.66283,"(35.66283, -97.324009)"
Ardmore Tag Office,"2001 Veterans Boulevard, Suite B",Ardmore,OK,73401,(580) 223-8664,,-97.112581,34.202876,"(34.202876, -97.112581)"
Arkoma Tag Office,524 Main Street,Arkoma,OK,74901,(918) 875-3212,,-94.435239,35.358127,"(35.358127, -94.435239)"
Arnett Tag Agency,323 East Renfrow,Arnett,OK,73832,(580) 885-7788,,-99.778024,36.13489,"(36.13489, -99.778024)"
Atoka Tag Agency,119 North Ohio,Atoka,OK,74525,(580) 889-2261,,-96.12468,34.385422,"(34.385422, -96.12468)"
Barnsdall Tag Agency,410 West Main,Barnsdall,OK,74002,(918) 847-2150,,-96.170339,36.56208,"(36.56208, -96.170339)"
Express Tag Agency,16459 South Highway 123,Bartlesville,OK,74003,(918) 336-2543,(918) 336-9457,-96.097679,36.71685,"(36.71685, -96.097679)"
Tuxedo Tag Office,3400 East Tuxedo,Bartlesville,OK,74006,(918) 333-7095,,-95.939655,36.757097,"(36.757097, -95.939655)"
Beaver County Tag Office,400 Douglas,Beaver,OK,73932,(580) 625-3376,,-100.519468,36.813981,"(36.813981, -100.519468)"
Bethany Tag Agency Incorporated,7323 North West 23rd,Bethany,OK,73008,(405) 787-2232,(405) 787-1133,-97.641731,35.493468,"(35.493468, -97.641731)"
Ginger's Tag Agency,6225 North West 39th,Bethany,OK,73008,(405) 495-5882,(405) 495-5884,-97.623358,35.511497,"(35.511497, -97.623358)"
Ray's Westside Tag Agency,7601 North West 23rd,Bethany,OK,73008,(405) 787-7297,(405) 787-7298,-97.647866,35.493372,"(35.493372, -97.647866)"
Kurt's One Thing & Another,111 North Broadway,Billings,OK,74630,(580) 725-3242,,-97.445488,36.529087,"(36.529087, -97.445488)"
Binger Tag Agency,217 West Main,Binger,OK,73009,(405) 656-2440,,-98.343079,35.30879,"(35.30879, -98.343079)"
Bixby Central Tag Agency,203 West Dawes,Bixby,OK,74008,(918) 366-7797,,-95.886076,35.942396,"(35.942396, -95.886076)"
Bixby Tag Agency,10827-B South Memorial,Bixby,OK,74133,(918) 369-4630,,-95.88627,36.007511,"(36.007511, -95.88627)"
Blackwell Tag Agency,401 S. Main,Blackwell,OK,74631,(580) 363-1135,,-97.283077,36.80122,"(36.80122, -97.283077)"
Blair Tag Agency,117 East Main,Blair,OK,73526,(580) 563-2625,,-99.330559,34.78049,"(34.78049, -99.330559)"
Richey Tag Agency,215 North Main,Blanchard,OK,73010,(405) 485-2226,(405) 485-2396,-97.658456,35.138158,"(35.138158, -97.658456)"
Cimarron Tag Agency,Courthouse,Boise City ,OK,73933,(580) 544-2881,,-102.512349,36.72969,"(36.72969, -102.512349)"
Bokchito Tag Agency,115 South Walker,Bokchito ,OK,74726,(580) 295-3123,,-96.144489,34.016085,"(34.016085, -96.144489)"
Bristow Tag Agency,105 East 1st,Bristow ,OK,74010,(918) 367-5422,,-96.390725,35.828426,"(35.828426, -96.390725)"
Central Park Tag Agency,824 South Elm Place,Broken Arrow ,OK,74012,(918) 251-2659,,-95.797637,36.044679,"(36.044679, -95.797637)"
Coweta Tag Agency,11059 South State Highway 51,Broken Arrow ,OK,74429,(918) 279-8996,,-95.675749,35.99515,"(35.99515, -95.675749)"
Forest Ridge Tag Agency,25695 East 71st Street,Broken Arrow ,OK,74014,(918) 357-3800,,-95.690524,36.060886,"(36.060886, -95.690524)"
Indian Springs Tag Agency,8216-A South Elm Place,Broken Arrow ,OK,74012,(918) 449-1567,,-95.797494,35.97455,"(35.97455, -95.797494)"
Tag Agency - Broken Bow,32 North Main Street,Broken Bow ,OK,74728,(580) 584-2892,,-94.73687,34.026735,"(34.026735, -94.73687)"
Buffalo Tag Agency,113 North Highway,Buffalo ,OK,73834,(580) 735-2720,,-99.560277,36.826703,"(36.826703, -99.560277)"
Mary's Tag Office,312 South Highway 44,Burns Flat ,OK,73624,(580) 562-4745,,-99.170244,35.361895,"(35.361895, -99.170244)"
The Tag Agency of Cache,303 South 5th Street,Cache ,OK,73527,(580) 429-8885,,-98.62919,34.628574,"(34.628574, -98.62919)"
Caddo Tag Agency,125 1/2 Buffalo,Caddo ,OK,74729,(580) 367-2329,,-96.269039,34.12891,"(34.12891, -96.269039)"
Red River Tag Agency,711 N. McKinley,Calera ,OK,74730,(580) 434-6300,,-96.432108,33.931224,"(33.931224, -96.432108)"
Calumet Tag Agency,119 North Calumet Road,Calumet ,OK,73014,(405) 893-2220,(405) 893-2208,-98.114314,35.531738,"(35.531738, -98.114314)"
Canton Tag Agency,110 East Main,Canton ,OK,73724,(580) 886-5700,,-98.588593,36.053593,"(36.053593, -98.588593)"
Carnegie Tag Agency,4 North Broadway,Carnegie ,OK,73015,(580) 654-2355,,-98.604919,35.10709,"(35.10709, -98.604919)"
Catoosa Tag Agency,1875 North Highway 66,Catoosa ,OK,74015,(918) 266-3296,,-95.734444,36.190915,"(36.190915, -95.734444)"
Cement Tag Agency,306 North Main,Cement ,OK,73017,(405) 489-7158,,-98.140065,34.93421,"(34.93421, -98.140065)"
Diamond Tag Agency,101 Dewey,Chandler,OK,74834,(405) 258-0222,,-96.874492,35.709807,"(35.709807, -96.874492)"
Checotah Tag Agency,300-C South Broadway,Checotah,OK,74426,(918) 473-6491,,-95.523729,35.467938,"(35.467938, -95.523729)"
Chelsea Tag Agency,336 West 6th Street,Chelsea,OK,74016,(918) 789-2332,,-95.433179,36.535969,"(36.535969, -95.433179)"
Alfalfa County Tag Agency,Rural Route 112 Loop Drive,Cherokee,OK,73728,(580) 596-3428,,-98.372529,36.753708,"(36.753708, -98.372529)"
Cheyenne Tag Agency,104 South Cearlock,Cheyenne,OK,73628,(580) 497-3515,,-99.683841,35.634686,"(35.634686, -99.683841)"
McLemore Tag Agency,1027 South 4th,Chickasha,OK,73018,(405) 224-2704,,-97.936734,35.040747,"(35.040747, -97.936734)"
Choctaw Tag Agency,2402 North Main,Choctaw,OK,73020,(405) 390-3939,,-97.270838,35.493301,"(35.493301, -97.270838)"
J. McWhirter Tag Agency,14300 South East 29th,Choctaw,OK,73020,(405) 733-9855,,-97.279443,35.435193,"(35.435193, -97.279443)"
Chouteau Tag Agency,103 East Harrison,Chouteau,OK,74337,(918) 476-5763,(918) 476-8917,-95.341165,36.191521,"(36.191521, -95.341165)"
Claremore Tag Agency,103 East Patti Page,Claremore,OK,74017,(918) 341-6226,(918) 341-6733,-95.610837,36.309231,"(36.309231, -95.610837)"
Clayton Tag Agency,202 Lawson Boulevard,Clayton,OK,74536,(918) 569-7721,,-95.352397,34.590386,"(34.590386, -95.352397)"
Cleveland Tag Agency,108 South Broadway,Cleveland,OK,74020,(918) 358-2363,,-96.464123,36.308804,"(36.308804, -96.464123)"
Clinton Tag Agency,1201 Gary Boulevard,Clinton,OK,73601,(580) 323-6666,,-98.974644,35.51562,"(35.51562, -98.974644)"
Coalgate Tag Agency,111 North Main,Coalgate,OK,74538,(580) 927-2060,,-96.218251,34.539618,"(34.539618, -96.218251)"
Collinsville Tag Agency,1003 West Broadway,Collinsville,OK,74021,(918) 371-2343,,-95.836719,36.365462,"(36.365462, -95.836719)"
Comanche Tag Agency,101 Village Mall,Comanche,OK,73529,(580) 439-5565,,-97.979332,34.364896,"(34.364896, -97.979332)"
New Cordell Tag Agency,210 East 1st Street,Cordell,OK,73632,(580) 832-3845,,-98.988658,35.292242,"(35.292242, -98.988658)"
Withers Tag Agency,13747 South State Highway 51,Coweta,OK,74429,(918) 486-1188,,-95.67149,35.98905,"(35.98905, -95.67149)"
Crescent Tag Agency,119 South Grand,Crescent,OK,73028,(405) 969-2826,,-97.595633,35.952322,"(35.952322, -97.595633)"
Cushing Tag Agency,109 West Broadway,Cushing,OK,74023,(918) 225-3344,,-96.772898,35.979884,"(35.979884, -96.772898)"
Cyril Tag Office,111 Main Street,Cyril,OK,73029,(580) 464-2800,,-98.199089,34.89652,"(34.89652, -98.199089)"
Webber Agency,109 South 3rd Street,Davis,OK,73030,(580) 369-2783,,-97.119537,34.504196,"(34.504196, -97.119537)"
Del City Tag Agency,3316 South Sunnylane,Del City,OK,73115,(405) 677-3335,(405) 677-3336,-97.441187,35.432395,"(35.432395, -97.441187)"
Ada Tag Agency,509 East Arlington,Ada,OK,74820,(580) 332-6079,(580) 332-6108,-96.674194,34.781571,"(34.781571, -96.674194)"
Adair Tag Agency,301 West Main,Adair,OK,74330,(918) 785-2134,,-95.273302,36.437161,"(36.437161, -95.273302)"
Allen Tag Agency,207 East Broadway,Allen,OK,74825,(580) 857-2477,,-96.414416,34.878992,"(34.878992, -96.414416)"
Red Cap Tag Agency,3916 North West 10,Oklahoma City ,OK,73107,(405) 942-3134,,-97.588575,35.478575,"(35.478575, -97.588575)"
Sooner Road Tag Agency,9004 South Sooner Road,Oklahoma City ,OK,73165,(405) 455-7240,,-97.423363,35.376819,"(35.376819, -97.423363)"
Warwick Tag Agency,5936 North West 122,Oklahoma City ,OK,73162,(405) 720-0002,,-97.621327,35.594511,"(35.594511, -97.621327)"
Okmulgee Tag Agency,501 East 6th,Okmulgee,OK,74447,(918) 756-8777,,-95.966549,35.62325,"(35.62325, -95.966549)"
Oologah Tag Agency,105 North Maple,Oologah,OK,74053,(918) 443-9176,,-95.709854,36.447419,"(36.447419, -95.709854)"
A-J Tag Agency,11330 North Garnett Road,Owasso,OK,74055,(918) 272-9000,,-95.848303,36.318839,"(36.318839, -95.848303)"
Owasso Tag Agency,117-A South Main,Owasso,OK,74055,(918) 272-1300,(918) 272-1504,-95.85485,36.264796,"(36.264796, -95.85485)"
Pauls Valley Tag Agency,113 East Paul,Pauls Valley ,OK,73075,(405) 238-5534,,-97.219716,34.740882,"(34.740882, -97.219716)"
Pawhuska Tag Agency,801 East Main,Pawhuska ,OK,74056,(918) 287-3244,,-96.331612,36.662584,"(36.662584, -96.331612)"
Pawnee Tag Agency,621 Harrison Street,Pawnee ,OK,74058,(918) 762-3784,,-96.804395,36.337807,"(36.337807, -96.804395)"
Perkins Tag Agency,222 North Main,Perkins ,OK,74059,(405) 547-2184,,-97.033544,35.975428,"(35.975428, -97.033544)"
Perry Tag Agency,610 North 15th,Perry ,OK,73077,(580) 336-4763,,-97.30084,36.288979,"(36.288979, -97.30084)"
Piedmont Tag Agency,414 Piedmont Road North,Piedmont ,OK,73078,(405) 373-2131,,-97.745319,35.72579,"(35.72579, -97.745319)"
Bussey Tag Agency,64820 U.S. Highway 60,Ponca City,OK,74604,(580) 762-4922,,-96.982099,36.67675,"(36.67675, -96.982099)"
Ponca City Tag Agency,2101 North 14th,Ponca City,OK,74602,(580) 765-8711,,-97.066952,36.726349,"(36.726349, -97.066952)"
McCollough Tag Agency,Main Street,Porter,OK,74454,(918) 483-3271,,-95.588754,35.879425,"(35.879425, -95.588754)"
Poteau Tag Agency,2801 North Broadway,Poteau,OK,74953,(918) 647-7115,,-94.630239,35.085085,"(35.085085, -94.630239)"
Prague Tag Agency,821 Jim Thorpe Boulevard,Prague,OK,74864,(405) 567-2255,,-96.685664,35.493884,"(35.493884, -96.685664)"
Pryor Tag Agency,420 East Graham,Pryor,OK,74361,(918) 825-5020,(918) 825-7133,-95.314142,36.306931,"(36.306931, -95.314142)"
Purcell Tag Agency,302 West Main Street,Purcell,OK,73080,(405) 527-3446,,-97.362897,35.012156,"(35.012156, -97.362897)"
Quinton Tag Agency,909 Main Street,Quinton,OK,74561,(918) 469-3156,,-95.371709,35.122575,"(35.122575, -95.371709)"
Ralston Agency,611 Main,Ralston,OK,74650,(918) 738-4216,,-96.729717,36.503889,"(36.503889, -96.729717)"
Ringling Tag Agency,364475 Highway 70 East,Ringling,OK,73456,(580) 662-2899,,-97.583289,34.1728,"(34.1728, -97.583289)"
Nichols Tag Agency,315 North Main,Ringwood,OK,73768,(580) 883-5969,(580) 883-2232,-98.244934,36.39046,"(36.39046, -98.244934)"
Roff Tag Agency,23433 CR 3460,Roff,OK,74865,(580) 456-7800,,-96.844677,34.600549,"(34.600549, -96.844677)"
Weaver's Tag Office,105 East Ray Fine Boulevard,Roland,OK,74954,(918) 427-3269,,-94.534949,35.405355,"(35.405355, -94.534949)"
Rush Springs Tag Agency,218 West Blakely,Rush Springs,OK,73082,(580) 476-3063,,-97.957719,34.78274,"(34.78274, -97.957719)"
Ryan Tag Agency,925 6th Street,Ryan,OK,73565,(580) 757-2268,,-97.95887,34.022262,"(34.022262, -97.95887)"
Salina Tag Agency,102 A Owen Walters Boulevard,Salina,OK,74365,(918) 434-5770,,-95.147199,36.29294,"(36.29294, -95.147199)"
Sallisaw Tag Office,2329 East Cherokee,Sallisaw,OK,74955,(918) 775-4497,,-94.769518,35.458466,"(35.458466, -94.769518)"
Prattville Tag Office,606 West 41st,Sand Springs,OK,74063,(918) 241-2800,,-96.131737,36.104575,"(36.104575, -96.131737)"
Sand Springs Tag Office,414 Plaza Court,Sand Springs,OK,74063,(918) 241-3400,,-96.103874,36.139522,"(36.139522, -96.103874)"
Sapulpa Tag Office,713 South Mission,Sapulpa,OK,74066,(918) 224-0264,(918) 224-0265,-96.098655,35.989878,"(35.989878, -96.098655)"
Sayre Tag Office,305 South 4th,Sayre,OK,73662,(580) 928-5181,,-99.639714,35.288906,"(35.288906, -99.639714)"
Seiling Tag Agency,103 Gary England Avenue,Seiling,OK,73663,(580) 922-4224,,-98.849514,36.101005,"(36.101005, -98.849514)"
Seminole Tag Agency,208 East Oak,Seminole,OK,74868,(405) 382-0038,(405) 382-0039,-96.669595,35.225665,"(35.225665, -96.669595)"
Sentinel Tag Agency,218 East Main,Sentinel,OK,73664,(580) 393-4343,,-99.176766,35.158223,"(35.158223, -99.176766)"
Ehrlich Tag Agency,109 West 3rd,Shattuck,OK,73858,(580) 938-2953,,-99.879119,36.2741,"(36.2741, -99.879119)"
Shawnee North Tag Agency,3715 North Kickapoo,Shawnee,OK,74804,(405) 273-8247,,-96.929702,35.369952,"(35.369952, -96.929702)"
Shawnee Tag Agency,301 West Highland,Shawnee,OK,74801,(405) 273-6686,,-96.927448,35.332549,"(35.332549, -96.927448)"
Shidler TV,249 South Cosden,Shidler,OK,74652,(918) 793-2191,,-96.661372,36.780383,"(36.780383, -96.661372)"
Skiatook Tag Agency,119 West Rogers,Skiatook,OK,74070,(918) 396-3255,,-96.0016,36.368413,"(36.368413, -96.0016)"
Snyder Tag Agency,1101 F Street,Snyder,OK,73566,(580) 569-2917,,-98.950643,34.654615,"(34.654615, -98.950643)"
Spencer Tag Agency,8479 North East 23rd,Spencer,OK,73141,(405) 427-2245,,-97.380469,35.493219,"(35.493219, -97.380469)"
Sperry Tag Agency,115-A Highway 11,Sperry,OK,74073,(918) 288-7457,,-95.988321,36.297396,"(36.297396, -95.988321)"
Spiro Tag Agency,800 West Broadway,Spiro,OK,74959,(918) 962-2293,,-94.628347,35.240894,"(35.240894, -94.628347)"
Stigler Tag Agency,801 East Main,Stigler,OK,74462,(918) 967-8902,,-95.117247,35.252051,"(35.252051, -95.117247)"
Stillwater Tag Agency,702 South Western Road,Stillwater,OK,74074,(405) 624-0200,(405) 624-0255,-97.087465,36.11491,"(36.11491, -97.087465)"
Stilwell Tag Agency,115 West Division,Stilwell,OK,74960,(918) 696-3841,,-94.627449,35.81453,"(35.81453, -94.627449)"
Stratford Tag Agency,600 North Forest Avenue,Stratford,OK,74872,(580) 759-3022,,-96.976379,34.7822,"(34.7822, -96.976379)"
Stroud Tag Agency,402 West Main,Stroud,OK,74079,(918) 968-0377,,-96.7774,35.786151,"(35.786151, -96.7774)"
Roger Davis Tag Agent,825 Roosevelt,Stuart,OK,74570,(918) 546-2233,,-96.099436,34.902772,"(34.902772, -96.099436)"
Bates Tag Agency,1012 West 3rd,Sulphur,OK,73086,(580) 622-3828,,-96.971101,34.507458,"(34.507458, -96.971101)"
Cherokee County Tag Agency,25 Plaza South,Tahlequah,OK,74464,(918) 453-2889,,-94.952699,35.91542,"(35.91542, -94.952699)"
Talihina Tag Agency,410-A Dallas Street,Talihina,OK,74571,(918) 567-2459,,-95.050019,34.75347,"(34.75347, -95.050019)"
Taloga Tag Agency,103 South Broadway,Taloga,OK,73667,(580) 328-5485,,-98.963744,36.039732,"(36.039732, -98.963744)"
Bethel Acres Tag Agency,"17804 South Highway 102, Bethel Acres",Tecumseh,OK,74873,(405) 878-0040,,-97.053949,35.2844,"(35.2844, -97.053949)"
Tecumseh Tag Agency,514 North Broadway,Tecumseh,OK,74873,(405) 598-2145,,-96.935843,35.249238,"(35.249238, -96.935843)"
Temple Tag Agency,106 South Commercial,Temple,OK,73568,(580) 342-5579,,-98.235879,34.26994,"(34.26994, -98.235879)"
Texhoma Tag Agency,112 2nd Street,Texhoma,OK,73949,(580) 423-7112,,-101.783088,36.505104,"(36.505104, -101.783088)"
Thomas Tag Agency,106 North Main,Thomas,OK,73669,(580) 661-2919,,-98.747744,35.744114,"(35.744114, -98.747744)"
Tipton Tag Agency,423 North West 2nd,Tipton,OK,73570,(580) 667-5708,,-99.142033,34.506371,"(34.506371, -99.142033)"
Tishomingo Tag Agency,107 West Main,Tishomingo,OK,73460,(580) 371-2161,,-96.67751,34.234663,"(34.234663, -96.67751)"
Tonkawa Tag Agency,100 East Grand,Tonkawa,OK,74653,(580) 628-2206,,-97.309688,36.678535,"(36.678535, -97.309688)"
Admiral Tag Office,6704 East Admiral Place,Tulsa,OK,74115,(918) 835-6957,(918) 835-6156,-95.901997,36.16062,"(36.16062, -95.901997)"
Barnes Tag Agency Incorporated,6542 East 91st,Tulsa,OK,74133,(918) 492-4990,(918) 492-4999,-95.903445,36.031701,"(36.031701, -95.903445)"
Billie's Towne West,5632 West Skelly Drive,Tulsa,OK,74107,(918) 445-2929,,-96.046914,36.081702,"(36.081702, -96.046914)"
Blake's West Side Tag,4979 South Union,Tulsa,OK,74107,(918) 446-1548,(918) 446-1740,-96.011536,36.090757,"(36.090757, -96.011536)"
Central Tag Agency,1632 South Harvard,Tulsa,OK,74112,(918) 743-8440,(918) 744-6419,-95.940522,36.138053,"(36.138053, -95.940522)"
Downtown Tulsa Tag Agency,201 West 5th Street,Tulsa,OK,74103,(918) 582-8247,,-95.992602,36.150688,"(36.150688, -95.992602)"
Eastside Tag Agency,1914 South Garnett Road,Tulsa,OK,74128,(918) 234-6244,(918) 234-8347,-95.851234,36.135443,"(36.135443, -95.851234)"
Garnett Tag Agency,5807 South Garnett,Tulsa,OK,74146,(918) 250-7284,(918) 250-7487,-95.850904,36.07866,"(36.07866, -95.850904)"
Mid-Town Tag Agency,5131 South Lewis,Tulsa,OK,74105,(918) 747-6599,,-95.957834,36.088916,"(36.088916, -95.957834)"
Northside Tag Agency,3190 West 21st street,Tulsa,OK,74107,(918) 428-2521,,-96.026873,36.133305,"(36.133305, -96.026873)"
Southeast Tag Agency,4309 South Sheridan,Tulsa,OK,74145,(918) 622-7182,,-95.904353,36.100636,"(36.100636, -95.904353)"
Southside Tag Agency,8741-A South Lewis,Tulsa,OK,74137,(918) 299-6333,,-95.955021,36.037228,"(36.037228, -95.955021)"
Turley Tag Agency,5918 North Peoria,Tulsa,OK,74126,(918) 428-5856,,-95.975703,36.239261,"(36.239261, -95.975703)"
Vern Tag Agency,708 South 49 West Avenue,Tulsa,OK,74127,(918) 582-2122,,-96.047374,36.147826,"(36.147826, -96.047374)"
Turpin Tag Agency,412 South Main,Turpin,OK,73950,(580) 778-3315,,-100.877511,36.86415,"(36.86415, -100.877511)"
Tuttle Tag Agency,303 West Main,Tuttle,OK,73089,(405) 381-2413,,-97.81612,35.290931,"(35.290931, -97.81612)"
Valliant Tag Agency,30 B East Wilson,Valliant,OK,74764,(580) 933-7888,,-95.093601,34.001941,"(34.001941, -95.093601)"
Velma Tag Agency,East Main Behind Texaco,Velma,OK,73091,(580) 444-3557,,-97.673773,34.460591,"(34.460591, -97.673773)"
Vian Tag Agency,Highway 64 East,Vian,OK,74962,(918) 773-5330,,-94.976369,35.50006,"(35.50006, -94.976369)"
Vici Tag Office,7th and Main,Vici,OK,73859,(580) 995-4438,,-99.298609,36.15085,"(36.15085, -99.298609)"
Vinita Tag Agency,320 South Wilson,Vinita,OK,74301,(918) 256-3110,,-95.156753,36.634479,"(36.634479, -95.156753)"
Wagoner Tag Agency,103 North Harrill,Wagoner,OK,74467,(918) 485-5500,,-95.368514,35.959511,"(35.959511, -95.368514)"
Walters Tag Agency,227 North Broadway,Walters,OK,73572,(580) 875-6555,,-98.309324,34.359379,"(34.359379, -98.309324)"
Wanette Tag Agency,Route 2,Wanette,OK,74878,(405) 383-2585,(405) 383-2210,-96.931319,35.015335,"(35.015335, -96.931319)"
Wapanucka Tag Agency,101 East 3rd Street,Wapanucka,OK,73461,(580) 937-4265,(580) 937-4688,-96.423879,34.376045,"(34.376045, -96.423879)"
Waukomis Tag Agency,114 East Euclid,Waukomis,OK,73773,(580) 758-3930,,-97.894319,36.28008,"(36.28008, -97.894319)"
Waurika Tag Agency,202 North Meridian,Waurika,OK,73573,(580) 228-2823,,-97.999842,34.1651,"(34.1651, -97.999842)"
Waynoka,1543 Main Street,Waynoka,OK,73860,(580) 824-2171,,-98.87965,36.577217,"(36.577217, -98.87965)"
Weatherford Tag Office,200 South Broadway,Weatherford,OK,73096,(580) 772-7868,,-98.709041,35.52487,"(35.52487, -98.709041)"
McLoud Tile and Carpet,116 West 9th,Weleetka,OK,74880,(405) 786-2111,,-96.135074,35.345655,"(35.345655, -96.135074)"
Wellston Tag Agency,324 West Second Street,Wellston,OK,74881,(405) 356-2445,(405) 356-2477,-97.067069,35.69449,"(35.69449, -97.067069)"
Westville Tag Agency,218 South Williams,Westville,OK,74965,(918) 723-3762,,-94.565799,35.98784,"(35.98784, -94.565799)"
Wetumka Tag Agent,102 North Main,Wetumka,OK,74883,(405) 452-5955,,-96.241724,35.237441,"(35.237441, -96.241724)"
Wewoka Tag Agency,1025 South Wewoka,Wewoka,OK,74884,(405) 257-2858,,-96.491601,35.148614,"(35.148614, -96.491601)"
Wheatland Tag Agency,7217 South Council Road,Wheatland,OK,73097,(405) 745-4091,,-97.651954,35.397875,"(35.397875, -97.651954)"
Latimer County Tag Agency,106 East Ada,Wilburton,OK,74578,(918) 465-2445,,-95.309417,34.919723,"(34.919723, -95.309417)"
Johnny Turner Tag Agency,425 United States Highway 70A,Wilson,OK,73463,(580) 668-3376,,-97.419926,34.163699,"(34.163699, -97.419926)"
Woodward Tag Agency,502 Main,Woodward,OK,73802,(580) 256-8016,(580) 256-3715,-99.386027,36.435807,"(36.435807, -99.386027)"
Underwood Tag Agency,107 North Dean A McGee,Wynnewood,OK,73098,(405) 665-2211,(405) 665-5388,-97.17026,34.642884,"(34.642884, -97.17026)"
Yale Tag Agency,108 North Main,Yale,OK,74085,(918) 387-2035,,-96.699087,36.114283,"(36.114283, -96.699087)"
Oklahoma Tag of Yukon,933 South Cornwell,Yukon,OK,73099,(405) 354-9820,,-97.742371,35.49846,"(35.49846, -97.742371)"
Yukon Tag Agency,103 East Vandament Avenue,Yukon,OK,73099,(405) 354-2212,,-97.740357,35.493494,"(35.493494, -97.740357)"
Yukon' Best Tag Agency,801 B West Main,Yukon,OK,73099,(405) 354-0800,,-97.737269,35.50542,"(35.50542, -97.737269)"
Warner Tag Agency,806 3rd Avenue,Warner,OK,74469,(918) 463-3687,,-95.322792,35.491483,"(35.491483, -95.322792)"
Watonga Tag Agency,801 Clarence Nash Boulevard,Watonga,OK,73772,(580) 623-5074,,-98.419088,35.865905,"(35.865905, -98.419088)"
Drumright Tag Office,330 East Broadway,Drumright,OK,74030,(918) 352-9829,(918) 352-3779,-96.597483,35.988324,"(35.988324, -96.597483)"
Duncan NorthsideTag Office,1615 West Elk,Duncan,OK,73533,(580) 252-2300,(580) 252-2301,-97.967529,34.521776,"(34.521776, -97.967529)"
Duncan Tag Agency,1894 North Highway 81,Duncan,OK,73533,(580) 252-6688,,-97.966734,34.527141,"(34.527141, -97.966734)"
Durant Tag Office,206 West Evergreen,Durant,OK,74701,(580) 924-0466,,-96.377231,33.992414,"(33.992414, -96.377231)"
Earlsboro Tag Agency,Highways 9 and 9A,Earlsboro,OK,74840,(405) 997-5760,,-96.802819,35.260575,"(35.260575, -96.802819)"
Broadway Tag Agency,3900 South Broadway,Edmond,OK,73013,(405) 341-1400,,-97.49041,35.617537,"(35.617537, -97.49041)"
Edmond Tag Agency,2 West 1st Street,Edmond,OK,73003,(405) 341-0742,,-97.481606,35.654127,"(35.654127, -97.481606)"
Sanford Edmond South,3216 South Boulevard,Edmond,OK,73013,(405) 341-9401,(405) 341-9569,-97.478179,35.63417,"(35.63417, -97.478179)"
Santa Fe Tag Agency,338 South Santa Fe Avenue,Edmond,OK,73003,(405) 330-2112,,-97.513772,35.652785,"(35.652785, -97.513772)"
Woodcrest Tag Agency,3131 East Waterloo Road,Edmond,OK,73034,(405) 348-9000,,-97.439747,35.725419,"(35.725419, -97.439747)"
El Reno Tag Agency,120 South Rock Island,El Reno,OK,73036,(405) 262-1800,,-97.952807,35.532967,"(35.532967, -97.952807)"
Eldorado Tag Agency,517 West Main,Eldorado,OK,73537,(580) 633-2400,,-99.649105,34.473253,"(34.473253, -99.649105)"
Elgin Tag Agency,815 H Avenue,Elgin,OK,73538,(580) 492-5454,,-98.29126,34.783111,"(34.783111, -98.29126)"
Elk City Tag Office,115 East Broadway,Elk City,OK,73644,(580) 225-1936,,-99.404583,35.4108,"(35.4108, -99.404583)"
Enid Tag Agency,115 West Owen K Garriott,Enid,OK,73703,(580) 234-4281,(580) 234-4283,-97.878691,36.390713,"(36.390713, -97.878691)"
Tag Agency of Enid,112 North Oakwood,Enid,OK,73703,(580) 242-8247,,-97.925974,36.396577,"(36.396577, -97.925974)"
Erick Tag Agency,213 West 3rd,Erick,OK,73645,(580) 526-3180,,-99.866689,35.2139,"(35.2139, -99.866689)"
Eufaula Tag Office,305 South Main,Eufaula,OK,74432,(918) 689-3336,,-95.582481,35.284243,"(35.284243, -95.582481)"
Fairfax Tag Agency,242 North Main,Fairfax,OK,74637,(918) 642-3614,,-96.704144,36.569051,"(36.569051, -96.704144)"
Fairview Tag Agency,103 South 7th,Fairview,OK,73737,(580) 227-4510,,-98.4772,36.268916,"(36.268916, -98.4772)"
Fargo Tag Agency,205 South Main,Fargo,OK,73840,(580) 698-2264,,-99.623619,36.375001,"(36.375001, -99.623619)"
Fletcher Tag Agency,428 Cole,Fletcher,OK,73541,(580) 549-6558,,-98.243707,34.822946,"(34.822946, -98.243707)"
Tags 2 Go,102 West Grand,Frederick,OK,73542,(580) 335-7474,,-99.023249,34.389417,"(34.389417, -99.023249)"
Ft. Cobb Tag Agency,324 Main,Ft Cobb,OK,73038,(405) 668-0502,,-98.437519,35.09757,"(35.09757, -98.437519)"
Ft. Gibson Tag Agency,316 East Benge Road,Ft Gibson,OK,74434,(918) 478-2132,,-95.238008,35.783852,"(35.783852, -95.238008)"
Garber Tag Agency,622 Highway Street,Garber,OK,73738,(580) 863-2299,,-97.573058,36.447859,"(36.447859, -97.573058)"
Geary Tag Agency,121 South Blaine,Geary,OK,73040,(405) 884-2778,,-98.319174,35.630756,"(35.630756, -98.319174)"
Glenpool Tag Agency,13809-I Casper Street,Glenpool,OK,74033,(918) 291-8247,(918) 291-9303,-96.011214,35.963172,"(35.963172, -96.011214)"
Goldsby Tag Agency,101 South Main Street,Goldsby,OK,73093,(405) 288-6965,,-97.476744,35.145729,"(35.145729, -97.476744)"
Max Strain Agency,120 South Main,Goodwell,OK,73939,(580) 349-1000,,-101.632241,36.59372,"(36.59372, -101.632241)"
Gore Tag Agency,206 South Main,Gore,OK,74435,(918) 489-5515,(918) 489-5175,-95.119143,35.527548,"(35.527548, -95.119143)"
Grandfield Tag Agency,215 South Main,Grandfield,OK,73546,(580) 479-5657,,-98.683248,34.230573,"(34.230573, -98.683248)"
Granite Tag Agency,104 East 1st,Granite,OK,73547,(580) 535-4848,,-99.38068,34.958163,"(34.958163, -99.38068)"
Grove Tag Agency,909 South Main,Grove,OK,74345,(918) 786-3435,(918) 786-1079,-94.769104,36.588068,"(36.588068, -94.769104)"
Guthrie Tag Office,2105 South Division,Guthrie,OK,73044,(405) 282-3873,,-97.425565,35.85744,"(35.85744, -97.425565)"
Texas County Tag Agency,114 North West 16th Street,Guymon,OK,73942,(580) 338-8631,(580) 338-3663,-101.482356,36.694418,"(36.694418, -101.482356)"
Corner Tag Agency,3400 South Harrah Road,Harrah,OK,73045,(405) 391-9800,,-97.159318,35.428763,"(35.428763, -97.159318)"
Harrah Tag Agency,1940 North Church Avenue,Harrah,OK,73045,(405) 454-6288,,-97.162097,35.48836,"(35.48836, -97.162097)"
Hartshorne Tag Agency,1101 Pennsylvania Avenue,Hartshorne,OK,74547,(918) 297-2181,,-95.553227,34.84426,"(34.84426, -95.553227)"
Haskell Tag Agency,105 South Broadway,Haskell,OK,74436,(918) 482-3448,,-95.674989,35.817845,"(35.817845, -95.674989)"
Healdton Tag Agency,316 Shell Street,Healdton,OK,73438,(580) 229-0114,,-97.486847,34.23186,"(34.23186, -97.486847)"
Heavener Tag Agency,103 East Avenue C,Heavener,OK,74937,(918) 653-2236,,-94.601869,34.889865,"(34.889865, -94.601869)"
Helena Tag Agency,101 East 3rd,Helena,OK,73741,(580) 852-3271,,-98.268531,36.535206,"(36.535206, -98.268531)"
Hennessey Tag Agency,401 North Main,Hennessey,OK,73742,(405) 853-6250,,-97.898755,36.111913,"(36.111913, -97.898755)"
Henryetta Tag Office,904 East Trudgeon,Henryetta,OK,74437,(918) 652-4313,,-95.972341,35.441055,"(35.441055, -95.972341)"
Hinton Tag Agency,101 East Main Street,Hinton,OK,73047,(405) 542-6070,,-98.358029,35.47144,"(35.47144, -98.358029)"
Hobart Tag Agency,407 South Main,Hobart,OK,73651,(580) 726-3333,,-99.093332,35.024319,"(35.024319, -99.093332)"
Holdenville Tag Agency,601 North Hinkley,Holdenville,OK,74848,(405) 379-3146,,-96.393924,35.083426,"(35.083426, -96.393924)"
Vanlandingham Agency,1216 East Broadway,Hollis,OK,73550,(580) 688-2589,,-99.904567,34.681904,"(34.681904, -99.904567)"
Hominy Tag Agency,113 West Main,Hominy,OK,74035,(918) 885-4724,,-96.39436,36.415719,"(36.415719, -96.39436)"
Hooker Tag Agency,201 East Glaydas,Hooker,OK,73945,(580) 652-3959,,-101.212052,36.860813,"(36.860813, -101.212052)"
Choctaw County Tag Agency,1605 East Jackson,Hugo,OK,74743,(580) 326-8247,,-95.492922,34.008439,"(34.008439, -95.492922)"
Hydro Tag Agency,221 West Main,Hydro,OK,73048,(405) 663-2300,Website:,-98.581301,35.549625,"(35.549625, -98.581301)"
Idabel Tag Agency,1403 East Washington,Idabel,OK,74745,(580) 208-2222,,-94.841898,33.89289,"(33.89289, -94.841898)"
Riggs Tag Agency,319-B North Broadway,Inola,OK,74036,(918) 543-3530,(918) 543-8433,-95.51206,36.157006,"(36.157006, -95.51206)"
Jay Tag Agency,129 North Main,Jay,OK,74346,(918) 253-8272,,-94.791004,36.423617,"(36.423617, -94.791004)"
Jenks Tag Agency,715 A West Main Street,Jenks,OK,74037,(918) 299-2120,,-95.962115,36.023862,"(36.023862, -95.962115)"
Jenks Tag Agency,715 A West Main Street,Jenks,OK,74037,(918) 299-2120,,-95.962115,36.023862,"(36.023862, -95.962115)"
Jones Tag Agency,104 West Main,Jones,OK,73049,(405) 399-9113,,-97.286505,35.565593,"(35.565593, -97.286505)"
Jones Tag Agency,104 West Main,Jones,OK,73049,(405) 399-9113,,-97.286505,35.565593,"(35.565593, -97.286505)"
Kansas Tag Agent,8089 United States Highway 412 Alternate,Kansas,OK,74347,(918) 868-3977,(918) 868-9216,-94.768177,36.206649,"(36.206649, -94.768177)"
Ketchum Tag Office,121 West Ketchum,Ketchum,OK,74349,(918) 782-3364,,-95.032749,36.52463,"(36.52463, -95.032749)"
Kingfisher Tag Agency,301 West Broadway,Kingfisher,OK,73750,(405) 375-3761,,-97.935395,35.860828,"(35.860828, -97.935395)"
KingstonTag Agency,206 Highway 70 West,Kingston,OK,73439,(580) 564-6500,,-96.691709,33.93962,"(33.93962, -96.691709)"
Konawa Tag Agency,300 South Broadway,Konawa,OK,74849,(580) 925-3283,,-96.75197,34.954664,"(34.954664, -96.75197)"
Kremlin Tag Agency,705 Main Street,Kremlin,OK,73753,(580) 874-2232,(580) 874-2244,-97.831696,36.54569,"(36.54569, -97.831696)"
Langley Tag Agency,"Highway 82 North, Grand Village Number 3",Langley,OK,74350,(918) 782-9009,,-95.047764,36.465784,"(36.465784, -95.047764)"
Laverne Tag Agency,129 West Jane Jayroe,Laverne,OK,73848,(580) 921-6000,,-99.904869,36.70962,"(36.70962, -99.904869)"
Comanche County Motor License Agency,902 South West 38th Street,Lawton,OK,73505,(580) 355-3810,(580) 355-5820,-98.439555,34.599459,"(34.599459, -98.439555)"
Lawton Fort Sill Tag Agency,29 South West D Avenue,Lawton,OK,73501,(580) 355-8247,,-98.3879,34.604224,"(34.604224, -98.3879)"
Medicine Park Tag Agency,11 Autumn Drive,Lawton,OK,73501,(580) 529-5298,,-98.367138,34.594374,"(34.594374, -98.367138)"
Motor Vehicle Tag Agency,1303 1/2 Lee Boulevard,Lawton,OK,73501,(580) 248-4565,,-98.40741,34.5945,"(34.5945, -98.40741)"
C & C Tag Agency,609 East Broadway,Lexington,OK,73051,(405) 527-4477,(405) 527-2470,-97.327558,35.014823,"(35.014823, -97.327558)"
Lindsay Tag Agency,125 South Main,Lindsay,OK,73052,(405) 756-4707,,-97.602582,34.836558,"(34.836558, -97.602582)"
Locust Grove Tag Agency,114 Harold Andrews Boulevard,Locust Grove,OK,74352,(918) 479-1800,,-95.168113,36.1999,"(36.1999, -95.168113)"
Lone Wolf Tag Agency,601 Rock Island,Lone Wolf,OK,73655,(580) 846-5262,,-99.247424,34.989565,"(34.989565, -99.247424)"
Luther Tag Agency,221 South Ash,Luther,OK,73054,(405) 277-3294,(405) 277-3295,-97.194797,35.66089,"(35.66089, -97.194797)"
Macomb Tag Agency,36551 2nd Street,Macomb,OK,74852,(405) 598-0545,,-97.008454,35.146255,"(35.146255, -97.008454)"
Madill Tag Agency,207 Plaza,Madill,OK,73446,(580) 795-5342,,-96.761357,34.072712,"(34.072712, -96.761357)"
Mangum Tag Agency,127 South Oklahoma Avenue,Mangum,OK,73554,(580) 782-3004,,-99.506194,34.87328,"(34.87328, -99.506194)"
Mannford Tag Agency,124 Evans Road,Mannford,OK,74044,(918) 865-4418,,-96.351536,36.121666,"(36.121666, -96.351536)"
Topco,112 West Main,Marietta,OK,73448,(580) 276-2101,,-97.117088,33.937312,"(33.937312, -97.117088)"
Marlow Tag Agency,1202 North Broadway,Marlow,OK,73055,(580) 658-3190,,-97.957906,34.66116,"(34.66116, -97.957906)"
Tag Agency,Main and Oak,Maysville,OK,73057,(405) 867-5695,,-97.409569,34.8179,"(34.8179, -97.409569)"
McAlester Tag Office,1208 North Main,McAlester,OK,74502,(918) 423-5455,(918) 423-9132,-95.765619,34.944213,"(34.944213, -95.765619)"
McLoud Tag Agency,503 West Broadway,McLoud,OK,74851,(405) 964-7700,,-97.093355,35.436137,"(35.436137, -97.093355)"
Grant County Tag Agency,112 North Main,Medford,OK,73759,(580) 395-2139,,-97.734863,36.807125,"(36.807125, -97.734863)"
Meeker Tag Agency,700 West Carl Hubbell,Meeker,OK,74855,(405) 279-2021,,-96.973917,35.521136,"(35.521136, -96.973917)"
Ottawa County Tag Agency,20 First Avenue North East,Miami,OK,74354,(918) 542-7006,(918) 542-7774,-94.877253,36.876032,"(36.876032, -94.877253)"
