X,Y,OBJECTID,DESCRIPTION,JURISDICTION,STREET_NUMBER,STREET_NAME,CITY,ZIP,GlobalID,CreationDate,Creator,EditDate,Editor
11801218.57,7037484.081,1,HERNDON PO,TOWN OF HERNDON,590,GROVE ST,HERNDON,20170,2eb7ea0c-a448-4920-9466-4016d37d6daa,2023/11/19 06:02:51.892+00,FairfaxCounty,2023/11/19 06:02:51.892+00,FairfaxCounty
11784742.898,7007409.138,2,CHANTILLY PO,COUNTY OF FAIRFAX,4410,BROOKEFIELD CORPORATE DR,CHANTILLY,20151,babc99db-ddc4-4b84-bdb2-e9f69cf4a421,2023/11/19 06:02:51.892+00,FairfaxCounty,2023/11/19 06:02:51.892+00,FairfaxCounty
11820641.48525,6993274.98774999,3,FAIRFAX PO,CITY OF FAIRFAX,10660,PAGE AV,FAIRFAX,22030,9a83e8d9-2d3d-4265-90b8-203a0fdba3aa,2023/11/19 06:02:51.892+00,FairfaxCounty,2023/11/19 06:02:51.892+00,FairfaxCounty
11832609.543,6995191.487,4,TURNPIKE PO,CITY OF FAIRFAX,3601,PICKETT RD,FAIRFAX,22031,8d72edf8-e610-45db-9029-fdc9948805e5,2023/11/19 06:02:51.892+00,FairfaxCounty,2023/11/19 06:02:51.892+00,FairfaxCounty
11842022.723,7023971.545,5,WEST MCLEAN PO,COUNTY OF FAIRFAX,1544,SPRING HILL RD,TYSONS,22102,46c15219-ee75-4853-b71c-b98627b20a8b,2023/11/19 06:02:51.892+00,FairfaxCounty,2023/11/19 06:02:51.892+00,FairfaxCounty
11851489.5195,6942487.1575,6,LORTON PO,COUNTY OF FAIRFAX,7726,GUNSTON PLZ,LORTON,22079,3a76932b-74af-479b-aab8-167aaeaec3b7,2023/11/19 06:02:51.892+00,FairfaxCounty,2023/11/19 06:02:51.892+00,FairfaxCounty
11871993.909,6936362.63725001,7,FORT BELVOIR PO,FORT BELVOIR,5875,21ST ST,FORT BELVOIR,22060,d62e57d5-8f1c-4069-95f2-d5f9fe33b04a,2023/11/19 06:02:51.892+00,FairfaxCounty,2023/11/19 06:02:51.892+00,FairfaxCounty
11885444.45775,6945700.48125,8,MOUNT VERNON PO,COUNTY OF FAIRFAX,3500T,MOUNT VERNON MEMORIAL HWY,MOUNT VERNON,22121,25f8e53b-7f5e-4084-974d-9322be222d70,2023/11/19 06:02:51.892+00,FairfaxCounty,2023/11/19 06:02:51.892+00,FairfaxCounty
11815793.403,7030220.70100001,9,RESTON PO,COUNTY OF FAIRFAX,11110,SUNSET HILLS RD,RESTON,20190,7e80f9ed-8d5e-488d-b8a8-ad59301931a8,2023/11/19 06:02:51.892+00,FairfaxCounty,2023/11/19 06:02:51.892+00,FairfaxCounty
11842983.989,7003206.868,10,MERRIFIELD PO,COUNTY OF FAIRFAX,8409,LEE HWY,MERRIFIELD,22116,46fd40e2-35d2-48f4-a603-4272e686d854,2023/11/19 06:02:51.892+00,FairfaxCounty,2023/11/19 06:02:51.892+00,FairfaxCounty
11862066.15725,7002684.38,11,MOSBY FINANCE UNIT PO,COUNTY OF FAIRFAX,6533,ARLINGTON BLVD,FALLS CHURCH,22042,55834972-c4ef-4f74-a3e8-ea9d9cf661ad,2023/11/19 06:02:51.892+00,FairfaxCounty,2023/11/19 06:02:51.892+00,FairfaxCounty
11867053.76725,7001553.07350001,12,SEVEN CORNERS PO,COUNTY OF FAIRFAX,6375,SEVEN CORNERS CTR,FALLS CHURCH,22044,c65f399e-60ba-4b99-b761-7aca9c5be0b6,2023/11/19 06:02:51.892+00,FairfaxCounty,2023/11/19 06:02:51.892+00,FairfaxCounty
11833319.775,7013304.682,13,VIENNA PO,TOWN OF VIENNA,200,LAWYERS RD NW,VIENNA,22180,99c3d492-a02c-4471-9ca6-7fd671b5b552,2023/11/19 06:02:51.892+00,FairfaxCounty,2023/11/19 06:02:51.892+00,FairfaxCounty
11845801.215,7012466.676,14,DUNN LORING PO,COUNTY OF FAIRFAX,2302,GALLOWS RD,DUNN LORING,22027,d6d3fdbc-22c7-4dad-b1b8-a343196ce985,2023/11/19 06:02:51.892+00,FairfaxCounty,2023/11/19 06:02:51.892+00,FairfaxCounty
11858300.435,7026514.33175001,16,McLEAN PO,COUNTY OF FAIRFAX,6841,ELM ST,MCLEAN,22101,375519ab-90fd-4ed1-82ad-5051dc2935aa,2023/11/19 06:02:51.892+00,FairfaxCounty,2023/11/19 06:02:51.892+00,FairfaxCounty
11817300.10225,6977270.28225,17,FAIRFAX STATION PO,COUNTY OF FAIRFAX,5616I,OX RD,FAIRFAX STATION,22039,061547cc-7165-4c46-854d-164aef196012,2023/11/19 06:02:51.892+00,FairfaxCounty,2023/11/19 06:02:51.892+00,FairfaxCounty
11885969.619,6959673.302,18,COMMUNITY PO,COUNTY OF FAIRFAX,7676,RICHMOND HWY,ALEXANDRIA,22306,237eab6c-2303-4ff4-8b86-06b7e997f0e8,2023/11/19 06:02:51.892+00,FairfaxCounty,2023/11/19 06:02:51.892+00,FairfaxCounty
11888362.366,6974160.597,19,JEFFERSON MANOR PO,COUNTY OF FAIRFAX,5834C,N KINGS HWY,ALEXANDRIA,22303,023eb05d-b0f8-4f02-b6db-4b2dc5aa6e99,2023/11/19 06:02:51.892+00,FairfaxCounty,2023/11/19 06:02:51.892+00,FairfaxCounty
11875165.54275,6980101.851,20,TRADE CENTER FINANCE UNIT PO,CITY OF ALEXANDRIA,368,S PICKETT ST,ALEXANDRIA,22304,39649d42-7cd8-4943-87c9-e3a0a186f28e,2023/11/19 06:02:51.892+00,FairfaxCounty,2023/11/19 06:02:51.892+00,FairfaxCounty
11871002.81525,6984212.583,21,LINCOLNIA PO,CITY OF ALEXANDRIA,6137,LINCOLNIA RD,ALEXANDRIA,22312,4e7bf0a6-24e3-4ff0-bb73-696809927967,2023/11/19 06:02:51.892+00,FairfaxCounty,2023/11/19 06:02:51.892+00,FairfaxCounty
11858538.2205,7009299.17225,22,FALLS CHURCH FINANCE PO,CITY OF FALLS CHURCH,800,W BROAD ST,FALLS CHURCH,22046,48a675d0-e501-4f69-a628-190aa751dd3e,2023/11/19 06:02:51.892+00,FairfaxCounty,2023/11/19 06:02:51.892+00,FairfaxCounty
11856918.68975,6952140.991,23,NEWINGTON PO,COUNTY OF FAIRFAX,8253A,BACKLIICK RD,LORTON,22122,74e86fb3-1479-47a4-9a84-b37ae122958b,2023/11/19 06:02:51.892+00,FairfaxCounty,2023/11/19 06:02:51.892+00,FairfaxCounty
11800741.29625,6969472.10349999,24,CLIFTON PO,TOWN OF CLIFTON,12644,CHAPEL RD,CLIFTON,20124,19db88a6-50fa-4cb3-a989-55ca93a9f30c,2023/11/19 06:02:51.892+00,FairfaxCounty,2023/11/19 06:02:51.892+00,FairfaxCounty
11870456.8875,6997342.6595,25,BAILEYS CROSSROADS PO,COUNTY OF FAIRFAX,6021,LEESBURG PIKE,FALLS CHURCH,22041,bc90884b-6e8d-49b5-9d8c-e8f0846ae1cd,2023/11/19 06:02:51.892+00,FairfaxCounty,2023/11/19 06:02:51.892+00,FairfaxCounty
11847102.58025,6980159.91824999,26,NORTH SPRINGFIELD PO,COUNTY OF FAIRFAX,5242,PORT ROYAL RD,SPRINGFIELD,22151,45f987b1-e33d-41ec-85e0-fd5abdbaed78,2023/11/19 06:02:51.892+00,FairfaxCounty,2023/11/19 06:02:51.892+00,FairfaxCounty
11893057.63975,6968999.183,27,BELLEVIEW PO,COUNTY OF FAIRFAX,1626,BELLE VIEW BLVD,ALEXANDRIA,22307,803684c2-39f8-4daf-9e53-844c61f55c0e,2023/11/19 06:02:51.892+00,FairfaxCounty,2023/11/19 06:02:51.892+00,FairfaxCounty
11875203.825,6971804.876,28,FRANCONIA PO,COUNTY OF FAIRFAX,5221,FRANCONIA RD,ALEXANDRIA,22310,600276c5-df33-4e46-85c1-b92d8220fe11,2023/11/19 06:02:51.892+00,FairfaxCounty,2023/11/19 06:02:51.892+00,FairfaxCounty
11857658.803,6967435.14174999,29,SPRINGFIELD PO,COUNTY OF FAIRFAX,7051,BROOKFIELD PLZ,SPRINGFIELD,22150,bcab0646-5ffd-46d7-bf54-cf00b5a38a30,2023/11/19 06:02:51.892+00,FairfaxCounty,2023/11/19 06:02:51.892+00,FairfaxCounty
11843089.719,6970478.38,30,WEST SPRINGFIELD PO,COUNTY OF FAIRFAX,6200,ROLLING RD,SPRINGFIELD,22152,5a8a4efa-a94f-4377-86d0-d1ad11d5d65b,2023/11/19 06:02:51.892+00,FairfaxCounty,2023/11/19 06:02:51.892+00,FairfaxCounty
11832746.606,6974485.36,31,BURKE PO,COUNTY OF FAIRFAX,9501,BURKE RD,BURKE,22015,3cce1772-64f2-4c13-9f7b-9dc1e5e28575,2023/11/19 06:02:51.892+00,FairfaxCounty,2023/11/19 06:02:51.892+00,FairfaxCounty
11826410.14875,7048720.5775,32,GREAT FALLS PO,COUNTY OF FAIRFAX,10001,GEORGETOWN PIKE,GREAT FALLS,22066,30e3f5d5-3e91-4e3e-b025-8a782318ba7d,2023/11/19 06:02:51.892+00,FairfaxCounty,2023/11/19 06:02:51.892+00,FairfaxCounty
11822530.161,7003469.46799999,33,OAKTON PO,COUNTY OF FAIRFAX,10449,WHITE GRANITE DR,OAKTON,22124,5de651ed-d6c5-4786-9906-6b4e991ce40d,2023/11/19 06:02:51.892+00,FairfaxCounty,2023/11/19 06:02:51.892+00,FairfaxCounty
11855844.028,6988193.958,34,ANNANDALE PO,COUNTY OF FAIRFAX,4270,JOHN MARR DR,ANNANDALE,22003,7e33f6f3-bbdf-4cfa-aa3a-419519b8be9d,2023/11/19 06:02:51.892+00,FairfaxCounty,2023/11/19 06:02:51.892+00,FairfaxCounty
11877658.626,6950318.207,35,ENGELSIDE PO,COUNTY OF FAIRFAX,8588,RICHMOND HWY,ALEXANDRIA,22309,40ec1058-8900-43bc-8d62-30d6c809511e,2023/11/19 06:02:51.892+00,FairfaxCounty,2023/11/19 06:02:51.892+00,FairfaxCounty
11867434.0395,6946005.76475,36,NORTH POST PO,FORT BELVOIR,9001,GUNSTON RD,FORT BELVOIR,22060,f5f8df59-a345-41c5-afd8-33e4eb22d004,2023/11/19 06:02:51.892+00,FairfaxCounty,2023/11/19 06:02:51.892+00,FairfaxCounty
11871172.834,6965933.5,37,KINGSTOWNE PO,COUNTY OF FAIRFAX,5900,BARCLAY DR,ALEXANDRIA,22315,80bea199-05b7-4daa-bf66-f935e3988607,2023/11/19 06:02:51.892+00,FairfaxCounty,2023/11/19 06:02:51.892+00,FairfaxCounty
11782445.916,7001503.61525001,38,SULLY STATION PO,COUNTY OF FAIRFAX,5003,WESTFIELDS BLVD,CENTREVILLE,20120,66f7be56-8ddd-41b2-bb5b-42d40b216b43,2023/11/19 06:02:51.892+00,FairfaxCounty,2023/11/19 06:02:51.892+00,FairfaxCounty
11792048.556,7021015.03399999,39,OAK HILL PO,COUNTY OF FAIRFAX,13520,MCLEAREN RD,HERNDON,20171,80af3e4a-2bff-4b4c-b1ed-9cb5eef6f84b,2023/11/19 06:02:51.892+00,FairfaxCounty,2023/11/19 06:02:51.892+00,FairfaxCounty
11786636.21775,6990637.75825,40,CENTREVILLE PO,COUNTY OF FAIRFAX,14120A,LEE HWY,CENTREVILLE,20120,d8a26b5f-a1b5-4943-81fd-6df1a817e6d8,2023/11/19 06:02:51.892+00,FairfaxCounty,2023/11/19 06:02:51.892+00,FairfaxCounty
