X,Y,OBJECTID,NAME,ADDRESS,DIVISION,SOCCER,OVERLAPPIN,E_SURFACE,E_LIGHTS,PMAID,LOCID,AMWO_ID,RES1,RES2,GLOBALID,GIS_CREATOR,GIS_CRT_DT,GIS_EDITOR,GIS_EDT_DT,SDQL
1262425.24999988,208836.68743889,1059,Delridge PF,Delridge Way S & SW Genesee St,South,1,Y,Synthetic,Yes,450.0,,,4- Sched,,{C5E35159-63E0-4921-8E5C-F704695864BB},SeattleParks_SeattleCityGIS,2023/11/20 20:59:08+00,SeattleParks_SeattleCityGIS,2023/11/20 20:59:08+00,QL-D3
1285682.12507397,207158.703262061,1060,Lakewood PG,S Angeline St & 50th  Ave S,South,1,Y,Grass,No,414.0,,,2- Sched,,{4EF4F907-38AD-44BD-8C84-A63D1F739B3C},SeattleParks_SeattleCityGIS,2023/11/20 20:59:08+00,SeattleParks_SeattleCityGIS,2023/11/20 20:59:08+00,QL-D3
1270117.5000353,257193.093678638,1061,Robert Eagle Staff MS,1330 N 90th St,SSD,1,Y,Synthetic,No,,,,3-Sched,,{29D7681D-E4C5-4134-A7A0-1FB86F615595},SeattleParks_SeattleCityGIS,2023/11/20 20:59:08+00,SeattleParks_SeattleCityGIS,2023/11/20 20:59:08+00,QL-D3
1265653.25010556,235746.156257644,1062,East Queen Anne PG,1912 Warren Ave N,Central,1,N,Grass,No,329.0,,,,,{38194453-6DA2-4E5C-92FE-0301EA4887F4},SeattleParks_SeattleCityGIS,2023/11/20 20:59:08+00,SeattleParks_SeattleCityGIS,2023/11/20 20:59:08+00,QL-D3
1271874.75012971,264571.124854311,1063,Northgate ES,11725 1st Ave NE,SSD,1,Y,Grass,No,,,,3- Sched,,{B9D43DC0-2B04-41CE-A4BF-9C4926284505},SeattleParks_SeattleCityGIS,2023/11/20 20:59:08+00,SeattleParks_SeattleCityGIS,2023/11/20 20:59:08+00,QL-D3
1273979.37518555,228190.328193471,1064,Bobby Morris PF,1700 Negel Pl,Central,1,Y,Synthetic,Yes,3102.0,,,3 - Sched,,{8A9FB5EA-18F8-4553-8D5E-879094BFD21B},SeattleParks_SeattleCityGIS,2023/11/20 20:59:08+00,SeattleParks_SeattleCityGIS,2023/11/20 20:59:08+00,QL-D3
1274408.06527306,204909.551592395,1065,Cleveland PF,5511 15th Ave S,South,1,N,Synthetic,Yes,404.0,,,1- Sched,,{8AD47B2D-4DCD-4327-8DF3-E42A49449749},SeattleParks_SeattleCityGIS,2023/11/20 20:59:08+00,SeattleParks_SeattleCityGIS,2023/11/20 20:59:08+00,QL-D3
1283037.12511463,253459.984346971,1066,Thornton Creek ES,7711 43rd Ave NE,SSD,2,Y,Grass,No,,,,,,{887E6D61-2A95-431E-8673-92D1DE39077E},SeattleParks_SeattleCityGIS,2023/11/20 20:59:08+00,SeattleParks_SeattleCityGIS,2023/11/20 20:59:08+00,QL-D3
1262930.76375264,203390.881729469,1067,Boren K-8,5950 Delridge Way SW,SSD,1,Yes,Grass,No,,,,2- Sched,,{0211D042-130E-47F8-A59F-302DB1F75088},SeattleParks_SeattleCityGIS,2023/11/20 20:59:08+00,SeattleParks_SeattleCityGIS,2023/11/20 20:59:08+00,QL-D3
1280572.27636981,196556.894741312,1068,Van Asselt ES,8311 Beacon Ave S,SE,1,Yes,Grass,No,,,,,,{43CB74C5-76C8-47BE-A2F2-43D54EFA1F9E},SeattleParks_SeattleCityGIS,2023/11/20 20:59:08+00,SeattleParks_SeattleCityGIS,2023/11/20 20:59:08+00,QL-D3
1266839.87502889,243113.437454805,1069,B.F. Day PG,4020 Freemont Ave N,North,1,Y,Grass,No,241.0,,,2- Sched,,{451C8849-3E9E-44AE-8B35-6854687CE402},SeattleParks_SeattleCityGIS,2023/11/20 20:59:08+00,SeattleParks_SeattleCityGIS,2023/11/20 20:59:08+00,QL-D3
1282732.25006822,203275.312406808,1070,Brighton PF,39th Ave W & S Juneau St,South,1,Y,Synthetic,Yes,402.0,,,4- Sched,,{395BF738-E1D3-4653-AC99-90EFABC93867},SeattleParks_SeattleCityGIS,2023/11/20 20:59:08+00,SeattleParks_SeattleCityGIS,2023/11/20 20:59:08+00,QL-D3
1282568.19134122,234511.666272566,1071,McGilvra ES,1617 38th Ave NE,SSD,1,N,Synthetic,No,,,,1- Sched,,{AF0B10C7-127C-4B10-954C-0666CBB20E3A},SeattleParks_SeattleCityGIS,2023/11/20 20:59:08+00,SeattleParks_SeattleCityGIS,2023/11/20 20:59:08+00,QL-D3
1283069.37505014,260621.203292221,1072,John Rogers ES,4030 NE 109th St,SSD,1,Y,Grass,No,,,,2- Sched,,{E8A548AE-0925-4878-A897-E5EA654AD175},SeattleParks_SeattleCityGIS,2023/11/20 20:59:08+00,SeattleParks_SeattleCityGIS,2023/11/20 20:59:08+00,QL-D3
1273035.25010531,204646.734532729,1073,Georgetown PF,750 S Homer St,South,1,Y,Synthetic,Yes,410.0,,,2- Sched,,{A43AE1A4-669B-4156-AD8F-1FC9A7A0EAB5},SeattleParks_SeattleCityGIS,2023/11/20 20:59:08+00,SeattleParks_SeattleCityGIS,2023/11/20 20:59:08+00,QL-D3
1275794.12516497,264776.968602732,1074,Pinehurst PG,12029 14th Ave NE,North,1,N,Grass,No,382.0,,,2- Sched,,{30C39785-23A6-4CF5-804E-6E1BB91BE69C},SeattleParks_SeattleCityGIS,2023/11/20 20:59:08+00,SeattleParks_SeattleCityGIS,2023/11/20 20:59:08+00,QL-D3
1283709.64115806,208827.85970065,1075,Genesee Park & PF,4316 S Genesee St,South,2,N,Synthetic,Yes,409.0,,,2- Sched,,{28E0F6B9-E337-4968-BFD5-240F83F06894},SeattleParks_SeattleCityGIS,2023/11/20 20:59:08+00,SeattleParks_SeattleCityGIS,2023/11/20 20:59:08+00,QL-D3
1255790.25014655,212917.937478483,1076,Madison MS,3429 45th Ave SW,SSD,1,N,Grass,No,,,,1- Sched,,{67B10B2B-D29B-402C-9940-9C6B789D1F08},SeattleParks_SeattleCityGIS,2023/11/20 20:59:08+00,SeattleParks_SeattleCityGIS,2023/11/20 20:59:08+00,QL-D3
1259680.96907113,239654.848899558,1077,Interbay Stadium,3027 17th Ave W,Central,1,N,Synthetic,Yes,3887.0,,,1- Sched,,{7D94EAAA-2BD1-4778-8A13-5497231DBC08},SeattleParks_SeattleCityGIS,2023/11/20 20:59:08+00,SeattleParks_SeattleCityGIS,2023/11/20 20:59:08+00,QL-D3
1259298.71097739,251211.631232142,1078,Salmon Bay K-8,1810 NW 65th St,SSD,1,N,Synthetic,No,,,,1,,{6ACB9906-742B-4527-B07A-456697C84F6C},SeattleParks_SeattleCityGIS,2023/11/20 20:59:08+00,SeattleParks_SeattleCityGIS,2023/11/20 20:59:08+00,QL-D3
1278925.81279922,199397.871014729,1079,Van Asselt ES (Closed),7201 Beacon Ave South,SSD,1,N,Synthetic,No,,,,1,,{55658301-0F78-4C8E-85FD-BA8A58DF9E74},SeattleParks_SeattleCityGIS,2023/11/20 20:59:08+00,SeattleParks_SeattleCityGIS,2023/11/20 20:59:08+00,QL-D3
1279559.0047743,213813.039034724,1080,Franklin HS,3013 S Mt Baker Blvd,SSD,1,Y,Synthetic,No,,,,2- sched,,{782E1A40-10DA-4AD2-896B-BC5E42400260},SeattleParks_SeattleCityGIS,2023/11/20 20:59:08+00,SeattleParks_SeattleCityGIS,2023/11/20 20:59:08+00,QL-D3
1256682.12500322,249293.937560976,1081,Ballard PG,6020 28th Ave NW,North,1,Y,Grass,Yes,497.0,,,3- Sched,,{1902667A-80A8-4E59-9707-1811CA8301C6},SeattleParks_SeattleCityGIS,2023/11/20 20:59:08+00,SeattleParks_SeattleCityGIS,2023/11/20 20:59:08+00,QL-D3
1279690.12491889,200186.734266385,1082,Van Asselt PG,27050 Beacon Ave S,South,1,Y,Grass,No,431.0,,,3- Sched,,{FED6AA45-1EB3-4BC3-A1A7-304FF1CDE8F3},SeattleParks_SeattleCityGIS,2023/11/20 20:59:08+00,SeattleParks_SeattleCityGIS,2023/11/20 20:59:08+00,QL-D3
1264234.4999903,239184.187439308,1083,Queen Anne Bowl PF,2806 3rd Ave W,Central,1,Y,Synthetic,No,3984.0,,,1- Sched,,{5B7A9D6D-995B-46C4-B511-1743812774B8},SeattleParks_SeattleCityGIS,2023/11/20 20:59:08+00,SeattleParks_SeattleCityGIS,2023/11/20 20:59:08+00,QL-D3
1260953.3749909,198073.453059897,1084,E.C. Hughes PG,2805 SW Holden St,South,1,Y,Grass,No,458.0,,,4- Sched,,{09BBCDB7-3480-4604-B85C-BE3D664821CA},SeattleParks_SeattleCityGIS,2023/11/20 20:59:08+00,SeattleParks_SeattleCityGIS,2023/11/20 20:59:08+00,QL-D3
1275427.80667189,209833.197913066,1085,Jefferson Park & PF,3801 Beacon Ave S,South,1,Y,Synthetic,Yes,114.0,,,2- Sched,,{5B0BFB4D-DA6C-4506-A65E-127ED0DEDD9B},SeattleParks_SeattleCityGIS,2023/11/20 20:59:08+00,SeattleParks_SeattleCityGIS,2023/11/20 20:59:08+00,QL-D3
1251949.99995306,214833.45300439,1086,Alki PG,58th Ave SW & SW Lander St,South,1,Y,Grass,No,446.0,,,2- Sched,,{27889058-A304-4BFC-8B56-23BC1F1F5255},SeattleParks_SeattleCityGIS,2023/11/20 20:59:08+00,SeattleParks_SeattleCityGIS,2023/11/20 20:59:08+00,QL-D3
1259574.97814138,258235.700189233,1087,Whitman MS,9201 15th Ave NW,SSD,1,N,Synthetic,No,,,,1- Sched,,{AB35DFC6-E08E-4B5D-A5E2-0AC49B7EEDE1},SeattleParks_SeattleCityGIS,2023/11/20 20:59:08+00,SeattleParks_SeattleCityGIS,2023/11/20 20:59:08+00,QL-D3
1254447.09305598,239585.948774889,1088,West Magnolia PF,2518 34th Ave W,Central,2,Y,Grass,No,319.0,,,11- Sched,,{B38D9D68-81D4-41D2-B92F-AC0B4311FB93},SeattleParks_SeattleCityGIS,2023/11/20 20:59:08+00,SeattleParks_SeattleCityGIS,2023/11/20 20:59:08+00,QL-D3
1285923.52649406,194957.481273472,1089,Rainier Beach HS,8815 Seward Park Ave S,SSD,1,Y,Synthetic and Grass,Yes,,,,3- Sched,,{0E77538B-0031-4EAC-A83F-623DFE1CFCAD},SeattleParks_SeattleCityGIS,2023/11/20 20:59:08+00,SeattleParks_SeattleCityGIS,2023/11/20 20:59:08+00,QL-D3
1261097.0554778,250725.140735313,1090,Ballard HS,1418 NW 65th St,SSD,1,Y,Synthetic,No,,,,2- Sched,,{2F088CF9-92FE-4647-857C-46ED7D8D9F89},SeattleParks_SeattleCityGIS,2023/11/20 20:59:08+00,SeattleParks_SeattleCityGIS,2023/11/20 20:59:08+00,QL-D3
1284679.37478289,194998.28138873,1091,Rainier Beach PF,8825 Rainier Ave S,South,1,N,Grass,No,422.0,,,3- Sched,,{DFCE2C22-8BD8-453C-9423-FA61990AEF5B},SeattleParks_SeattleCityGIS,2023/11/20 20:59:08+00,SeattleParks_SeattleCityGIS,2023/11/20 20:59:08+00,QL-D3
1254908.8749408,198608.45330222,1092,Lincoln Park,8603 Fauntleroy Way SW,South,1,Y,Grass,No,460.0,,,4- Sched,,{8C4D1A6C-2D4A-435C-B729-478E91909141},SeattleParks_SeattleCityGIS,2023/11/20 20:59:08+00,SeattleParks_SeattleCityGIS,2023/11/20 20:59:08+00,QL-D3
1261901.25006364,247301.937607974,1093,Gilman PG,923 NW 54th St,North,1,Y,Grass,No,242.0,,,3- Sched,,{5E8BE603-8F57-4994-9350-CA5ECCAF309D},SeattleParks_SeattleCityGIS,2023/11/20 20:59:08+00,SeattleParks_SeattleCityGIS,2023/11/20 20:59:08+00,QL-D3
1281271.62503672,261604.734461635,1094,NE Athletic Complex (Hale HS),10750 30th NE,SSD,1,Y,Synthetic,Yes,,,,2- Sched,,{A1F6B576-9270-43E6-BEDC-DEB27A45C054},SeattleParks_SeattleCityGIS,2023/11/20 20:59:08+00,SeattleParks_SeattleCityGIS,2023/11/20 20:59:08+00,QL-D3
1260225.25013481,200754.01561214,1095,Walt Hundley PF,6920 34th Ave SW,South,1,Y,Synthetic and Grass,Yes,3941.0,,,3- Sched,,{C305030A-3528-43E8-A663-0313BE0FF657},SeattleParks_SeattleCityGIS,2023/11/20 20:59:08+00,SeattleParks_SeattleCityGIS,2023/11/20 20:59:08+00,QL-D3
1268847.67842796,246567.816700891,1096,Lower Woodland Fields,1000 N 50th St,North,1,N,Synthetic and Grass,Yes,292.0,,,7- Sched,,{AC7F8CCC-5E16-4368-911B-391C5A158874},SeattleParks_SeattleCityGIS,2023/11/20 20:59:08+00,SeattleParks_SeattleCityGIS,2023/11/20 20:59:08+00,QL-D3
1274699.50005764,217211.43742165,1097,Beacon Hill PG,1902 13th Ave S,South,1,N,Grass,No,400.0,,,2- Sched,,{932AA8A1-A921-4245-A680-4CB4C625FE4F},SeattleParks_SeattleCityGIS,2023/11/20 20:59:08+00,SeattleParks_SeattleCityGIS,2023/11/20 20:59:08+00,QL-D3
1274877.37502997,222538.718761817,1098,Bailey Gatzert ES,1301 E Yesler Way,SSD,1,Y,Grass,No,,,,2- Sched,,{CBA741E3-AD41-424F-93D3-DB84E8CE0B28},SeattleParks_SeattleCityGIS,2023/11/20 20:59:08+00,SeattleParks_SeattleCityGIS,2023/11/20 20:59:08+00,QL-D3
1270211.99984631,267665.749898642,1099,NW Athletic Complex (Ingraham),1819 N 135th St,SSD,2,Y,Synthetic,Yes,,,,6- Sched,,{E8574A68-6758-4F84-BEEF-0C407985DB0B},SeattleParks_SeattleCityGIS,2023/11/20 20:59:08+00,SeattleParks_SeattleCityGIS,2023/11/20 20:59:08+00,QL-D3
1275376.50001597,254850.562602565,1100,Maple Leaf PG,1020 NE 82nd St,North,1,Y,Grass,No,3881.0,,,3- Sched,,{A495854C-64EE-43C6-8CBC-09E879C54B6D},SeattleParks_SeattleCityGIS,2023/11/20 20:59:08+00,SeattleParks_SeattleCityGIS,2023/11/20 20:59:08+00,QL-D3
1277575.1248838,219958.265589386,1101,Judkins Park & PF,22 Ave S & S Charles St,Central,1,Y,Grass,No,397.0,,,4- Sched,,{1AED635D-0737-4ADC-93BA-D1EDF610EE99},SeattleParks_SeattleCityGIS,2023/11/20 20:59:08+00,SeattleParks_SeattleCityGIS,2023/11/20 20:59:08+00,QL-D3
1257201.37298048,234682.567505553,1102,Smith Cove Park,1501 23rd Ave W,Central,1,N,Grass,No,4433.0,,,1- Sched,,{BFAFF856-F830-4C54-8959-3AAD3D256589},SeattleParks_SeattleCityGIS,2023/11/20 20:59:08+00,SeattleParks_SeattleCityGIS,2023/11/20 20:59:08+00,QL-D3
1258301.75004481,205853.906330973,1103,Fairmount PG,5400 Fauntleroy Way SW,South,1,Y,Grass,No,452.0,,,2- Sched,,{54EA89BE-BDD3-472B-BF6C-8BBD09D5D696},SeattleParks_SeattleCityGIS,2023/11/20 20:59:08+00,SeattleParks_SeattleCityGIS,2023/11/20 20:59:08+00,QL-D3
1278492.6250173,224170.234199554,1104,Garfield HS,400 23rd Ave,SSD,1,N,Synthetic,No,,,,2- Sched,,{B338953C-F03B-410A-8D9C-32073327CEA7},SeattleParks_SeattleCityGIS,2023/11/20 20:59:08+00,SeattleParks_SeattleCityGIS,2023/11/20 20:59:08+00,QL-D3
1273542.37507531,207628.343726978,1105,Maple Wood PF,Corson Ave S & S Angeline St,South,1,Y,Grass,No,418.0,,,3- Sched,,{A1EFA9C7-8A4C-4BFA-9881-F786C6DAE418},SeattleParks_SeattleCityGIS,2023/11/20 20:59:08+00,SeattleParks_SeattleCityGIS,2023/11/20 20:59:08+00,QL-D3
1266074.49991922,196101.031151727,1106,Highland Park PG,1100 SW Cloverdale,South,1,Y,Grass,No,457.0,,,3-sched,,{12854657-B155-42C6-91A8-30ACFFE04FCA},SeattleParks_SeattleCityGIS,2023/11/20 20:59:08+00,SeattleParks_SeattleCityGIS,2023/11/20 20:59:08+00,QL-D3
1280276.00005947,231872.015711978,1107,Washington Park,1017 Lake Washinton Blvd E,Central,1,Y,Synthetic,Yes,4486.0,,,3- Sched,,{F965C53D-84C1-42F4-ADC5-6B7399F74D55},SeattleParks_SeattleCityGIS,2023/11/20 20:59:08+00,SeattleParks_SeattleCityGIS,2023/11/20 20:59:08+00,QL-D3
1275565.87496531,250549.093843311,1108,Roosevelt HS,1410 NE 66th St,SSD,1,Y,Synthetic,No,,,,1- Sched,,{AD8B3CC0-B2AB-4461-AA71-530F4D856563},SeattleParks_SeattleCityGIS,2023/11/20 20:59:08+00,SeattleParks_SeattleCityGIS,2023/11/20 20:59:08+00,QL-D3
1279319.50000398,253194.453053892,1109,Dahl PF,7700 25th Ave NE,North,1,Y,Grass,Yes,499.0,,,7- Sched,,{5882F4D4-0D5B-4727-A547-5A78F8A8ADB4},SeattleParks_SeattleCityGIS,2023/11/20 20:59:08+00,SeattleParks_SeattleCityGIS,2023/11/20 20:59:08+00,QL-D3
1256447.12514514,243338.968827888,1110,Lawton Park,4005 27th Ave W,Central,1,N,Grass,No,316.0,,,1- Sched,,{64A538E5-0D26-4351-AE0C-D02D8704D7D5},SeattleParks_SeattleCityGIS,2023/11/20 20:59:08+00,SeattleParks_SeattleCityGIS,2023/11/20 20:59:08+00,QL-D3
1264144.87484147,235488.437612981,1111,West Queen Anne PF,1901 1st Ave W,Central,1,Y,Grass,Yes,330.0,,,4- Sched,,{0A0B241C-C912-401A-9B72-19E01755723D},SeattleParks_SeattleCityGIS,2023/11/20 20:59:08+00,SeattleParks_SeattleCityGIS,2023/11/20 20:59:08+00,QL-D3
1276600.62486431,237693.015552893,1112,Montlake PF,1618 E Calhoun St,Central,1,Y,Synthetic,No,376.0,,,1- Sched,,{7599C3F5-D596-4821-B7FC-A1681F5F46EA},SeattleParks_SeattleCityGIS,2023/11/20 20:59:08+00,SeattleParks_SeattleCityGIS,2023/11/20 20:59:08+00,QL-D3
1263472.50020197,248023.203225806,1113,West Woodland ES,5634 5th Ave NE,SSD,1,Y,Grass,No,,,,1,,{C9E20E7F-826C-466C-85BC-0944A1F20A9B},SeattleParks_SeattleCityGIS,2023/11/20 20:59:08+00,SeattleParks_SeattleCityGIS,2023/11/20 20:59:08+00,QL-D3
1278026.7499648,267683.250191733,1114,Olympic Hills ES,13018 20th Ave NE,SSD,1,Y,Grass,No,,,,,,{2F9D99F8-FFDD-4CBA-90B3-4D913FFB8DCA},SeattleParks_SeattleCityGIS,2023/11/20 20:59:08+00,SeattleParks_SeattleCityGIS,2023/11/20 20:59:08+00,QL-D3
1267267.00015889,267641.062612057,1115,Bitter Lake PF,13030 N Park Ave N,North,1,N,Grass,Yes,288.0,,,3- Sched,,{BD5C99E5-805B-4B1F-81C1-49C916A0439C},SeattleParks_SeattleCityGIS,2023/11/20 20:59:08+00,SeattleParks_SeattleCityGIS,2023/11/20 20:59:08+00,QL-D3
1261363.88630897,195815.237103894,1116,SW Athletic Complex (SealthHS),8402 30th Ave SW,SSD,2,Y,Synthetic and Grass,Yes,,,,,,{9D4D3B92-0DB0-4518-986B-55856AFB2F3A},SeattleParks_SeattleCityGIS,2023/11/20 20:59:08+00,SeattleParks_SeattleCityGIS,2023/11/20 20:59:08+00,QL-D3
1278727.12487639,247388.953181982,1117,Ravenna Park,20th Ave NE & NE 58th St,North,1,Y,Grass,No,391.0,,,2- Sched,,{3271A87C-47CC-48D5-A4EE-975A3CB4F7C6},SeattleParks_SeattleCityGIS,2023/11/20 20:59:08+00,SeattleParks_SeattleCityGIS,2023/11/20 20:59:08+00,QL-D3
1287854.2499948,190760.015587062,1118,Hutchinson PG,5801 S Pilgrim,South,1,Y,Grass,No,439.0,,,3- Sched,,{78BD83EE-7523-4EFC-9677-FCFBEB81EFA9},SeattleParks_SeattleCityGIS,2023/11/20 20:59:08+00,SeattleParks_SeattleCityGIS,2023/11/20 20:59:08+00,QL-D3
1260881.87513389,192752.203203723,1119,Roxhill Park & PF,9244 29th Ave SW,South,1,Y,Grass,No,464.0,,,4 sched,,{97FD6B83-8AFB-416F-8D78-64958E2A4AD1},SeattleParks_SeattleCityGIS,2023/11/20 20:59:08+00,SeattleParks_SeattleCityGIS,2023/11/20 20:59:08+00,QL-D3
1278269.25013597,218591.109202981,1120,Sam Smith Park,1400 23rd Ave S,South,1,N,Grass,No,4242.0,,,1- Sched,,{739F5028-06A4-4FD4-B298-C1E642352BB5},SeattleParks_SeattleCityGIS,2023/11/20 20:59:08+00,SeattleParks_SeattleCityGIS,2023/11/20 20:59:08+00,QL-D3
1277285.62513472,229979.468644053,1121,Miller PF,330 20th Ave E,Central,1,Y,Synthetic,Yes,373.0,,,3 - Sched,,{A530A556-6E2E-46AC-8925-0BECCE1E8FCD},SeattleParks_SeattleCityGIS,2023/11/20 20:59:08+00,SeattleParks_SeattleCityGIS,2023/11/20 20:59:08+00,QL-D3
1274383.12503423,245836.874921307,1122,University PG,NE 50th St & 9th Ave,North,1,Y,Grass,No,435.0,,,2- Sched,,{66D6FB64-3A81-47E7-A76F-98E97394D32F},SeattleParks_SeattleCityGIS,2023/11/20 20:59:08+00,SeattleParks_SeattleCityGIS,2023/11/20 20:59:08+00,QL-D3
1269628.6250288,243866.265673563,1123,Wallingford PF,4233 N 43rd St,North,1,N,Grass,No,449.0,,,1,,{DC3E8F43-873A-4F30-9C2D-9DE224F77E38},SeattleParks_SeattleCityGIS,2023/11/20 20:59:08+00,SeattleParks_SeattleCityGIS,2023/11/20 20:59:08+00,QL-D3
1272200.87480555,196098.484568894,1124,South Park PG,8319 8th Ave S,South,1,Y,Grass,No,467.0,,,3- Sched,,{F6CED4C5-23A1-4252-9B6E-22EF08D4453A},SeattleParks_SeattleCityGIS,2023/11/20 20:59:08+00,SeattleParks_SeattleCityGIS,2023/11/20 20:59:08+00,QL-D3
1289814.00887056,250753.141991645,1125,Magnuson Park,7400 Sand Point Way NE,NE,2,N,"Synthetic, Grass",Yes,,,,,,{0C1407DD-A124-44B3-8169-DAE8C46DA8FA},SeattleParks_SeattleCityGIS,2023/11/20 20:59:08+00,SeattleParks_SeattleCityGIS,2023/11/20 20:59:08+00,QL-D3
1257285.06605455,214719.536893636,1126,Hiawatha PF,2700 California Ave SW,South,1,Y,Synthetic,Yes,456.0,,,2- Sched,,{E251B2C5-7B5A-41BB-8B50-E47B06D51B9A},SeattleParks_SeattleCityGIS,2023/11/20 20:59:08+00,SeattleParks_SeattleCityGIS,2023/11/20 20:59:08+00,QL-D3
1283786.74992771,251714.078061894,1127,View Ridge PF,4400 NE 70th St,North,1,Y,Grass,No,444.0,,,3- Sched,,{262305CC-222F-48C8-97F6-4C7C7022FA6E},SeattleParks_SeattleCityGIS,2023/11/20 20:59:08+00,SeattleParks_SeattleCityGIS,2023/11/20 20:59:08+00,QL-D3
1281152.87494613,226134.156124726,1128,Madrona PG,3315 E Spring St,Central,1,N,Grass,No,371.0,,,1- Sched,,{C7D47C02-1B3D-4A7C-B291-4E856B701546},SeattleParks_SeattleCityGIS,2023/11/20 20:59:08+00,SeattleParks_SeattleCityGIS,2023/11/20 20:59:08+00,QL-D3
1259367.79187597,240249.427762896,1129,Interbay PF,3027 17th Ave W,Central,2,Y,Grass,Yes,3887.0,,,3- Sched,,{D9041985-A744-450D-AE00-827E1BF8AF21},SeattleParks_SeattleCityGIS,2023/11/20 20:59:08+00,SeattleParks_SeattleCityGIS,2023/11/20 20:59:08+00,QL-D3
1272327.37520872,251425.906394139,1130,Green Lake Park,7201 E Green Lake Way,North,1,Y,Grass,No,307.0,,,,,{0C2189B4-DC8A-489A-8875-DE1DE97A8C96},SeattleParks_SeattleCityGIS,2023/11/20 20:59:08+00,SeattleParks_SeattleCityGIS,2023/11/20 20:59:08+00,QL-D3
1280533.3748728,251778.265597552,1131,Eckstein MS,3003 NE 75th St,SSD,3,N,Synthetic,No,,,,1- Sched,,{1AC01B02-8CCF-4E9E-89F9-3BFB0A507DDB},SeattleParks_SeattleCityGIS,2023/11/20 20:59:08+00,SeattleParks_SeattleCityGIS,2023/11/20 20:59:08+00,QL-D3
1257402.25020339,238523.625112146,1132,Bay View PG,2614 24th Ave W,Central,1,Y,Grass,No,303.0,,,2- Sched,,{1B1E3525-F832-46F0-9317-37E75D8D3AE1},SeattleParks_SeattleCityGIS,2023/11/20 20:59:08+00,SeattleParks_SeattleCityGIS,2023/11/20 20:59:08+00,QL-D3
1257862.49993905,257702.90630731,1133,North Beach ES,9018 24th Ave NW,SSD,1,Y,Grass,No,,,,2- Sched,,{147AF75E-E02F-4924-9E4E-8195679E4B4A},SeattleParks_SeattleCityGIS,2023/11/20 20:59:08+00,SeattleParks_SeattleCityGIS,2023/11/20 20:59:08+00,QL-D3
1278066.87488456,217968.343716219,1134,Colman PG,1470 23rd Ave S,Central,1,Y,Grass,No,406.0,,,,,{E1D1EA15-883E-48CF-B379-08BBEA68E291},SeattleParks_SeattleCityGIS,2023/11/20 20:59:08+00,SeattleParks_SeattleCityGIS,2023/11/20 20:59:08+00,QL-D3
1258659.37498572,253240.624877557,1135,Loyal Heights PF,2023 NW 77th St,North,1,Y,Synthetic,Yes,289.0,,,3- Sched,,{A99CFF06-5DB1-4E2F-937E-E2CAD004D98B},SeattleParks_SeattleCityGIS,2023/11/20 20:59:08+00,SeattleParks_SeattleCityGIS,2023/11/20 20:59:08+00,QL-D3
1284589.62496239,244352.515685305,1136,Laurelhurst PF,NE 45th St & 48th Ave NE,North,1,Y,Grass,No,340.0,,,3- Sched,,{2B581CD5-BD19-448B-9A74-A89F262D9B61},SeattleParks_SeattleCityGIS,2023/11/20 20:59:08+00,SeattleParks_SeattleCityGIS,2023/11/20 20:59:08+00,QL-D3
1284304.37487672,251680.312709481,1137,View Ridge ES,7047 50th Ave NE,SSD,1,Y,Grass,No,,,,2- Sched,,{B3926895-065B-4799-9F56-3B4E356D51B2},SeattleParks_SeattleCityGIS,2023/11/20 20:59:08+00,SeattleParks_SeattleCityGIS,2023/11/20 20:59:08+00,QL-D3
1266106.65635097,199762.777765229,1138,Riverview PF,7226 12 Ave SW,South,1,?,Grass,No,463.0,,,,,{E58ABEAF-3453-4E54-84CF-034A11001787},SeattleParks_SeattleCityGIS,2023/11/20 20:59:08+00,SeattleParks_SeattleCityGIS,2023/11/20 20:59:08+00,QL-D3
1272997.96409065,266657.763725638,1139,Northacres Park,12530 3rd Ave NE,North,1,Y,Grass,No,361.0,,,3- Sched,,{42DA7356-B1E7-47F4-9A5F-3EA4F6DEF81D},SeattleParks_SeattleCityGIS,2023/11/20 20:59:08+00,SeattleParks_SeattleCityGIS,2023/11/20 20:59:08+00,QL-D3
1274176.37511964,231838.29694739,1140,Lowell ES,1058 E Mercer St,SSD,1,Y,Grass,No,,,,,,{105978B5-9694-4B8A-A98B-FE347B50700B},SeattleParks_SeattleCityGIS,2023/11/20 20:59:08+00,SeattleParks_SeattleCityGIS,2023/11/20 20:59:08+00,QL-D3
1259808.37498431,257505.203290641,1141,Soundview PF,1590  NW 90th St,North,2,Y,Grass,No,251.0,,,6- Sched,,{5DBE9C0C-940D-4668-9038-564E72961A28},SeattleParks_SeattleCityGIS,2023/11/20 20:59:08+00,SeattleParks_SeattleCityGIS,2023/11/20 20:59:08+00,QL-D3
1290480.95241855,252056.351983637,1142,Magnuson Park,7400 Sand Point Way NE,NE,4,N,Grass,No,,,,4,,{1B6A0F30-5BE1-4171-8607-B1D42A99B170},SeattleParks_SeattleCityGIS,2023/11/20 20:59:08+00,SeattleParks_SeattleCityGIS,2023/11/20 20:59:08+00,QL-D3
