OBJECTID,DIST_ID,ORG_NAME,NAME,ADDR,ADDR2,CITY,ZIP,PHONE,FAX,COLOR,EMAIL,URL,MAPURL,URL2,Shape__Area,Shape__Length
1,101SSA,Antioch Special Service Area 1,ANTIOCH SSA #1,874 Main St, ,Antioch,60002.0,(847) 395-1000,(847) 395-1920 fax,0.0, ,https://www.antioch.il.gov/,https://maps.lakecountyil.gov/output/districtmaps/spec/AntiochSpecialServiceArea1.pdf,,2157146.37109375,6814.85340904749
2,102SSA,Antioch Special Service Area 2,ANTIOCH SSA #2,874 Main St, ,Antioch,60002.0,(847) 395-1000,(847) 395-1920 fax,0.0, ,https://www.antioch.il.gov/,https://maps.lakecountyil.gov/output/districtmaps/spec/AntiochSpecialServiceArea2.pdf,,3347862.8359375,10761.4682665733
3,103SSA,Barrington Special Service Area 10,BARRINGTON SSA #10,206 S Hough, ,Barrington,60010.0,(847) 304-3400,(847) 381-7506 fax,0.0,vobvm@barrington-il.gov,https://www.barrington-il.gov/,https://maps.lakecountyil.gov/output/districtmaps/spec/BarringtonSpecialServiceArea10.pdf,,232410.0078125,2116.09643777883
4,104SSA,Barrington Special Service Area 11,BARRINGTON SSA #11,206 S Hough, ,Barrington,60010.0,(847) 304-3400,(847) 381-7506 fax,0.0,vobvm@barrington-il.gov,https://www.barrington-il.gov/,https://maps.lakecountyil.gov/output/districtmaps/spec/BarringtonSpecialServiceArea11.pdf,,135903.6953125,1770.42266597619
5,105SSA,Barrington Special Service Area 14,BARRINGTON SSA #14,206 S Hough, ,Barrington,60010.0,(847) 304-3400,(847) 381-7506 fax,0.0,vobvm@barrington-il.gov,https://www.barrington-il.gov/,https://maps.lakecountyil.gov/output/districtmaps/spec/BarringtonSpecialServiceArea14.pdf,,234661.28125,2302.12391269485
6,107SSA,Barrington Special Service Area 18,BARRINGTON SSA #18,206 S Hough, ,Barrington,60010.0,(847) 304-3400,(847) 381-7506 fax,0.0,vobvm@barrington-il.gov,https://www.barrington-il.gov/,https://maps.lakecountyil.gov/output/districtmaps/spec/BarringtonSpecialServiceArea18.pdf,,135903.6953125,1770.42266597619
7,108SSA,Barrington Special Service Area 19,BARRINGTON SSA #19,206 S Hough, ,Barrington,60010.0,(847) 304-3400,(847) 381-7506 fax,0.0,vobvm@barrington-il.gov,https://www.barrington-il.gov/,https://maps.lakecountyil.gov/output/districtmaps/spec/BarringtonSpecialServiceArea19.pdf,,62496.203125,1025.69695003938
8,109SSA,Barrington Hills Special Service Area 1,BARRINGTON HILLS SSA #1,112 Algonquin Rd, ,Barrington Hills,60010.0,(847) 551-3000,(847) 551-3050 fax,0.0,village@vbhil.gov,https://barringtonhills-il.gov/,https://maps.lakecountyil.gov/output/districtmaps/spec/BarringtonHillsSpecialServiceArea1.pdf,,378241.61328125,3077.25449207462
9,110SSA,Barrington Special Service Area 1,BARRINGTON SSA #1,206 S Hough, ,Barrington,60010.0,(847) 304-3400,(847) 381-7506 fax,6.0,vobvm@barrington-il.gov,https://www.barrington-il.gov/,https://maps.lakecountyil.gov/output/districtmaps/spec/BarringtonSpecialServiceArea1.pdf,,149201.80078125,2562.94497883546
10,111SSA,Barrington Special Service Area 2,BARRINGTON SSA #2,206 S Hough, ,Barrington,60010.0,(847) 304-3400,(847) 381-7506 fax,1.0,vobvm@barrington-il.gov,https://www.barrington-il.gov/,https://maps.lakecountyil.gov/output/districtmaps/spec/BarringtonSpecialServiceArea2.pdf,,347392.9453125,4660.58503029017
11,112SSA,Barrington Special Service Area 3,BARRINGTON SSA #3,206 S Hough, ,Barrington,60010.0,(847) 304-3400,(847) 381-7506 fax,6.0,vobvm@barrington-il.gov,https://www.barrington-il.gov/,https://maps.lakecountyil.gov/output/districtmaps/spec/BarringtonSpecialServiceArea3.pdf,,402735.6171875,3700.07891278984
12,113SSA,Bannockburn Special Service Area 1,BANNOCKBURN SSA #1,2275 Telegraph Rd, ,Bannockburn,60015.0,(847) 945-6080,(847) 945-8496 fax,5.0, ,https://bannockburn.org/,https://maps.lakecountyil.gov/output/districtmaps/spec/BannockburnSpecialServiceArea1.pdf,,608498.359375,4264.36071688355
13,114SSA,Bannockburn Special Service Area 2,BANNOCKBURN SSA #2,2275 Telegraph Rd, ,Bannockburn,60015.0,(847) 945-6080,(847) 945-8496 fax,1.0, ,https://bannockburn.org/,https://maps.lakecountyil.gov/output/districtmaps/spec/BannockburnSpecialServiceArea2.pdf,,870300.82421875,8098.30319241951
14,115SSA,Bannockburn Special Service Area 3,BANNOCKBURN SSA #3,2275 Telegraph Rd, ,Bannockburn,60015.0,(847) 945-6080,(847) 945-8496 fax,3.0, ,https://bannockburn.org/,https://maps.lakecountyil.gov/output/districtmaps/spec/BannockburnSpecialServiceArea3.pdf,,1934190.87109375,12740.4112373788
15,116SSA,Bannockburn Special Service Area 4,BANNOCKBURN SSA #4,2275 Telegraph Rd, ,Bannockburn,60015.0,(847) 945-6080,(847) 945-8496 fax,4.0, ,https://bannockburn.org/,https://maps.lakecountyil.gov/output/districtmaps/spec/BannockburnSpecialServiceArea4.pdf,,1801430.5,6564.9236296651
16,126SSA,Bannockburn Special Service Area 16,BANNOCKBURN SSA #16,2275 Telegraph Rd, ,Bannockburn,60015.0,(847) 945-6080,(847) 945-8496 fax,0.0, ,https://bannockburn.org/,https://maps.lakecountyil.gov/output/districtmaps/spec/BannockburnSpecialServiceArea16.pdf,,139056.0546875,2240.69629252546
17,127SSA,Bannockburn Special Service Area 17,BANNOCKBURN SSA #17,2275 Telegraph Rd, ,Bannockburn,60015.0,(847) 945-6080,(847) 945-8496 fax,0.0, ,https://bannockburn.org/,https://maps.lakecountyil.gov/output/districtmaps/spec/BannockburnSpecialServiceArea17.pdf,,73041.49609375,1740.55009000835
18,128SSA,Bannockburn Special Service Area 5a,BANNOCKBURN SSA #5A,2275 Telegraph Rd, ,Bannockburn,60015.0,(847) 945-6080,(847) 945-8496 fax,2.0, ,https://bannockburn.org/,https://maps.lakecountyil.gov/output/districtmaps/spec/BannockburnSpecialServiceArea5a.pdf,,148625.6953125,2243.36764770921
19,129SSA,Bannockburn Special Service Area 6a,BANNOCKBURN SSA #6A,2275 Telegraph Rd, ,Bannockburn,60015.0,(847) 945-6080,(847) 945-8496 fax,0.0, ,https://bannockburn.org/,https://maps.lakecountyil.gov/output/districtmaps/spec/BannockburnSpecialServiceArea6a.pdf,,541080.84765625,6096.02310052115
20,133SSA,Beach Park Special Service Area 10,BEACH PARK SSA #10,11270 W Wadsworth Rd, ,Beach Park,60099.0,(847) 746-1770,(847) 746-1797 fax,0.0, ,http://www.villageofbeachpark.com/,https://maps.lakecountyil.gov/output/districtmaps/spec/BeachParkSpecialServiceArea10.pdf,,34967.87890625,1030.70181707076
21,134SSA,Beach Park Special Service Area 11,BEACH PARK SSA #11,11270 W Wadsworth Rd, ,Beach Park,60099.0,(847) 746-1770,(847) 746-1797 fax,0.0, ,http://www.villageofbeachpark.com/,https://maps.lakecountyil.gov/output/districtmaps/spec/BeachParkSpecialServiceArea11.pdf,,52463.4765625,1311.6334647151
22,135SSA,Beach Park Special Service Area 12,BEACH PARK SSA #12,11270 W Wadsworth Rd, ,Beach Park,60099.0,(847) 746-1770,(847) 746-1797 fax,0.0, ,http://www.villageofbeachpark.com/,https://maps.lakecountyil.gov/output/districtmaps/spec/BeachParkSpecialServiceArea12.pdf,,473211.78515625,4342.65504950449
23,137SSA,Beach Park Special Service Area 3,BEACH PARK SSA #3,11270 W Wadsworth Rd, ,Beach Park,60099.0,(847) 746-1770,(847) 746-1797 fax,2.0, ,http://www.villageofbeachpark.com/,https://maps.lakecountyil.gov/output/districtmaps/spec/BeachParkSpecialServiceArea3.pdf,,14544.359375,585.635222000562
24,138SSA,Beach Park Special Service Area 4,BEACH PARK SSA #4,11270 W Wadsworth Rd, ,Beach Park,60099.0,(847) 746-1770,(847) 746-1797 fax,3.0, ,http://www.villageofbeachpark.com/,https://maps.lakecountyil.gov/output/districtmaps/spec/BeachParkSpecialServiceArea4.pdf,,19724.39453125,740.955142618672
25,139SSA,Beach Park Special Service Area 5,BEACH PARK SSA #5,11270 W Wadsworth Rd, ,Beach Park,60099.0,(847) 746-1770,(847) 746-1797 fax,1.0, ,http://www.villageofbeachpark.com/,https://maps.lakecountyil.gov/output/districtmaps/spec/BeachParkSpecialServiceArea5.pdf,,25440.046875,887.083205152601
26,140SSA,Beach Park Special Service Area 6,BEACH PARK SSA #6,11270 W Wadsworth Rd, ,Beach Park,60099.0,(847) 746-1770,(847) 746-1797 fax,4.0, ,http://www.villageofbeachpark.com/,https://maps.lakecountyil.gov/output/districtmaps/spec/BeachParkSpecialServiceArea6.pdf,,2543170.203125,10304.6566738146
27,141SSA,Beach Park Special Service Area 7,BEACH PARK SSA #7,11270 W Wadsworth Rd, ,Beach Park,60099.0,(847) 746-1770,(847) 746-1797 fax,3.0, ,http://www.villageofbeachpark.com/,https://maps.lakecountyil.gov/output/districtmaps/spec/BeachParkSpecialServiceArea7.pdf,,5991.19921875,309.88598414247
28,142SSA,Beach Park Special Service Area 8,BEACH PARK SSA #8,11270 W Wadsworth Rd, ,Beach Park,60099.0,(847) 746-1770,(847) 746-1797 fax,6.0, ,http://www.villageofbeachpark.com/,https://maps.lakecountyil.gov/output/districtmaps/spec/BeachParkSpecialServiceArea8.pdf,,5209.1640625,326.14357524442
29,143SSA,Beach Park Special Service Area 9,BEACH PARK SSA #9,11270 W Wadsworth Rd, ,Beach Park,60099.0,(847) 746-1770,(847) 746-1797 fax,0.0, ,http://www.villageofbeachpark.com/,https://maps.lakecountyil.gov/output/districtmaps/spec/BeachParkSpecialServiceArea9.pdf,,22966.77734375,843.290470770194
30,149SSA,Lake County Special Service Area 8,LAKE COUNTY SSA #8,18 N County St, ,Waukegan,60085.0,(847) 377-2000, ,6.0, ,https://www.lakecountyil.gov,https://maps.lakecountyil.gov/output/districtmaps/spec/LakeCountySpecialServiceArea8.pdf,,12818619.5703125,16907.2304158754
31,151SSA,Lake County Special Service Area 12,LAKE COUNTY SSA #12,18 N County St, ,Waukegan,60085.0,(847) 377-2000, ,1.0, ,https://www.lakecountyil.gov,https://maps.lakecountyil.gov/output/districtmaps/spec/LakeCountySpecialServiceArea12.pdf,,284123.78125,3880.83460852936
32,152SSA,Lake County Special Service Area 13,LAKE COUNTY SSA #13,18 N County St, ,Waukegan,60085.0,(847) 377-2000, ,0.0, ,https://www.lakecountyil.gov,https://maps.lakecountyil.gov/output/districtmaps/spec/LakeCountySpecialServiceArea13.pdf,,463128.43359375,4534.26244955779
33,153SSA,Lake County Special Service Area 14,LAKE COUNTY SSA #14,18 N County St, ,Waukegan,60085.0,(847) 377-2000, ,0.0, ,https://www.lakecountyil.gov,https://maps.lakecountyil.gov/output/districtmaps/spec/LakeCountySpecialServiceArea14.pdf,,39306.0,866.628796017611
34,154SSA,Lake County Special Service Area 16,LAKE COUNTY SPECIAL SERVICE AREA 16,18 N County St, ,Waukegan,60085.0,(847) 377-2000, ,0.0, ,https://www.lakecountyil.gov,https://maps.lakecountyil.gov/output/districtmaps/spec/LakeCountySpecialServiceArea16.pdf,,58628493.125,152618.004882375
35,155SSA,Lake County Special Service Area 17,LAKE COUNTY SSA #17,18 N County St, ,Waukegan,60085.0,(847) 377-2000, ,4.0, ,https://www.lakecountyil.gov,https://maps.lakecountyil.gov/output/districtmaps/spec/LakeCountySpecialServiceArea17.pdf,,503240.16796875,11945.8810577805
36,156SSA,Deer Park Special Service Area 10,DEER PARK SSA #10,23680 Cuba Rd, ,Deer Park,60010.0,(847) 726-1648,(847) 726-1659 fax,0.0, ,http://www.villageofdeerpark.com/,https://maps.lakecountyil.gov/output/districtmaps/spec/DeerParkSpecialServiceArea10.pdf,,493169.68359375,4760.78109996248
37,158SSA,Deer Park Special Service Area 2,DEER PARK SSA #2,23680 Cuba Rd, ,Deer Park,60010.0,(847) 726-1648,(847) 726-1659 fax,0.0, ,http://www.villageofdeerpark.com/,https://maps.lakecountyil.gov/output/districtmaps/spec/DeerParkSpecialServiceArea2.pdf,,637670.8515625,3652.22557949931
38,159SSA,Deer Park Special Service Area 3,DEER PARK SSA #3,23680 Cuba Rd, ,Deer Park,60010.0,(847) 726-1648,(847) 726-1659 fax,0.0, ,http://www.villageofdeerpark.com/,https://maps.lakecountyil.gov/output/districtmaps/spec/DeerParkSpecialServiceArea2.pdf,,688347.21875,3675.41716687282
39,160SSA,Deer Park Special Service Area 4,DEER PARK SSA #4,23680 Cuba Rd, ,Deer Park,60010.0,(847) 726-1648,(847) 726-1659 fax,0.0, ,http://www.villageofdeerpark.com/,https://maps.lakecountyil.gov/output/districtmaps/spec/DeerParkSpecialServiceArea4.pdf,,458476.453125,3610.78822614129
40,161SSA,Deer Park Special Service Area 5,DEER PARK SSA #5,23680 Cuba Rd, ,Deer Park,60010.0,(847) 726-1648,(847) 726-1659 fax,0.0, ,http://www.villageofdeerpark.com/,https://maps.lakecountyil.gov/output/districtmaps/spec/DeerParkSpecialServiceArea5.pdf,,559263.796875,3717.31935515905
41,162SSA,Deer Park Special Service Area 6,DEER PARK SSA #6,23680 Cuba Rd, ,Deer Park,60010.0,(847) 726-1648,(847) 726-1659 fax,0.0, ,http://www.villageofdeerpark.com/,https://maps.lakecountyil.gov/output/districtmaps/spec/DeerParkSpecialServiceArea6.pdf,,623238.0703125,3352.81341934862
42,163SSA,Deer Park Special Service Area 7,DEER PARK SSA #7,23680 Cuba Rd, ,Deer Park,60010.0,(847) 726-1648,(847) 726-1659 fax,0.0, ,http://www.villageofdeerpark.com/,https://maps.lakecountyil.gov/output/districtmaps/spec/DeerParkSpecialServiceArea7.pdf,,508914.1484375,4105.18767438232
43,164SSA,Deer Park Special Service Area 8,DEER PARK SSA #8,23680 Cuba Rd, ,Deer Park,60010.0,(847) 726-1648,(847) 726-1659 fax,0.0, ,http://www.villageofdeerpark.com/,https://maps.lakecountyil.gov/output/districtmaps/spec/DeerParkSpecialServiceArea8.pdf,,544361.9609375,3814.25768566637
44,165SSA,Deer Park Special Service Area 9,DEER PARK SSA #9,23680 Cuba Rd, ,Deer Park,60010.0,(847) 726-1648,(847) 726-1659 fax,0.0, ,http://www.villageofdeerpark.com/,https://maps.lakecountyil.gov/output/districtmaps/spec/DeerParkSpecialServiceArea9.pdf,,545251.69921875,3289.98315235863
45,166SSA,Fox River Grove Special Service Area Gardner Ter,FOX RIVER GROVE SSA - GARDNER TERRACE,305 Illinois St, ,Fox River Grove,60021.0,(847) 639-3170,(847) 639-9876 fax,4.0, ,https://www.foxrivergrove.org/,https://maps.lakecountyil.gov/output/districtmaps/spec/FoxRiverGroveSpecialServiceAreaGardnerTer.pdf,,152261.8515625,1661.64373593615
46,167SSA,Fox River Grove Special Service Area Hunters Farm,FOX RIVER GROVE SSA - HUNTERS FARM,305 Illinois St, ,Fox River Grove,60021.0,(847) 639-3170,(847) 639-9876 fax,1.0, ,https://www.foxrivergrove.org/,https://maps.lakecountyil.gov/output/districtmaps/spec/FoxRiverGroveSpecialServiceAreaHuntersFarm.pdf,,366092.46875,7409.86602716925
47,168SSA,Fox River Grove Talon Sub Special Service Area,FOX RIVER GROVE SSA - TALON SUB,305 Illinois St, ,Fox River Grove,60021.0,(847) 639-3170,(847) 639-9876 fax,1.0, ,https://www.foxrivergrove.org/,https://maps.lakecountyil.gov/output/districtmaps/spec/FoxRiverGroveTalonSubSpecialServiceArea.pdf,,75742.49609375,1199.01237754884
48,169SSA,Gurnee Special Service Area 2,GURNEE SSA #2,325 N O'Plaine Rd, ,Gurnee,60031.0,(847) 599-7500,(847) 623-9475 fax,2.0, ,https://www.gurnee.il.us/,https://maps.lakecountyil.gov/output/districtmaps/spec/GurneeSpecialServiceArea2.pdf,,233514.14453125,4699.82467765444
49,179SSA,Green Oaks Special Service Area 11,GREEN OAKS SSA #11,2020 O'Plaine Rd, ,Green Oaks,60048.0,(847) 362-5363,(847) 362-5375 fax,0.0,vilgrnoaks@aol.com,http://www.greenoaks.org/,https://maps.lakecountyil.gov/output/districtmaps/spec/GreenOaksSpecialServiceArea11.pdf,,591735.1484375,4711.3501958259
50,180SSA,Hawthorn Woods Special Service Area 1,HAWTHORN WOODS SSA #1,2 Lagoon Dr, ,Hawthorn Woods,60047.0,(847) 438-5500,(847) 438-1459 fax,6.0, ,http://www.vhw.org/,https://maps.lakecountyil.gov/output/districtmaps/spec/HawthornWoodsSpecialServiceArea1.pdf,,8849482.4296875,27039.9878021445
51,181SSA,Hawthorn Woods Special Service Area 2,HAWTHORN WOODS SSA #2,2 Lagoon Dr, ,Hawthorn Woods,60047.0,(847) 438-5500,(847) 438-1459 fax,2.0, ,http://www.vhw.org/,https://maps.lakecountyil.gov/output/districtmaps/spec/HawthornWoodsSpecialServiceArea2.pdf,,15708907.2773438,44620.5256959436
52,182SSA,Hawthorn Woods Special Service Area 3,HAWTHORN WOODS SSA #3,2 Lagoon Dr, ,Hawthorn Woods,60047.0,(847) 438-5500,(847) 438-1459 fax,4.0, ,http://www.vhw.org/,https://maps.lakecountyil.gov/output/districtmaps/spec/HawthornWoodsSpecialServiceArea3.pdf,,9555367.73828125,24666.286083309
53,183SSA,Hawthorn Woods Special Service Area 4,HAWTHORN WOODS SSA #4,2 Lagoon Dr, ,Hawthorn Woods,60047.0,(847) 438-5500,(847) 438-1459 fax,0.0, ,http://www.vhw.org/,https://maps.lakecountyil.gov/output/districtmaps/spec/HawthornWoodsSpecialServiceArea4.pdf,,1066373.01171875,4480.50859125834
54,184SSA,Hainesville Special Service Area 1,HAINESVILLE SSA #1,100 N Hainesville Rd, ,Hainesville,60030.0,(847) 223-2032,(847) 223-2274 fax,6.0, ,https://www.hainesville.org/,https://maps.lakecountyil.gov/output/districtmaps/spec/HainesvilleSpecialServiceArea1.pdf,,1053305.58984375,5269.53413692615
55,195SSA,Highland Park Special Service Area 14-a,HIGHLAND PARK SSA #14A,1707 St Johns Ave, ,Highland Park,60035.0,(847) 432-0800,(847) 432-2624 fax,0.0, ,https://www.cityhpil.com/,https://maps.lakecountyil.gov/output/districtmaps/spec/HighlandParkSpecialServiceArea14-a.pdf,,4182.05859375,269.647007149575
56,196SSA,Highland Park Special Service Area 14-b,HIGHLAND PARK SSA #14B,1707 St Johns Ave, ,Highland Park,60035.0,(847) 432-0800,(847) 432-2624 fax,0.0, ,https://www.cityhpil.com/,https://maps.lakecountyil.gov/output/districtmaps/spec/HighlandParkSpecialServiceArea14-b.pdf,,5921.43359375,423.695105127952
57,197SSA,Highland Park Special Service Area 14-c,HIGHLAND PARK SSA #14C,1707 St Johns Ave, ,Highland Park,60035.0,(847) 432-0800,(847) 432-2624 fax,0.0, ,https://www.cityhpil.com/,https://maps.lakecountyil.gov/output/districtmaps/spec/HighlandParkSpecialServiceArea14-c.pdf,,9374.42578125,400.152072938191
58,205SSA,Highland Park Special Service Area 17,HIGHLAND PARK SSA 17,1707 St Johns Ave, ,Highland Park,60035.0,(847) 432-0800,(847) 432-2624 fax,0.0, ,https://www.cityhpil.com/,https://maps.lakecountyil.gov/output/districtmaps/spec/HighlandParkSpecialServiceArea17.pdf,,190586.390625,5376.55587629993
59,206SSA,Highland Park Special Service Area 18,HIGHLAND PARK SSA #18,1707 St Johns Ave, ,Highland Park,60035.0,(847) 432-0800,(847) 432-2624 fax,0.0, ,https://www.cityhpil.com/,https://maps.lakecountyil.gov/output/districtmaps/spec/HighlandParkSpecialServiceArea18.pdf,,951380.01171875,7102.14814716921
60,208SSA,Kildeer Special Service Area 1,KILDEER SSA #1,21911 Quentin Rd, ,Kildeer,60047.0,(847) 438-6000,(847) 438-1531 fax,3.0, ,https://villageofkildeer.com/,https://maps.lakecountyil.gov/output/districtmaps/spec/KildeerSpecialServiceArea1.pdf,,395417.60546875,4155.38997092698
61,209SSA,Lake Barrington Special Service Area 12,LAKE BARRINGTON SSA #12,23860 N Old Barrington Rd, ,Barrington,60010.0,(847) 381-6010,(847) 381-8557 fax,5.0, ,https://www.lakebarrington.org/,https://maps.lakecountyil.gov/output/districtmaps/spec/LakeBarringtonSpecialServiceArea12.pdf,,74778.6015625,1126.25678259722
62,210SSA,Lake Barrington Special Service Area 13,LAKE BARRINGTON SSA #13,23860 N Old Barrington Rd, ,Barrington,60010.0,(847) 381-6010,(847) 381-8557 fax,4.0, ,https://www.lakebarrington.org/,https://maps.lakecountyil.gov/output/districtmaps/spec/LakeBarringtonSpecialServiceArea13.pdf,,807009.4921875,5539.38488234292
63,211SSA,Lake Barrington Special Service Area 1,LAKE BARRINGTON SSA #1,23860 N Old Barrington Rd, ,Barrington,60010.0,(847) 381-6010,(847) 381-8557 fax,2.0, ,https://www.lakebarrington.org/,https://maps.lakecountyil.gov/output/districtmaps/spec/LakeBarringtonSpecialServiceArea1.pdf,,267183.984375,2177.41189226137
64,212SSA,Lake Barrington Special Service Area 2,LAKE BARRINGTON SSA #2,23860 N Old Barrington Rd, ,Barrington,60010.0,(847) 381-6010,(847) 381-8557 fax,3.0, ,https://www.lakebarrington.org/,https://maps.lakecountyil.gov/output/districtmaps/spec/LakeBarringtonSpecialServiceArea2.pdf,,198711.6484375,1896.13890483125
65,213SSA,Lake Barrington Special Service Area 3,LAKE BARRINGTON SSA #3,23860 N Old Barrington Rd, ,Barrington,60010.0,(847) 381-6010,(847) 381-8557 fax,2.0, ,https://www.lakebarrington.org/,https://maps.lakecountyil.gov/output/districtmaps/spec/LakeBarringtonSpecialServiceArea3.pdf,,2234988.625,9516.08195846017
66,214SSA,Lake Barrington Special Service Area 4,LAKE BARRINGTON SSA #4,23860 N Old Barrington Rd, ,Barrington,60010.0,(847) 381-6010,(847) 381-8557 fax,1.0, ,https://www.lakebarrington.org/,https://maps.lakecountyil.gov/output/districtmaps/spec/LakeBarringtonSpecialServiceArea4.pdf,,126528.91796875,1467.36454106589
67,215SSA,Lake Barrington Special Service Area 5,LAKE BARRINGTON SSA #5,23860 N Old Barrington Rd, ,Barrington,60010.0,(847) 381-6010,(847) 381-8557 fax,6.0, ,https://www.lakebarrington.org/,https://maps.lakecountyil.gov/output/districtmaps/spec/LakeBarringtonSpecialServiceArea5.pdf,,260668.6640625,2509.41690252809
68,216SSA,Lake Barrington Special Service Area 6,LAKE BARRINGTON SSA #6,23860 N Old Barrington Rd, ,Barrington,60010.0,(847) 381-6010,(847) 381-8557 fax,1.0, ,https://www.lakebarrington.org/,https://maps.lakecountyil.gov/output/districtmaps/spec/LakeBarringtonSpecialServiceArea6.pdf,,65355.6171875,1338.01706760781
69,217SSA,Lake Barrington Special Service Area 7,LAKE BARRINGTON SSA #7,23860 N Old Barrington Rd, ,Barrington,60010.0,(847) 381-6010,(847) 381-8557 fax,1.0, ,https://www.lakebarrington.org/,https://maps.lakecountyil.gov/output/districtmaps/spec/LakeBarringtonSpecialServiceArea7.pdf,,568858.96875,9191.9398498208
70,218SSA,Lake Barrington Special Service Area 8,LAKE BARRINGTON SSA #8,23860 N Old Barrington Rd, ,Barrington,60010.0,(847) 381-6010,(847) 381-8557 fax,5.0, ,https://www.lakebarrington.org/,https://maps.lakecountyil.gov/output/districtmaps/spec/LakeBarringtonSpecialServiceArea8.pdf,,1252243.04296875,10535.0928172703
71,219SSA,Lake Barrington Special Service Area 9,LAKE BARRINGTON SSA #9,23860 N Old Barrington Rd, ,Barrington,60010.0,(847) 381-6010,(847) 381-8557 fax,5.0, ,https://www.lakebarrington.org/,https://maps.lakecountyil.gov/output/districtmaps/spec/LakeBarringtonSpecialServiceArea9.pdf,,53050.22265625,966.695143786171
72,220SSA,Lake Barrington Special Service Area 11,LAKE BARRINGTON SSA #11,23860 N Old Barrington Rd, ,Barrington,60010.0,(847) 381-6010,(847) 381-8557 fax,4.0, ,https://www.lakebarrington.org/,https://maps.lakecountyil.gov/output/districtmaps/spec/LakeBarringtonSpecialServiceArea11.pdf,,486717.50390625,3039.42630568104
73,221SSA,Lake Barrington Special Service Area 14,LAKE BARRINGTON SSA #14,23860 N Old Barrington Rd, ,Barrington,60010.0,(847) 381-6010,(847) 381-8557 fax,0.0, ,https://www.lakebarrington.org/,https://maps.lakecountyil.gov/output/districtmaps/spec/LakeBarringtonSpecialServiceArea14.pdf,,221074.5546875,2187.94583821101
74,222SSA,Lake Barrington Special Service Area 15,LAKE BARRINGTON SSA #15,23860 N Old Barrington Rd, ,Barrington,60010.0,(847) 381-6010,(847) 381-8557 fax,0.0, ,https://www.lakebarrington.org/,https://maps.lakecountyil.gov/output/districtmaps/spec/LakeBarringtonSpecialServiceArea15.pdf,,473564.2265625,5123.08969288819
75,223SSA,Libertyville Special Service Area 1,LIBERTYVILLE SSA #1,118 W Cook Ave, ,Libertyville,60048.0,(847) 362-2430,(847) 362-9453 fax,1.0, ,http://libertyville.com/,https://maps.lakecountyil.gov/output/districtmaps/spec/LibertyvilleSpecialServiceArea1.pdf,,309147.3828125,2484.18611034052
76,224SSA,Libertyville Special Service Area 2,LIBERTYVILLE SSA #2,118 W Cook Ave, ,Libertyville,60048.0,(847) 362-2430,(847) 362-9453 fax,2.0, ,http://libertyville.com/,https://maps.lakecountyil.gov/output/districtmaps/spec/LibertyvilleSpecialServiceArea2.pdf,,291057.8828125,2510.07120676232
77,226SSA,Long Grove Special Service Area 4 - Deep Well,LONG GROVE SSA #4--DEEP WATER/IL83,3110 Old McHenry Rd, ,Long Grove,60047.0,(847) 634-9440,(847) 634-9408 fax,0.0, ,https://www.longgroveil.gov/,https://maps.lakecountyil.gov/output/districtmaps/spec/LongGroveSpecialServiceAreaDeepWell.pdf,,379163.8828125,3416.23070347154
78,227SSA,Long Grove Herons Landing Special Service Area 5,LONG GROVE SSA #5--HERONS LANDING,3110 Old McHenry Rd, ,Long Grove,60047.0,(847) 634-9440,(847) 634-9408 fax,0.0, ,https://www.longgroveil.gov/,https://maps.lakecountyil.gov/output/districtmaps/spec/LongGroveHeronsLandingSpecialServiceArea5.pdf,,1473779.89453125,5908.69149297725
79,228SSA,Long Grove Special Service Area 3 - Downtown,LONG GROVE SSA #3--DOWNTOWN,3110 Old McHenry Rd, ,Long Grove,60047.0,(847) 634-9440,(847) 634-9408 fax,0.0, ,https://www.longgroveil.gov/,https://maps.lakecountyil.gov/output/districtmaps/spec/LongGroveSpecialServiceArea-Downtown.pdf,,201621.71875,2473.21770055214
80,233SSA,Lake Forest Special Service Area 25,LAKE FOREST SSA #25,220 E Deerpath Rd, ,Lake Forest,60045.0,(847) 234-2600,(847) 615-4289 fax,6.0, ,https://www.cityoflakeforest.com/,https://maps.lakecountyil.gov/output/districtmaps/spec/LakeForestSpecialServiceArea25.pdf,,1512099.078125,5413.05677304686
81,234SSA,Lake Forest Special Service Area 26,LAKE FOREST SSA #26,220 E Deerpath Rd, ,Lake Forest,60045.0,(847) 234-2600,(847) 615-4289 fax,1.0, ,https://www.cityoflakeforest.com/,https://maps.lakecountyil.gov/output/districtmaps/spec/LakeForestSpecialServiceArea26.pdf,,208962.8125,2518.18261521186
82,235SSA,Lake Forest Special Service Area 29,LAKE FOREST SSA #29,220 E Deerpath Rd, ,Lake Forest,60045.0,(847) 234-2600,(847) 615-4289 fax,1.0, ,https://www.cityoflakeforest.com/,https://maps.lakecountyil.gov/output/districtmaps/spec/LakeForestSpecialServiceArea29.pdf,,525469.5078125,3582.0331081394
83,239SSA,Lake Forest Special Service Area 38,LAKE FOREST SSA #38,220 E Deerpath Rd, ,Lake Forest,60045.0,(847) 234-2600,(847) 615-4289 fax,0.0, ,https://www.cityoflakeforest.com/,https://maps.lakecountyil.gov/output/districtmaps/spec/LakeForestSpecialServiceArea38.pdf,,31062.92578125,782.293942294783
84,240SSA,Lake Forest Special Service Area 39,LAKE FOREST SSA #39,220 E Deerpath Rd, ,Lake Forest,60045.0,(847) 234-2600,(847) 615-4289 fax,0.0, ,https://www.cityoflakeforest.com/,https://maps.lakecountyil.gov/output/districtmaps/spec/LakeForestSpecialServiceArea39.pdf,,29810.86328125,973.073596804015
85,241SSA,Lake Forest Special Service Area 40,LAKE FOREST SSA #40,220 E Deerpath Rd, ,Lake Forest,60045.0,(847) 234-2600,(847) 615-4289 fax,0.0, ,https://www.cityoflakeforest.com/,https://maps.lakecountyil.gov/output/districtmaps/spec/LakeForestSpecialServiceArea40.pdf,,360921.90234375,3466.11104172099
86,247SSA,Lakemoor Special Service Area 97-1,LAKEMOOR SSA #97-1,28581 IL Route 120, ,Lakemoor,60050.0,(815) 385-1117,(815) 385-8206 fax,2.0,villagehall@lakemoor.net,http://www.lakemoor.net/,https://maps.lakecountyil.gov/output/districtmaps/spec/LakemoorSpecialServiceArea97-1.pdf,,1372517.61328125,6676.45418599521
87,248SSA,Lake Zurich Special Service Area 10,LAKE ZURICH SSA #10,70 E Main St, ,Lake Zurich,60047.0,(847) 438-5141,(847) 540-1768 fax,6.0, ,https://lakezurich.org/,https://maps.lakecountyil.gov/output/districtmaps/spec/LakeZurichSpecialServiceArea10.pdf,,60244.140625,1147.7909967287
88,249SSA,Lake Zurich Special Service Area 11,LAKE ZURICH SSA #11,70 E Main St, ,Lake Zurich,60047.0,(847) 438-5141,(847) 540-1768 fax,4.0, ,https://lakezurich.org/,https://maps.lakecountyil.gov/output/districtmaps/spec/LakeZurichSpecialServiceArea11.pdf,,71296.4921875,1408.84846990428
89,250SSA,Lake Zurich Special Service Area 12,LAKE ZURICH SSA #12,70 E Main St, ,Lake Zurich,60047.0,(847) 438-5141,(847) 540-1768 fax,0.0, ,https://lakezurich.org/,https://maps.lakecountyil.gov/output/districtmaps/spec/LakeZurichSpecialServiceArea12.pdf,,28612.65234375,694.750534868326
90,251SSA,Lake Zurich Special Service Area 13,LAKE ZURICH SSA #13,70 E Main St, ,Lake Zurich,60047.0,(847) 438-5141,(847) 540-1768 fax,2.0, ,https://lakezurich.org/,https://maps.lakecountyil.gov/output/districtmaps/spec/LakeZurichSpecialServiceArea13.pdf,,311065.47265625,2735.52339602939
91,252SSA,Lake Zurich Special Service Area 15,LAKE ZURICH SSA #15,70 E Main St, ,Lake Zurich,60047.0,(847) 438-5141,(847) 540-1768 fax,0.0, ,https://lakezurich.org/,https://maps.lakecountyil.gov/output/districtmaps/spec/LakeZurichSpecialServiceArea15.pdf,,6918.73046875,369.992010015251
92,253SSA,Lake Zurich Special Service Area 16,LAKE ZURICH SSA #16,70 E Main St, ,Lake Zurich,60047.0,(847) 438-5141,(847) 540-1768 fax,0.0, ,https://lakezurich.org/,https://maps.lakecountyil.gov/output/districtmaps/spec/LakeZurichSpecialServiceArea16.pdf,,1939.66796875,175.12154663751
93,256SSA,Lake Zurich Special Service Area 8,LAKE ZURICH SSA #8,70 E Main St, ,Lake Zurich,60047.0,(847) 438-5141,(847) 540-1768 fax,3.0, ,https://lakezurich.org/,https://maps.lakecountyil.gov/output/districtmaps/spec/LakeZurichSpecialServiceArea8.pdf,,253073.296875,2345.06349184969
94,257SSA,Lake Zurich Special Service Area 9,LAKE ZURICH SSA #9,70 E Main St, ,Lake Zurich,60047.0,(847) 438-5141,(847) 540-1768 fax,4.0, ,https://lakezurich.org/,https://maps.lakecountyil.gov/output/districtmaps/spec/LakeZurichSpecialServiceArea9.pdf,,360322.71484375,3432.61575099261
95,259SSA,Long Grove Special Service Area 2,LONG GROVE SSA #2--COMMONS,3110 Old McHenry Rd, ,Long Grove,60047.0,(847) 634-9440,(847) 634-9408 fax,1.0, ,https://www.longgroveil.gov/,https://maps.lakecountyil.gov/output/districtmaps/spec/LongGroveSpecialServiceArea2.pdf,,143431.96484375,2496.97895192967
96,265SSA,Lincolnshire Special Service Area 1,LINCOLNSHIRE SSA #1,1 Olde Half Day Rd, ,Lincolnshire,60069.0,(847) 883-8600,(847) 883-8608 fax,1.0, ,https://www.lincolnshireil.gov/,https://maps.lakecountyil.gov/output/districtmaps/spec/LincolnshireSpecialServiceArea1.pdf,,677351.09765625,3579.36802029096
97,280SSA,Mettawa Special Service Area 7,METTAWA SSA #7,26225 N Riverwoods Blvd, ,Mettawa,60045.0,(847) 573-1460,(224) 218-2242 fax,0.0, ,http://www.mettawa.org/,https://maps.lakecountyil.gov/output/districtmaps/spec/MettawaSpecialServiceArea7.pdf,,548289.7578125,5985.96214962119
98,281SSA,Mettawa Special Service Area 9,METTAWA SSA #9,26225 N Riverwoods Blvd, ,Mettawa,60045.0,(847) 573-1460,(224) 218-2242 fax,3.0, ,http://www.mettawa.org/,https://maps.lakecountyil.gov/output/districtmaps/spec/MettawaSpecialServiceArea9.pdf,,458996.76953125,6858.36144716012
99,282SSA,Mettawa Special Service Area 10,METTAWA SSA #10,26225 N Riverwoods Blvd, ,Mettawa,60045.0,(847) 573-1460,(224) 218-2242 fax,0.0, ,http://www.mettawa.org/,https://maps.lakecountyil.gov/output/districtmaps/spec/MettawaSpecialServiceArea10.pdf,,277494.1875,2187.11524095328
100,283SSA,Mettawa Special Service Area 11,METTAWA SSA #11,26225 N Riverwoods Blvd, ,Mettawa,60045.0,(847) 573-1460,(224) 218-2242 fax,0.0, ,http://www.mettawa.org/,https://maps.lakecountyil.gov/output/districtmaps/spec/MettawaSpecialServiceArea11.pdf,,277494.1875,2187.11524095328
101,284SSA,Mettawa Special Service Area 13,METTAWA SSA #13,26225 N Riverwoods Blvd, ,Mettawa,60045.0,(847) 573-1460,(224) 218-2242 fax,0.0, ,http://www.mettawa.org/,https://maps.lakecountyil.gov/output/districtmaps/spec/MettawaSpecialServiceArea13.pdf,,37858.1953125,1478.2864697014
102,285SSA,Mettawa Special Service Area 14,METTAWA SSA #14,26225 N Riverwoods Blvd, ,Mettawa,60045.0,(847) 573-1460,(224) 218-2242 fax,0.0, ,http://www.mettawa.org/,https://maps.lakecountyil.gov/output/districtmaps/spec/MettawaSpecialServiceArea14.pdf,,37858.1953125,1478.2864697014
103,286SSA,Mettawa Special Service Area 15,METTAWA SSA #15,26225 N Riverwoods Blvd, ,Mettawa,60045.0,(847) 573-1460,(224) 218-2242 fax,0.0, ,http://www.mettawa.org/,https://maps.lakecountyil.gov/output/districtmaps/spec/MettawaSpecialServiceArea15.pdf,,779163.21484375,4607.22258192652
104,330SSA,Mettawa Special Service Area 2,METTAWA SSA #2,26225 N Riverwoods Blvd, ,Mettawa,60045.0,(847) 573-1460,(224) 218-2242 fax,6.0, ,http://www.mettawa.org/,https://maps.lakecountyil.gov/output/districtmaps/spec/MettawaSpecialServiceArea2.pdf,,773.21875,320.816541170049
105,331SSA,Mettawa Special Service Area 3,METTAWA SSA #3,26225 N Riverwoods Blvd, ,Mettawa,60045.0,(847) 573-1460,(224) 218-2242 fax,2.0, ,http://www.mettawa.org/,https://maps.lakecountyil.gov/output/districtmaps/spec/MettawaSpecialServiceArea3.pdf,,342669.65234375,3190.0171852131
106,332SSA,Mettawa Special Service Area 4,METTAWA SSA #4,26225 N Riverwoods Blvd, ,Mettawa,60045.0,(847) 573-1460,(224) 218-2242 fax,1.0, ,http://www.mettawa.org/,https://maps.lakecountyil.gov/output/districtmaps/spec/MettawaSpecialServiceArea4.pdf,,929247.54296875,4271.46903642785
107,333SSA,Mettawa Special Service Area 5,METTAWA SSA #5,26225 N Riverwoods Blvd, ,Mettawa,60045.0,(847) 573-1460,(224) 218-2242 fax,0.0, ,http://www.mettawa.org/,https://maps.lakecountyil.gov/output/districtmaps/spec/MettawaSpecialServiceArea5.pdf,,238122.59765625,2338.79070725455
108,334SSA,North Barrington Special Service Area 17,NORTH BARRINGTON SSA #17,111 Old Barrington Rd, ,North Barrington,60010.0,(847) 381-6000,(847) 381-3303 fax,0.0,northbarrington@comcast.net,https://www.northbarrington.org/,https://maps.lakecountyil.gov/output/districtmaps/spec/NorthBarringtonSpecialServiceArea17.pdf,,5593752.734375,12670.2828694272
109,335SSA,North Barrington Special Service Area 5,NORTH BARRINGTON SSA #5,111 Old Barrington Rd, ,North Barrington,60010.0,(847) 381-6000,(847) 381-3303 fax,4.0,northbarrington@comcast.net,https://www.northbarrington.org/,https://maps.lakecountyil.gov/output/districtmaps/spec/NorthBarringtonSpecialServiceArea5.pdf,,317795.84375,2704.26604516978
110,336SSA,North Barrington Special Service Area 6,NORTH BARRINGTON SSA #6,111 Old Barrington Rd, ,North Barrington,60010.0,(847) 381-6000,(847) 381-3303 fax,3.0,northbarrington@comcast.net,https://www.northbarrington.org/,https://maps.lakecountyil.gov/output/districtmaps/spec/NorthBarringtonSpecialServiceArea6.pdf,,269321.5078125,2705.68307584243
111,337SSA,North Barrington Special Service Area 7,NORTH BARRINGTON SSA #7,111 Old Barrington Rd, ,North Barrington,60010.0,(847) 381-6000,(847) 381-3303 fax,2.0,northbarrington@comcast.net,https://www.northbarrington.org/,https://maps.lakecountyil.gov/output/districtmaps/spec/NorthBarringtonSpecialServiceArea7.pdf,,213557.0546875,1873.00445553384
112,338SSA,North Barrington Special Service Area 13,NORTH BARRINGTON SSA #13,111 Old Barrington Rd, ,North Barrington,60010.0,(847) 381-6000,(847) 381-3303 fax,0.0,northbarrington@comcast.net,https://www.northbarrington.org/,https://maps.lakecountyil.gov/output/districtmaps/spec/NorthBarringtonSpecialServiceArea13.pdf,,121925.0078125,2313.66478087285
113,339SSA,North Barrington Special Service Area 14,NORTH BARRINGTON SSA #14,111 Old Barrington Rd, ,North Barrington,60010.0,(847) 381-6000,(847) 381-3303 fax,3.0,northbarrington@comcast.net,https://www.northbarrington.org/,https://maps.lakecountyil.gov/output/districtmaps/spec/NorthBarringtonSpecialServiceArea14.pdf,,58224.88671875,1204.62670241641
114,340SSA,North Barrington Special Service Area 15,NORTH BARRINGTON SSA #15,111 Old Barrington Rd, ,North Barrington,60010.0,(847) 381-6000,(847) 381-3303 fax,3.0,northbarrington@comcast.net,https://www.northbarrington.org/,https://maps.lakecountyil.gov/output/districtmaps/spec/NorthBarringtonSpecialServiceArea15.pdf,,73998.71484375,1088.21574076544
115,341SSA,North Barrington Special Service Area 18,NORTH BARRINGTON SSA #18,111 Old Barrington Rd, ,North Barrington,60010.0,(847) 381-6000,(847) 381-3303 fax,0.0,northbarrington@comcast.net,https://www.northbarrington.org/,https://maps.lakecountyil.gov/output/districtmaps/spec/NorthBarringtonSpecialServiceArea18.pdf,,353896.8515625,3263.91523493374
116,342SSA,Lake County Special Service Area 9 NLFPA,LAKE COUNTY SSA NLFPA (#9),18 N County St, ,Waukegan,60085.0,(847) 377-2000, ,0.0, ,https://www.lakecountyil.gov,https://maps.lakecountyil.gov/output/districtmaps/spec/LakeCountySpecialServiceArea9NLFPA.pdf,,67657203.3867188,90660.1186440921
117,343SSA,Port Barrington Special Service Area 2,PORT BARRINGTON SSA #2,69 S Circle Ave, ,Port Barrington,60010.0,(847) 639-7595,(847) 639-8694 fax,2.0, ,https://www.portbarrington.net/,https://maps.lakecountyil.gov/output/districtmaps/spec/PortBarringtonSpecialServiceArea2.pdf,,302218.546875,2269.83015841512
118,344SSA,Port Barrington Special Service Area 1,PORT BARRINGTON SSA #1,69 S Circle Ave, ,Port Barrington,60010.0,(847) 639-7595,(847) 639-8694 fax,2.0, ,https://www.portbarrington.net/,https://maps.lakecountyil.gov/output/districtmaps/spec/PortBarringtonSpecialServiceArea1.pdf,,480615.86328125,3057.36345055787
119,346SSA,Round Lake Heights Special Service Area 1,ROUND LAKE HEIGHTS SSA #1,619 Pontiac Ct, ,Round Lake Heights,60073.0,(847) 546-1206,(847) 546-9728 fax,6.0, ,http://www.villageofroundlakeheights.org,https://maps.lakecountyil.gov/output/districtmaps/spec/RoundLakeHeightsSpecialServiceArea1.pdf,,288928.88671875,11717.889791638
120,347SSA,Round Lake Heights Special Service Area 2,ROUND LAKE HEIGHTS SSA #2,619 Pontiac Ct, ,Round Lake Heights,60073.0,(847) 546-1206,(847) 546-9728 fax,5.0, ,http://www.villageofroundlakeheights.org,https://maps.lakecountyil.gov/output/districtmaps/spec/RoundLakeHeightsSpecialServiceArea2.pdf,,513634.53515625,7978.26013744065
121,348SSA,Round Lake Special Service Area 1 Madrona Village,ROUND LAKE SSA #1 - MADRONA VILLAGE,442 N Cedar Lake Rd, ,Round Lake,60073.0,(847) 546-5400,(847) 546-5405 fax,0.0, ,https://www.eroundlake.com/,https://maps.lakecountyil.gov/output/districtmaps/spec/RoundLakeSpecialServiceArea1MadronaVillage.pdf,,1815090.7421875,8217.07920355408
122,349SSA,Round Lake Special Service Area 1 Bright Meadows,ROUND LAKE SSA #1 - BRIGHT MEADOWS,442 N Cedar Lake Rd, ,Round Lake,60073.0,(847) 546-5400,(847) 546-5405 fax,2.0, ,https://www.eroundlake.com/,https://maps.lakecountyil.gov/output/districtmaps/spec/RoundLakeSpecialServiceArea1BrightMeadows.pdf,,746539.3828125,5068.27526893161
123,350SSA,Round Lake Special Service Area 1 Lakewood Grove,ROUND LAKE SSA #1 - LAKEWOOD GROVE,442 N Cedar Lake Rd, ,Round Lake,60073.0,(847) 546-5400,(847) 546-5405 fax,0.0, ,https://www.eroundlake.com/,https://maps.lakecountyil.gov/output/districtmaps/spec/RoundLakeSpecialServiceArea1LakewoodGrove.pdf,,1304745.41796875,6389.86122097811
124,351SSA,Round Lake Special Service Area 2 Lakewood Grove,ROUND LAKE SSA #2 - LAKEWOOD GROVE,442 N Cedar Lake Rd, ,Round Lake,60073.0,(847) 546-5400,(847) 546-5405 fax,5.0, ,https://www.eroundlake.com/,https://maps.lakecountyil.gov/output/districtmaps/spec/RoundLakeSpecialServiceArea2LakewoodGrove.pdf,,1755513.80859375,6006.05178824819
125,352SSA,Round Lake Special Service Area 2 Prairie Walk,ROUND LAKE SSA #2 - PRAIRIE WALK,442 N Cedar Lake Rd, ,Round Lake,60073.0,(847) 546-5400,(847) 546-5405 fax,4.0, ,https://www.eroundlake.com/,https://maps.lakecountyil.gov/output/districtmaps/spec/RoundLakeSpecialServiceArea2PrairieWalk.pdf,,750155.79296875,4741.8874857787
126,353SSA,Round Lake Special Service Area 3 Lakewood Grove,ROUND LAKE SSA #3 - LAKEWOOD GROVE,442 N Cedar Lake Rd, ,Round Lake,60073.0,(847) 546-5400,(847) 546-5405 fax,3.0, ,https://www.eroundlake.com/,https://maps.lakecountyil.gov/output/districtmaps/spec/RoundLakeSpecialServiceArea3LakewoodGrove.pdf,,470601.52734375,4764.78599044903
127,354SSA,Round Lake Special Service Area 4 Lakewood Grove,ROUND LAKE SSA #4 - LAKEWOOD GROVE,442 N Cedar Lake Rd, ,Round Lake,60073.0,(847) 546-5400,(847) 546-5405 fax,5.0, ,https://www.eroundlake.com/,https://maps.lakecountyil.gov/output/districtmaps/spec/RoundLakeSpecialServiceArea4LakewoodGrove.pdf,,607703.90625,3301.36150799151
128,357SSA,Riverwoods Special Service Area 5,RIVERWOODS SSA #5,300 Portwine Rd, ,Riverwoods,60015.0,(847) 945-3990,(847) 945-4059 fax,1.0,info@riverwoods-il.net,https://villageofriverwoods.com/,https://maps.lakecountyil.gov/output/districtmaps/spec/RiverwoodsSpecialServiceArea5.pdf,,154651.3125,1581.16103027109
129,359SSA,Riverwoods Special Service Area 7,RIVERWOODS SSA #7,300 Portwine Rd, ,Riverwoods,60015.0,(847) 945-3990,(847) 945-4059 fax,3.0,info@riverwoods-il.net,https://villageofriverwoods.com/,https://maps.lakecountyil.gov/output/districtmaps/spec/RiverwoodsSpecialServiceArea7.pdf,,215305.671875,4352.7057168019
130,362SSA,Riverwoods Special Service Area 10,RIVERWOODS SSA #10,300 Portwine Rd, ,Riverwoods,60015.0,(847) 945-3990,(847) 945-4059 fax,0.0,info@riverwoods-il.net,https://villageofriverwoods.com/,https://maps.lakecountyil.gov/output/districtmaps/spec/RiverwoodsSpecialServiceArea10.pdf,,68867.4375,1624.21490640535
131,367SSA,Riverwoods Special Service Area 16,RIVERWOODS SSA #16,300 Portwine Rd, ,Riverwoods,60015.0,(847) 945-3990,(847) 945-4059 fax,1.0,info@riverwoods-il.net,https://villageofriverwoods.com/,https://maps.lakecountyil.gov/output/districtmaps/spec/RiverwoodsSpecialServiceArea16.pdf,,92102.5234375,1897.80714548697
132,370SSA,Riverwoods Special Service Area 19,RIVERWOODS SSA #19,300 Portwine Rd, ,Riverwoods,60015.0,(847) 945-3990,(847) 945-4059 fax,2.0,info@riverwoods-il.net,https://villageofriverwoods.com/,https://maps.lakecountyil.gov/output/districtmaps/spec/RiverwoodsSpecialServiceArea19.pdf,,324751.4765625,2852.16040304133
133,372SSA,Riverwoods Special Service Area 21,RIVERWOODS SSA #21,300 Portwine Rd, ,Riverwoods,60015.0,(847) 945-3990,(847) 945-4059 fax,3.0,info@riverwoods-il.net,https://villageofriverwoods.com/,https://maps.lakecountyil.gov/output/districtmaps/spec/RiverwoodsSpecialServiceArea21.pdf,,433393.421875,3260.41470311214
134,373SSA,Riverwoods Special Service Area 22,RIVERWOODS SSA #22,300 Portwine Rd, ,Riverwoods,60015.0,(847) 945-3990,(847) 945-4059 fax,4.0,info@riverwoods-il.net,https://villageofriverwoods.com/,https://maps.lakecountyil.gov/output/districtmaps/spec/RiverwoodsSpecialServiceArea22.pdf,,303820.6953125,2682.17218657541
135,374SSA,Riverwoods Special Service Area 23,RIVERWOODS SSA #23,300 Portwine Rd, ,Riverwoods,60015.0,(847) 945-3990,(847) 945-4059 fax,5.0,info@riverwoods-il.net,https://villageofriverwoods.com/,https://maps.lakecountyil.gov/output/districtmaps/spec/RiverwoodsSpecialServiceArea23.pdf,,114101.8828125,1627.27776545029
136,375SSA,Riverwoods Special Service Area 24,RIVERWOODS SSA #24,300 Portwine Rd, ,Riverwoods,60015.0,(847) 945-3990,(847) 945-4059 fax,0.0,info@riverwoods-il.net,https://villageofriverwoods.com/,https://maps.lakecountyil.gov/output/districtmaps/spec/RiverwoodsSpecialServiceArea24.pdf,,686341.46484375,4027.6588866596
137,376SSA,Riverwoods Special Service Area 25,RIVERWOODS SSA #25,300 Portwine Rd, ,Riverwoods,60015.0,(847) 945-3990,(847) 945-4059 fax,1.0,info@riverwoods-il.net,https://villageofriverwoods.com/,https://maps.lakecountyil.gov/output/districtmaps/spec/RiverwoodsSpecialServiceArea25.pdf,,293351.51171875,3200.72456437199
138,377SSA,Riverwoods Special Service Area 26,RIVERWOODS SSA #26,300 Portwine Rd, ,Riverwoods,60015.0,(847) 945-3990,(847) 945-4059 fax,2.0,info@riverwoods-il.net,https://villageofriverwoods.com/,https://maps.lakecountyil.gov/output/districtmaps/spec/RiverwoodsSpecialServiceArea26.pdf,,715283.33203125,5697.15125934528
139,378SSA,Riverwoods Special Service Area 27,RIVERWOODS SSA #27,300 Portwine Rd, ,Riverwoods,60015.0,(847) 945-3990,(847) 945-4059 fax,3.0,info@riverwoods-il.net,https://villageofriverwoods.com/,https://maps.lakecountyil.gov/output/districtmaps/spec/RiverwoodsSpecialServiceArea27.pdf,,69655.734375,1286.84461549729
140,379SSA,Riverwoods Special Service Area 28,RIVERWOODS SSA #28,300 Portwine Rd, ,Riverwoods,60015.0,(847) 945-3990,(847) 945-4059 fax,4.0,info@riverwoods-il.net,https://villageofriverwoods.com/,https://maps.lakecountyil.gov/output/districtmaps/spec/RiverwoodsSpecialServiceArea28.pdf,,266294.65625,2718.47753480267
141,380SSA,Riverwoods Special Service Area 29,RIVERWOODS SSA #29,300 Portwine Rd, ,Riverwoods,60015.0,(847) 945-3990,(847) 945-4059 fax,5.0,info@riverwoods-il.net,https://villageofriverwoods.com/,https://maps.lakecountyil.gov/output/districtmaps/spec/RiverwoodsSpecialServiceArea29.pdf,,91001.4921875,1842.8939010513
142,381SSA,Riverwoods Special Service Area 30,RIVERWOODS SSA #30,300 Portwine Rd, ,Riverwoods,60015.0,(847) 945-3990,(847) 945-4059 fax,0.0,info@riverwoods-il.net,https://villageofriverwoods.com/,https://maps.lakecountyil.gov/output/districtmaps/spec/RiverwoodsSpecialServiceArea30.pdf,,80086.109375,1324.10908790835
143,382SSA,Riverwoods Special Service Area 31,RIVERWOODS SSA #31,300 Portwine Rd, ,Riverwoods,60015.0,(847) 945-3990,(847) 945-4059 fax,4.0,info@riverwoods-il.net,https://villageofriverwoods.com/,https://maps.lakecountyil.gov/output/districtmaps/spec/RiverwoodsSpecialServiceArea31.pdf,,176178.81640625,2421.44671597829
144,384SSA,Tower Lakes Special Service Area 3,TOWER LAKES SSA #3,400 N Route 59, ,Tower Lakes,60010.0,(847) 526-0488,(847) 526-0489 fax,0.0, ,http://www.towerlakes-il.gov/,https://maps.lakecountyil.gov/output/districtmaps/spec/TowerLakesSpecialServiceArea3.pdf,,4110968.88671875,11426.00816559
145,391SSA,Volo Special Service Area 10,VOLO SSA #10,500 S Fish Lake Rd, ,Volo,60050.0,(847) 740-6982,(847) 740-6802 fax,0.0, ,http://www.villageofvolo.com/,https://maps.lakecountyil.gov/output/districtmaps/spec/VoloSpecialServiceArea10.pdf,,194203.41015625,1888.51559916887
146,392SSA,Volo Special Service Area 11,VOLO SSA #11,500 S Fish Lake Rd, ,Volo,60050.0,(847) 740-6982,(847) 740-6802 fax,0.0, ,http://www.villageofvolo.com/,https://maps.lakecountyil.gov/output/districtmaps/spec/VoloSpecialServiceArea11.pdf,,331130.13671875,2474.85651763021
147,393SSA,Volo Special Service Area 14,VOLO SSA #14,500 S Fish Lake Rd, ,Volo,60050.0,(847) 740-6982,(847) 740-6802 fax,0.0, ,http://www.villageofvolo.com/,https://maps.lakecountyil.gov/output/districtmaps/spec/VoloSpecialServiceArea14.pdf,,725605.2578125,4646.06650630858
148,394SSA,Volo Special Service Area 15,VOLO SSA #15,500 S Fish Lake Rd, ,Volo,60050.0,(847) 740-6982,(847) 740-6802 fax,0.0, ,http://www.villageofvolo.com/,https://maps.lakecountyil.gov/output/districtmaps/spec/VoloSpecialServiceArea15.pdf,,546394.0234375,3668.43560860033
149,395SSA,Volo Special Service Area 16,VOLO SSA #16,500 S Fish Lake Rd, ,Volo,60050.0,(847) 740-6982,(847) 740-6802 fax,0.0, ,http://www.villageofvolo.com/,https://maps.lakecountyil.gov/output/districtmaps/spec/VoloSpecialServiceArea16.pdf,,16944.1171875,591.448780790007
150,396SSA,Volo Special Service Area 2,VOLO SSA #2,500 S Fish Lake Rd, ,Volo,60050.0,(847) 740-6982,(847) 740-6802 fax,0.0, ,http://www.villageofvolo.com/,https://maps.lakecountyil.gov/output/districtmaps/spec/VoloSpecialServiceArea2.pdf,,908110.1875,4880.04626494448
151,397SSA,Volo Special Service Area 3,VOLO SSA #3,500 S Fish Lake Rd, ,Volo,60050.0,(847) 740-6982,(847) 740-6802 fax,0.0, ,http://www.villageofvolo.com/,https://maps.lakecountyil.gov/output/districtmaps/spec/VoloSpecialServiceArea3.pdf,,2400959.36328125,11180.3436943098
152,399SSA,Volo Special Service Area 5,VOLO SSA #5,500 S Fish Lake Rd, ,Volo,60050.0,(847) 740-6982,(847) 740-6802 fax,5.0, ,http://www.villageofvolo.com/,https://maps.lakecountyil.gov/output/districtmaps/spec/VoloSpecialServiceArea5.pdf,,912842.19921875,4872.98759748548
153,400SSA,Volo Special Service Area 6,VOLO SSA #6,500 S Fish Lake Rd, ,Volo,60050.0,(847) 740-6982,(847) 740-6802 fax,4.0, ,http://www.villageofvolo.com/,https://maps.lakecountyil.gov/output/districtmaps/spec/VoloSpecialServiceArea6.pdf,,1203700.2734375,6396.88924972065
154,402SSA,Volo Special Service Area 9,VOLO SSA #9,500 S Fish Lake Rd, ,Volo,60050.0,(847) 740-6982,(847) 740-6802 fax,0.0, ,http://www.villageofvolo.com/,https://maps.lakecountyil.gov/output/districtmaps/spec/VoloSpecialServiceArea9.pdf,,1043563.75390625,4201.58175735095
155,403SSA,Wauconda Special Service Area Number 1,WAUCONDA SSA #1,101 N Main St, ,Wauconda,60084.0,(847) 526-9600,(847) 526-8809 fax,1.0, ,https://www.wauconda-il.gov/,https://maps.lakecountyil.gov/output/districtmaps/spec/WaucondaSpecialServiceAreaNumber1.pdf,,3387864.12109375,15002.9177234352
156,408SSA,Riverwoods Special Service Area 32,RIVERWOODS SSA #32,300 Portwine Rd, ,Riverwoods,60015.0,(847) 945-3990,(847) 945-4059 fax,1.0,info@riverwoods-il.net,https://villageofriverwoods.com/,https://maps.lakecountyil.gov/output/districtmaps/spec/RiverwoodsSpecialServiceArea32.pdf,,121856.1328125,1577.48241955617
157,409SSA,Volo Special Service Area 17,VOLO SSA #17,500 S Fish Lake Rd, ,Volo,60050.0,(847) 740-6982,(847) 740-6802 fax,1.0, ,http://www.villageofvolo.com/,https://maps.lakecountyil.gov/output/districtmaps/spec/VoloSpecialServiceArea17.pdf,,1059587.7421875,5809.29156054416
158,410SSA,Volo Special Service Area 18,VOLO SSA #18,500 S Fish Lake Rd, ,Volo,60050.0,(847) 740-6982,(847) 740-6802 fax,5.0, ,http://www.villageofvolo.com/,https://maps.lakecountyil.gov/output/districtmaps/spec/VoloSpecialServiceArea18.pdf,,790634.95703125,10513.8388966277
159,411SSA,Long Grove Special Service Area 6 - Downtown Water,LONG GROVE SSA #6--DOWNTOWN WATER,3110 Old McHenry Rd,,Long Grove,60047.0,(847) 634-9440,(847) 634-9408 fax,0.0,,https://www.longgroveil.gov/,https://maps.lakecountyil.gov/output/districtmaps/spec/LongGroveSpecialServiceArea6DowntownWater.pdf,,76447.375,2001.33693915119
160,412SSA,Highland Park Special Service Area 19,HIGHLAND PARK SSA #19,1707 St Johns Ave,,Highland Park,60035.0,(847) 432-0800,(847) 432-2624 fax,0.0,,https://www.cityhpil.com/,https://maps.lakecountyil.gov/output/districtmaps/spec/HighlandParkSpecialServiceArea19.pdf,,711285.21875,7274.92988149944
161,413SSA,North Barrington Special Service Area 19,NORTH BARRINGTON SSA #19,111 Old Barrington Rd,,North Barrington,60010.0,(847) 381-6000,(847) 381-3303 fax,,northbarrington@comcast.net,https://www.northbarrington.org/,https://maps.lakecountyil.gov/output/districtmaps/spec/NorthBarringtonSpecialServiceArea19.pdf,,5593752.734375,12670.2828694272
162,414SSA,Riverwoods Special Service Area 33,RIVERWOODS SSA #33,300 Portwine Rd,,Riverwoods,60015.0,(847) 945-3990,(847) 945-4059 fax,2.0,info@riverwoods-il.net,https://villageofriverwoods.com/,https://maps.lakecountyil.gov/output/districtmaps/spec/RiverwoodsSpecialServiceArea33.pdf,,87235.078125,1825.98700055886
163,415SSA,Beach Park Special Service Area 14,BEACH PARK SSA #14,11270 W Wadsworth Rd, ,Beach Park,60099.0,(847) 746-1770,(847) 746-1797 fax,,,http://www.villageofbeachpark.com/,https://maps.lakecountyil.gov/output/districtmaps/spec/BeachParkSpecialServiceArea14.pdf,,18868.65625,625.818989060214
164,416SSA,Riverwoods Special Service Area 34,RIVERWOODS SSA #34,300 Portwine Rd,,Riverwoods,60015.0,(847) 945-3990,(847) 945-4059 fax,5.0,info@riverwoods-il.net,https://villageofriverwoods.com/,https://maps.lakecountyil.gov/output/districtmaps/spec/RiverwoodsSpecialServiceArea34.pdf,,73295.41796875,1067.50348067045
165,417SSA,Lake Zurich Special Service Area 17,LAKE ZURICH #17,70 E Main St,,Lake Zurich,60047.0,(847) 438-5141,(847) 540-1768 fax,,,https://lakezurich.org/,https://maps.lakecountyil.gov/output/districtmaps/spec/LakeZurichSpecialServiceArea17.pdf,,24408.5,745.133785437498
166,418SSA,Mundelein Special Service Area 2,MUNDELEIN SSA#2,300 Plaza Cir, ,Mundelein,60060.0,(847) 949-3200,(847) 949-0143 fax,0.0,info@mundelein-il.gov,http://www.mundelein.org/,https://maps.lakecountyil.gov/output/districtmaps/spec/MundeleinSpecialServiceArea2.pdf,,15396.48046875,520.198886484163
167,419SSA,Mundelein Special Service Area 3,MUNDELEIN SSA#3,300 Plaza Cir,,Mundelein,60060.0,(847) 949-3200,(847) 949-0143 fax,,info@mundelein-il.gov,http://www.mundelein.org/,https://maps.lakecountyil.gov/output/districtmaps/spec/MundeleinSpecialServiceArea3.pdf,,301607.2734375,2428.12501036313
168,420SSA,Green Oaks Special Service Area 13,GREEN OAKS SSA# 13,2020 O'Plaine Rd, ,Green Oaks,60048.0,(847) 362-5363,(847) 362-5375 fax,1.0,vilgrnoaks@aol.com,http://www.greenoaks.org/,https://maps.lakecountyil.gov/output/districtmaps/spec/GreenOaksSpecialServiceArea13.pdf,,232258.37890625,2007.89924007845
169,421SSA,Riverwoods Special Service Area 35,RIVERWOODS SSA #35,300 Portwine Rd,,Riverwoods,60015.0,(847) 945-3990,(847) 945-4059 fax,3.0,info@riverwoods-il.net,https://villageofriverwoods.com/,https://maps.lakecountyil.gov/output/districtmaps/spec/RiverwoodsSpecialServiceArea35.pdf,,324395.05859375,3841.91667102461
170,422SSA,Mundelein Special Service Area 4,MUNDELEIN SSA#4,300 Plaza Cir,,Mundelein,60060.0,(847) 949-3200,(847) 949-0143 fax,1.0,info@mundelein-il.gov,http://www.mundelein.org/,https://maps.lakecountyil.gov/output/districtmaps/spec/MundeleinSpecialServiceArea4.pdf,,670359.42578125,4070.75355060073
171,423SSA,Deer Park Special Service Area 11,DEER PARK SSA#11,23680 Cuba Rd,,Deer Park,60010.0,(847) 726-1648,(847) 726-1659 fax,,,http://www.villageofdeerpark.com/,https://maps.lakecountyil.gov/output/districtmaps/spec/DeerParkSpecialServiceArea11.pdf,,537971.01171875,5246.40198773675
172,424SSA,Lake Zurich Special Service Area 18,LAKE ZURICH SSA#18,70 E Main St,,Lake Zurich,60047.0,(847) 438-5141,(847) 540-1768 fax,1.0,,https://lakezurich.org/,https://maps.lakecountyil.gov/output/districtmaps/spec/LakeZurichSpecialServiceArea18.pdf,,143423.9296875,1584.25551737151
173,425SSA,Lake Zurich Special Service Area 19,LAKE ZURICH SSA#19,70 E Main St,,Lake Zurich,60047.0,(847) 438-5141,(847) 540-1768 fax,3.0,,https://lakezurich.org/,https://maps.lakecountyil.gov/output/districtmaps/spec/LakeZurichSpecialServiceArea19.pdf,,39566.6796875,848.362233334142
174,426SSA,Zion Special Service Area 1 Brighton Ponds,ZION SSA #1 - BRIGHTON PONDS,2828 Sheridan Rd, ,Zion,60099.0,(847) 746-4000,(847) 746-7167 fax,0.0, ,http://www.cityofzion.com/,https://maps.lakecountyil.gov/output/districtmaps/spec/ZionSpecialServiceArea1BrightonPonds.pdf,,338831.91796875,2327.21554747705
175,427SSA,Kildeer Special Service Area 2,KILDEER SSA #2,21911 Quentin Rd, ,Kildeer,60047.0,(847) 438-6000,(847) 438-1531 fax,3.0, ,https://villageofkildeer.com/,https://maps.lakecountyil.gov/output/districtmaps/spec/KildeerSpecialServiceArea1.pdf,,336304.0546875,2520.05566105323
176,428SSA,,,,,,,,,,,,,,143164.71875,5100.09697412918
177,X01TIF,Antioch Corporate Center Tax Increment Finance Area,ANTIOCH CORPORATE CENTER TIF,874 Main St, ,Antioch,60002.0,(847) 395-1000,(847) 395-1920 fax,0.0, ,https://www.antioch.il.gov/,https://maps.lakecountyil.gov/output/districtmaps/spec/AntiochCorporateCenterTaxIncrementFinanceArea.pdf,,1842339.33984375,5874.73820746023
178,X03TIF,Barrington Tax Increment Finance Area 1,BARRINGTON TAX INCRE FINANCE AREA #1,206 S Hough, ,Barrington,60010.0,(847) 304-3400,(847) 381-7506 fax,2.0,vobvm@barrington-il.gov,https://www.barrington-il.gov/,https://maps.lakecountyil.gov/output/districtmaps/spec/BarringtonTaxIncrementFinanceArea1.pdf,,347720.0625,5231.34066991105
179,X04TIF,Beach Park Tax Increment Finance Area 1,BEACH PARK TIF #1,11270 W Wadsworth Rd, ,Beach Park,60099.0,(847) 746-1770,(847) 746-1797 fax,2.0, ,http://www.villageofbeachpark.com/,https://maps.lakecountyil.gov/output/districtmaps/spec/BeachParkTaxIncrementFinanceArea1.pdf,,1731068.55078125,12715.8901032901
180,X05TIF,Beach Park Tax Increment Finance Area 2,BEACH PARK TIF #2,11270 W Wadsworth Rd, ,Beach Park,60099.0,(847) 746-1770,(847) 746-1797 fax,0.0, ,http://www.villageofbeachpark.com/,https://maps.lakecountyil.gov/output/districtmaps/spec/BeachParkTaxIncrementFinanceArea2.pdf,,380132.50390625,6251.47397382486
181,X06TIF,Beach Park Tax Increment Finance Area 3,BEACH PARK TIF #3,11270 W Wadsworth Rd, ,Beach Park,60099.0,(847) 746-1770,(847) 746-1797 fax,0.0, ,http://www.villageofbeachpark.com/,https://maps.lakecountyil.gov/output/districtmaps/spec/BeachParkTaxIncrementFinanceArea3.pdf,,1171361.4921875,10572.0889523389
182,X07TIF,Beach Park Tax Increment Finance Area 4,BEACH PARK TIF #4,11270 W Wadsworth Rd, ,Beach Park,60099.0,(847) 746-1770,(847) 746-1797 fax,0.0, ,http://www.villageofbeachpark.com/,https://maps.lakecountyil.gov/output/districtmaps/spec/BeachParkTaxIncrementFinanceArea4.pdf,,6216189.18359375,36630.1923987438
183,X12TIF,Fox Lake Tax Increment Financing Area,FOX LAKE TAX INCREM FINANCE AREA #1,66 Thillen Dr, ,Fox Lake,60020.0,(847) 587-2151,(847) 587-2237 fax,3.0, ,http://www.foxlake.org/,https://maps.lakecountyil.gov/output/districtmaps/spec/FoxLakeTaxIncrementFinancingArea.pdf,,168738.8359375,1836.3440901658
184,X13TIF,Green Oaks Tax Increment Finance Area 1,GREEN OAKS TIF #1,2020 O'Plaine Rd, ,Green Oaks,60048.0,(847) 362-5363,(847) 362-5375 fax,0.0,vilgrnoaks@aol.com,http://www.greenoaks.org/,https://maps.lakecountyil.gov/output/districtmaps/spec/GreenOaksTaxIncrementFinanceArea1.pdf,,2498165.234375,15248.4374123899
185,X14TIF,Highwood Tax Increment Finance Area 1,HIGHWOOD TAX INCREMENT FINANCE AREA #1,17 Highwood Ave, ,Highwood,60040.0,(847) 432-1924,(847) 432-0735 fax,1.0, ,http://www.cityofhighwood.com,https://maps.lakecountyil.gov/output/districtmaps/spec/HighwoodTaxIncrementFinanceArea1.pdf,,443801.73046875,5009.60410075207
186,X17TIF,Highland Park Tax Increment Finance Area 3,HIGHLAND PARK TIF #3,1707 St Johns Ave, ,Highland Park,60035.0,(847) 432-0800,(847) 432-2624 fax,0.0, ,https://www.cityhpil.com/,https://maps.lakecountyil.gov/output/districtmaps/spec/HighlandParkTaxIncrementFinanceArea3.pdf,,184461.5625,3960.37310962453
187,X20TIF,Lake Forest Tax Increment Finance Area 2,LAKE FOREST TIF #2,220 E Deerpath Rd, ,Lake Forest,60045.0,(847) 234-2600,(847) 615-4289 fax,0.0, ,https://www.cityoflakeforest.com/,https://maps.lakecountyil.gov/output/districtmaps/spec/LakeForestTaxIncrementFinanceArea2.pdf,,102946.125,1288.94376912153
188,X21TIF,Lakemoor Tax Increment Finance Area 1,LAKEMOOR TIF #1,28581 IL Route 120, ,Lakemoor,60050.0,(815) 385-1117,(815) 385-8206 fax,0.0,villagehall@lakemoor.net,http://www.lakemoor.net/,https://maps.lakecountyil.gov/output/districtmaps/spec/LakemoorTaxIncrementFinanceArea1.pdf,,634170.65625,5757.08023975423
189,X22TIF,Lakemoor Tax Increment Finance Area 2,LAKEMOOR TIF #2,28581 IL Route 120, ,Lakemoor,60050.0,(815) 385-1117,(815) 385-8206 fax,0.0,villagehall@lakemoor.net,http://www.lakemoor.net/,https://maps.lakecountyil.gov/output/districtmaps/spec/LakemoorTaxIncrementFinanceArea2.pdf,,874730.78515625,4369.53252116343
190,X23TIF,Lake Villa Tax Increment Finance Area 1,LAKE VILLA TIF #1,65 Cedar Ave, ,Lake Villa,60046.0,(847) 356-6100,(847) 356-6217 fax,0.0, ,https://www.lake-villa.org/,https://maps.lakecountyil.gov/output/districtmaps/spec/LakeVillaTaxIncrementFinanceArea1.pdf,,1456513.5546875,9501.39375945771
191,X24TIF,Lake Zurich Tax Increment Finance Area,LAKE ZURICH TIF #1,70 E Main St, ,Lake Zurich,60047.0,(847) 438-5141,(847) 540-1768 fax,1.0, ,https://lakezurich.org/,https://maps.lakecountyil.gov/output/districtmaps/spec/LakeZurichTaxIncrementFinanceArea.pdf,,410687.57421875,4585.17215720164
192,X25TIF,Lake Zurich Tax Increment Finance Area 2,LAKE ZURICH TIF #2,70 E Main St, ,Lake Zurich,60047.0,(847) 438-5141,(847) 540-1768 fax,0.0, ,https://lakezurich.org/,https://maps.lakecountyil.gov/output/districtmaps/spec/LakeZurichTaxIncrementFinanceArea2.pdf,,432350.828125,3870.68370294803
193,X26TIF,Long Grove Tax Increment Finance Area,LONG GROVE TIF,3110 Old McHenry Rd, ,Long Grove,60047.0,(847) 634-9440,(847) 634-9408 fax,0.0, ,https://www.longgroveil.gov/,https://maps.lakecountyil.gov/output/districtmaps/spec/LongGroveTaxIncrementFinanceArea.pdf,,848475.01953125,6684.59674129102
194,X29TIF,Mundelein Tax Increment Finance Area,MUNDELEIN TAX INCRE FINANCE AREA #2,300 Plaza Cir, ,Mundelein,60060.0,(847) 949-3200,(847) 949-0143 fax,4.0,info@mundelein-il.gov,http://www.mundelein.org/,https://maps.lakecountyil.gov/output/districtmaps/spec/MundeleinTaxIncrementFinanceArea.pdf,,268341.828125,3859.95388004281
195,X30TIF,Mundelein Tax Increment Finance Area 3,MUNDELEIN TIF #3,300 Plaza Cir, ,Mundelein,60060.0,(847) 949-3200,(847) 949-0143 fax,0.0,info@mundelein-il.gov,http://www.mundelein.org/,https://maps.lakecountyil.gov/output/districtmaps/spec/MundeleinTaxIncrementFinanceArea3.pdf,,729627.15234375,7662.6848299086
196,X31TIF,North Chicago Tax Increment Finance Area 2,NORTH CHICAGO TIF #2,1850 S Lewis Ave, ,North Chicago,60064.0,(847) 596-8600,(847) 578-1220 fax,0.0, ,https://www.northchicago.org/,https://maps.lakecountyil.gov/output/districtmaps/spec/NorthChicagoTaxIncrementFinanceArea2.pdf,,231684.80859375,2205.02558941309
197,X32TIF,North Chicago Tax Increment Finance Area 3,NORTH CHICAGO TIF #3,1850 S Lewis Ave, ,North Chicago,60064.0,(847) 596-8600,(847) 578-1220 fax,0.0, ,https://www.northchicago.org/,https://maps.lakecountyil.gov/output/districtmaps/spec/NorthChicagoTaxIncrementFinanceArea3.pdf,,2246429.3515625,8768.31685454119
198,X33TIF,North Chicago Tax Increment Finance Area,N CHICAGO TAX INCREMENT FINANCE AREA,1850 S Lewis Ave, ,North Chicago,60064.0,(847) 596-8600,(847) 578-1220 fax,4.0, ,https://www.northchicago.org/,https://maps.lakecountyil.gov/output/districtmaps/spec/NorthChicagoTaxIncrementFinanceArea.pdf,,2806395.37890625,22719.3107331063
199,X36TIF,Round Lake Beach Tax Increment Finance Area 4,ROUND LAKE BCH TAX INCRE FINANCE AREA #4,1937 N Municipal Way, ,Round Lake Beach,60073.0,(847) 546-2351,(847) 740-2852 fax,0.0, ,http://www.villageofroundlakebeach.com/,https://maps.lakecountyil.gov/output/districtmaps/spec/RoundLakeBeachTaxIncrementFinanceArea4.pdf,,1812773.4296875,11513.7818318855
200,X39TIF,Riverwoods Tax Increment Finance Area 1,RIVERWOODS TIF,300 Portwine Rd, ,Riverwoods,60015.0,(847) 945-3990,(847) 945-4059 fax,2.0,info@riverwoods-il.net,https://villageofriverwoods.com/,https://maps.lakecountyil.gov/output/districtmaps/spec/RiverwoodsTaxIncrementFinanceArea1.pdf,,112846.89453125,2269.19630706671
201,X40TIF,Vernon Hills Tax Increment Finance Area,VERNON HILLS TIF,290 Evergreen Dr, ,Vernon Hills,60061.0,(847) 367-3700,(847) 367-0880 fax,0.0, ,https://vernonhills.org/,https://maps.lakecountyil.gov/output/districtmaps/spec/VernonHillsTaxIncrementFinanceArea.pdf,,536864.82421875,5187.40242930503
202,X41TIF,Wauconda Tax Increment Finance Area 1,WAUCONDA TIF #1,101 N Main St, ,Wauconda,60084.0,(847) 526-9600,(847) 526-8809 fax,0.0, ,https://www.wauconda-il.gov/,https://maps.lakecountyil.gov/output/districtmaps/spec/WaucondaTaxIncrementFinanceArea1.pdf,,1664802.25,7980.93561034394
203,X49TIF,Waukegan Tax Increment Finance Area 7,WAUKEGAN TIF #7,100 N Martin Luther King Jr., ,Waukegan,60085.0,(847) 599-2500,(847) 360-9299 fax,0.0, ,https://il-waukegan2.civicplus.com/,https://maps.lakecountyil.gov/output/districtmaps/spec/WaukeganTaxIncrementFinanceArea7.pdf,,5401976.17578125,20271.079112166
204,X50TIF,Waukegan Tax Increment Finance Area 8,WAUKEGAN TIF #8,100 N Martin Luther King Jr., ,Waukegan,60085.0,(847) 599-2500,(847) 360-9299 fax,0.0, ,https://il-waukegan2.civicplus.com/,https://maps.lakecountyil.gov/output/districtmaps/spec/WaukeganTaxIncrementFinanceArea8.pdf,,2436097.5078125,17478.0003601947
205,X51TIF,Waukegan Tax Increment Finance Area 9,WAUKEGAN TIF #9,100 N Martin Luther King Jr., ,Waukegan,60085.0,(847) 599-2500,(847) 360-9299 fax,0.0, ,https://il-waukegan2.civicplus.com/,https://maps.lakecountyil.gov/output/districtmaps/spec/WaukeganTaxIncrementFinanceArea9.pdf,,1415372.796875,8511.00194547192
206,X52TIF,Waukegan Tax Increment Finance Area 10,WAUKEGAN TIF #10,100 N Martin Luther King Jr., ,Waukegan,60085.0,(847) 599-2500,(847) 360-9299 fax,0.0, ,https://il-waukegan2.civicplus.com/,https://maps.lakecountyil.gov/output/districtmaps/spec/WaukeganTaxIncrementFinanceArea10.pdf,,1668506.48828125,5294.8016680213
207,X55TIF,Zion Tax Increment Finance Area 3,ZION TAX INCRE FINANCE AREA #3,2828 Sheridan Rd, ,Zion,60099.0,(847) 746-4000,(847) 746-7167 fax,6.0, ,http://www.cityofzion.com/,https://maps.lakecountyil.gov/output/districtmaps/spec/ZionTaxIncrementFinanceArea3.pdf,,822559.2265625,6899.58628584448
208,X56TIF,Zion Crane Meadows Tax Increment Finance Area 4,ZION CRANE MEADOWS TIF #4,2828 Sheridan Rd, ,Zion,60099.0,(847) 746-4000,(847) 746-7167 fax,0.0, ,http://www.cityofzion.com/,https://maps.lakecountyil.gov/output/districtmaps/spec/ZionCraneMeadowsTaxIncrementFinanceArea4.pdf,,152354.22265625,1589.95191432051
209,X57TIF,Zion Tax Increment Finance Area 5,ZION TAX INCREMENT FINANCE AREA #5,2828 Sheridan Rd, ,Zion,60099.0,(847) 746-4000,(847) 746-7167 fax,3.0, ,http://www.cityofzion.com/,https://maps.lakecountyil.gov/output/districtmaps/spec/ZionTaxIncrementFinanceArea5.pdf,,5296710.4765625,16329.0861453972
210,X58TIF,Highland Park Tax Increment Finance Area 4,HIGHLAND PARK TIFA #4,1707 St Johns Ave, ,Highland Park,60035.0,(847) 432-0800,(847) 432-2624 fax,4.0, ,https://www.cityhpil.com/,https://maps.lakecountyil.gov/output/districtmaps/spec/HighlandParkTaxIncrementFinanceArea4.pdf,,934714.73828125,7758.36475351563
211,X59TIF,Vernon Hills Tax Increment Finance Area 1,VERNON HILLS TIF #2,290 Evergreen Dr, ,Vernon Hills,60061.0,(847) 367-3700,(847) 367-0880 fax,4.0, ,https://vernonhills.org/,https://maps.lakecountyil.gov/output/districtmaps/spec/VernonHillsTaxIncrementFinanceArea1.pdf,,488257.37109375,3957.04169570998
212,X60TIF,Antioch Tax Increment Finance Area 3,VILLAGE OF ANTIOCH TIFA #3,874 Main St, ,Antioch,60002.0,(847) 395-1000,(847) 395-1920 fax,2.0, ,https://www.antioch.il.gov/,https://maps.lakecountyil.gov/output/districtmaps/spec/AntiochTaxIncrementFinanceArea3.pdf,,597983.64453125,5563.88303721521
213,X61TIF,Lake Zurich Tax Increment Finance Area 3,VILLAGE OF LAKE ZURICH TIFA #3,70 E Main St, ,Lake Zurich,60047.0,(847) 438-5141,(847) 540-1768 fax,0.0, ,https://lakezurich.org/,https://maps.lakecountyil.gov/output/districtmaps/spec/LakeZurichTaxIncrementFinanceArea3.pdf,,740437.44140625,5123.48272552852
214,X62TIF,Zion Tax Increment Finance Area 6,ZION TAX INCRE FINANCE AREA #6,2828 Sheridan Rd, ,Zion,60099.0,(847) 746-4000,(847) 746-7167 fax,0.0, ,http://www.cityofzion.com/,https://maps.lakecountyil.gov/output/districtmaps/spec/ZionTaxIncrementFinanceArea6.pdf,,345610.62890625,4772.74786280651
215,X63TIF,Riverwoods Tax Increment Finance Area 2,RIVERWOODS TIF #2,300 Portwine Rd, ,Riverwoods,60015.0,(847) 945-3990,(847) 945-4059 fax,0.0,info@riverwoods-il.net,https://villageofriverwoods.com/,https://maps.lakecountyil.gov/output/districtmaps/spec/RiverwoodsTaxIncrementFinanceArea2.pdf,,197730.74609375,2725.42698267898
216,X64TIF,Winthrop Harbor Tax Increment Finance Area 2,WINTHROP HARBOR TIF #2,830 Sheridan Rd, ,Winthrop Harbor,60096.0,(847) 872-3846,(847) 872-0639 fax,, ,http://www.winthropharbor.com/,https://maps.lakecountyil.gov/output/districtmaps/spec/WinthropHarborTaxIncrementFinanceArea2.pdf,,1036554.05859375,15068.1860531206
217,X65TIF,Zion Tax Increment Finance Area 7,ZION TIF #7,2828 Sheridan Rd, ,Zion,60099.0,(847) 746-4000,(847) 746-7167 fax,, ,http://www.cityofzion.com/,https://maps.lakecountyil.gov/output/districtmaps/spec/ZionTaxIncrementFinanceArea7.pdf ,,3913730.23046875,15918.4996103359
218,X66TIF,Lake Villa Tax Increment Finance Area 2,LAKE VILLA TIF #2,65 Cedar Ave, ,Lake Villa,60046.0,(847) 356-610,(847) 356-6217 fax,, ,https://www.lake-villa.org/,https://maps.lakecountyil.gov/output/districtmaps/spec/LakeVillaTaxIncrementFinanceArea2.pdf,,69906.7578125,1143.43721409069
219,X67TIF,Buffalo Grove Increment Finance Area 2,BUFFALO GROVE TIF #2,50 Raupp Blvd, ,Buffalo Grove,60089.0,(847) 459-2500,(847) 459-7906 fax,, ,https://www.vbg.org/,https://maps.lakecountyil.gov/output/districtmaps/spec/BuffaloGroveIncrementFinanceArea2.pdf,,1850052.76953125,13833.3114590798
220,X68TIF,Vernon Hills Tax Increment Finance Area 3,VERNON HILLS TIF #3,290 Evergreen Dr, ,Vernon Hills,60061.0,(847) 367-3700,(847) 367-0880 fax,, ,https://vernonhills.org/,https://maps.lakecountyil.gov/output/districtmaps/spec/VernonHillsTaxIncrementFinanceArea3.pdf,,531890.5703125,3969.99825497361
221,X69TIF,Waukegan Tax Increment Finance Area 11,WAUKEGAN TIF #11,100 N Martin Luther King Jr., ,Waukegan,60085.0,(847) 599-2500,(847) 360-9299 fax,0.0, ,https://il-waukegan2.civicplus.com/,https://maps.lakecountyil.gov/output/districtmaps/spec/WaukeganTaxIncrementFinanceArea11.pdf,,1037723.01171875,6253.26340182286
222,X70TIF,Round Lake Tax Increment Finance Area 1,ROUND LAKE TIF #1,442 N Cedar Lake Rd, ,Round Lake,60073.0,(847) 546-5400,(847) 546-5405 fax,5.0, ,https://www.eroundlake.com/,https://maps.lakecountyil.gov/output/districtmaps/spec/RoundLakeTaxIncrementFinanceArea1.pdf,,1918561.55078125,11895.1236244814
223,X71TIF,Park City Tax Increment Finance Area 1 Old Skokie,PARK CITY OLD SKOKIE TIF#1,3355 Belvidere Rd,,Park City,60085.0,(847) 623-503,(847) 662-0119 fax,0.0, ,http://www.parkcityil.org/,https://maps.lakecountyil.gov/output/districtmaps/spec/ParkCityTaxIncrementFinanceArea1OldSkokie.pdf,,1077101.203125,6361.56588177093
224,X72TIF,Long Grove Tax Increment Finance Area 2,LONG GROVE TIF #2,3110 Old McHenry Rd,,Long Grove,60047.0,(847) 634-9440,(847) 634-9408 fax,1.0,,https://www.longgroveil.gov/,https://maps.lakecountyil.gov/output/districtmaps/spec/LongGroveTaxIncrementFinanceArea2.pdf,,567335.30859375,5667.10194965003
225,X73TIF,Rand Road Redevelopment Project Area,RAND ROAD REDEVELOPMENT PROJECT AREA,23680 Cuba Rd, ,Deer Park,60010.0,(847) 726-1648,(847) 726-1659 fax,0.0, ,http://www.villageofdeerpark.com/,https://maps.lakecountyil.gov/output/districtmaps/spec/RandRoadRedevelopmentProjectArea.pdf,,617490.48828125,4620.31940886084
226,X74TIF,Lindenhurst Special Service Area 1,LINDENHURST TIF #1 - GRAND AVENUE,2301 E Sand Lake Rd, ,Lincolnshire,60046.0,(847) 356-8252,(847) 356-8270 fax,1.0, ,https://www.lindenhurstil.org/,https://maps.lakecountyil.gov/output/districtmaps/spec/LindenhurstSpecialServiceArea1.pdf, ,1037288.828125,11423.6575133184
227,X75TIF,Fox Lake Tax Increment Financing Area Route 12 North,FOX LAKE TAX INCREM FINANCE AREA #2,66 Thillen Dr,,Fox Lake,,(847) 587-2151,(847) 587-2237 fax,1.0,,http://www.foxlake.org/,,,200898.3984375,2145.07269427042
228,X76TIF,Fox Lake Tax Increment Financing Area Route 12 South,FOX LAKE TAX INCREM FINANCE AREA #3,66 Thillen Dr,,Fox Lake,,(847) 587-2151,(847) 587-2237 fax,2.0,,http://www.foxlake.org/,,,298755.390625,2501.1834713953
229,X77TIF,Fox Lake Tax Increment Financing Area Lakefront,FOX LAKE TAX INCREM FINANCE AREA #4,66 Thillen Dr,,Fox Lake,,(847) 587-2151,(847) 587-2237 fax,4.0,,http://www.foxlake.org/,,,122742.4453125,3123.13914284053
230,X78TIF,Fox Lake Tax Increment Financing Area Minola,FOX LAKE TAX INCREM FINANCE AREA #5,66 Thillen Dr,,Fox Lake,,(847) 587-2151,(847) 587-2237 fax,0.0,,http://www.foxlake.org/,,,163464.89453125,3215.4182920238
